{"type": "FeatureCollection", "features": [{"id": "0", "type": "Feature", "properties": {"name": "road_network"}, "geometry": {"type": "MultiLineString", "coordinates": [[[-86.70138772862215, 36.23199749478485], [-86.70130688024659, 36.231961264357594], [-86.70096552043861, 36.23156997467359], [-86.70077687422895, 36.23133809838133], [-86.70074992477043, 36.231236652287244]], [[-86.70104636881419, 36.23199749478485], [-86.70082178999316, 36.23191054173124], [-86.70010313776586, 36.231084482899355], [-86.7000222893903, 36.23081637420971]], [[-86.70064212693634, 36.23199749478485], [-86.70047144703234, 36.23191778782274], [-86.70010313776586, 36.23148302114457], [-86.70003127254314, 36.23125114459445]], [[-86.70703813175926, 36.231983002615955], [-86.70694830023086, 36.231722143116706], [-86.70692135077233, 36.2315482363004]], [[-86.70323825810743, 36.23170765089679], [-86.70278011731253, 36.23161345140184]], [[-86.70250163957446, 36.23155548242547], [-86.70232197651764, 36.231519251793415], [-86.70207044823809, 36.23141055979652], [-86.70169315581875, 36.23133809838133]], [[-86.70169315581875, 36.23133809838133], [-86.70164824005454, 36.23135983681294], [-86.70155840852614, 36.23135259066974], [-86.70106433511987, 36.23125114459445], [-86.70074992477043, 36.231236652287244]], [[-86.70169315581875, 36.23133809838133], [-86.70161230744318, 36.23125114459445], [-86.7009385709801, 36.231113467567496], [-86.7007858573818, 36.23110622140147], [-86.70071399215907, 36.23115694454957]], [[-86.70074992477043, 36.231236652287244], [-86.70071399215907, 36.23115694454957]], [[-86.70071399215907, 36.23115694454957], [-86.70057924486645, 36.231098975234765], [-86.70047144703234, 36.23101926735675], [-86.7000672051545, 36.23057000325199], [-86.7000222893903, 36.23044681748205]], [[-86.7056726925274, 36.23072217364106], [-86.70533133271944, 36.23066420400395], [-86.7051247202041, 36.23057000325199], [-86.70387606195916, 36.23029464655714]], [[-86.70329215702448, 36.23014247533611], [-86.70297774667505, 36.23012073656607], [-86.70259147110288, 36.230033781425504], [-86.70242977435174, 36.230041027690916], [-86.70228604390628, 36.23014247533611]], [[-86.70921205474684, 36.22989610225518], [-86.70918510528831, 36.22980914686483], [-86.70865509927069, 36.229120746611734], [-86.70830475630987, 36.22849031159028], [-86.70769390191667, 36.227135221410975], [-86.70722677796893, 36.22601924716239], [-86.70704711491211, 36.2254685007557], [-86.7069123676195, 36.22491775047077], [-86.70687643500813, 36.224852529785466]], [[-86.70137874546931, 36.22578010775166], [-86.70155840852614, 36.22578735441121], [-86.70162129059602, 36.225838081009286], [-86.70167518951307, 36.225925040815156], [-86.70173807158297, 36.22597576732392], [-86.70180993680569, 36.225990260606096], [-86.70210638084944, 36.22588880757446], [-86.70233994282333, 36.22564966776489]], [[-86.70233994282333, 36.22564966776489], [-86.70260943740855, 36.225598941044616], [-86.70278910046538, 36.22559169436761], [-86.70280706677106, 36.22556995433255]], [[-86.70280706677106, 36.22556995433255], [-86.70295978036937, 36.225598941044616], [-86.70322029180176, 36.225598941044616], [-86.7035347021512, 36.22555546097248], [-86.70431623644838, 36.225388787138705], [-86.70554692838762, 36.22507717858366], [-86.70687643500813, 36.224852529785466]], [[-86.70280706677106, 36.22556995433255], [-86.70260943740855, 36.22528733332686]], [[-86.70687643500813, 36.224852529785466], [-86.70685846870245, 36.22468585445371], [-86.70682253609108, 36.22460614003906]]]}}]}