{"type": "FeatureCollection", "features": [{"id": "0", "type": "Feature", "properties": {"name": "road_network"}, "geometry": {"type": "MultiLineString", "coordinates": [[[-86.56650878020727, 36.17905026153622], [-86.56659861173569, 36.17902850857145], [-86.56661657804136, 36.17899950460903]], [[-86.56862880427778, 36.17904301054864], [-86.5685659222079, 36.1789850026238], [-86.56843117491528, 36.17860795006542]], [[-86.57250952630518, 36.17903575956038], [-86.57254545891655, 36.17881822960063], [-86.57251850945802, 36.17876022150936], [-86.57243766108245, 36.17870221337513], [-86.57227596433131, 36.17865870724628], [-86.5713776490472, 36.178571694916094]], [[-86.5710093397807, 36.17902850857145], [-86.5711171376148, 36.178571694916094], [-86.57112612076764, 36.178325159455795]], [[-86.56661657804136, 36.17899950460903], [-86.56692200523796, 36.17895599864527], [-86.56766760692378, 36.17894874764896], [-86.56794608466186, 36.17885448463586], [-86.56831439392835, 36.17862970314696], [-86.56843117491528, 36.17860795006542]], [[-86.56661657804136, 36.17899950460903], [-86.56650878020727, 36.17889073965432]], [[-86.56843117491528, 36.17860795006542], [-86.56848507383232, 36.17852093767887], [-86.5688264336403, 36.1782889041756], [-86.56914982714257, 36.17815838502803], [-86.56950017010338, 36.178151133957904], [-86.57112612076764, 36.178325159455795]], [[-86.57112612076764, 36.178325159455795], [-86.57115307022616, 36.178296155232985], [-86.57119798599037, 36.17803511674456]], [[-86.57303953232281, 36.178245397817236], [-86.57194358767619, 36.178064121064004], [-86.57161121102106, 36.17803511674456], [-86.57119798599037, 36.17803511674456]], [[-86.57119798599037, 36.17803511674456], [-86.57123391860173, 36.177723319632435], [-86.57127883436594, 36.17759279954266]], [[-86.56667946011125, 36.1778683416994], [-86.5667782747925, 36.177890094986296], [-86.56707471883627, 36.17788284389134], [-86.56741607864423, 36.17779583069947], [-86.56746997756127, 36.177745072959596]], [[-86.56664352749988, 36.177853839504785], [-86.56661657804136, 36.17776682628071], [-86.56668844326408, 36.17773057074216], [-86.56741607864423, 36.17770881741097], [-86.56746997756127, 36.177745072959596]], [[-86.57266223990348, 36.1778175840065], [-86.57247359369381, 36.17780308180249], [-86.57215918334438, 36.177723319632435]], [[-86.56746997756127, 36.177745072959596], [-86.56782930367493, 36.17773782185121]], [[-86.56782930367493, 36.17773782185121], [-86.56792811835618, 36.177375265576515]], [[-86.57208731812165, 36.17767256184558], [-86.57127883436594, 36.17759279954266]], [[-86.57127883436594, 36.17759279954266], [-86.57128781751878, 36.17736076329063], [-86.57144951426991, 36.176381852787614]], [[-86.56744302810274, 36.17748403263508], [-86.56690403893228, 36.17748403263508], [-86.56672437587545, 36.177426023555974], [-86.56655369597148, 36.177310005268886]], [[-86.56792811835618, 36.177375265576515], [-86.56797303412037, 36.17723749375223], [-86.56797303412037, 36.17716498216846]], [[-86.56792811835618, 36.177375265576515], [-86.56730828081012, 36.177339009856766], [-86.56724539874024, 36.17730275412024], [-86.56722743243456, 36.17721574028414]], [[-86.56840422545676, 36.177186735650636], [-86.56838625915107, 36.177121475185984], [-86.5682604950113, 36.17696194937688], [-86.56810778141299, 36.17685318159355]], [[-86.56797303412037, 36.17716498216846], [-86.56742506179707, 36.17704896349484]], [[-86.56797303412037, 36.17716498216846], [-86.5679999835789, 36.177135977516166], [-86.56808083195448, 36.176874935162296], [-86.56810778141299, 36.17685318159355]], [[-86.57337190897795, 36.176983702915436], [-86.57307546493418, 36.17693294464943], [-86.5725813915279, 36.176947447014506], [-86.57187172245345, 36.17678066965411]], [[-86.56810778141299, 36.17685318159355], [-86.56811676456583, 36.17677341845646], [-86.56824252870562, 36.17654137977781], [-86.5682604950113, 36.176454365096156]], [[-86.5682604950113, 36.176454365096156], [-86.56852100644369, 36.176091802882404], [-86.56865575373631, 36.175946777527145], [-86.56879050102893, 36.175852510902295], [-86.56897016408575, 36.17578724932634]], [[-86.5682604950113, 36.176454365096156], [-86.5681526971772, 36.17643986263982], [-86.56778438791072, 36.17647611877563], [-86.56759574170104, 36.176454365096156], [-86.56747896071411, 36.17640360648723]], [[-86.57144951426991, 36.176381852787614], [-86.5712249354489, 36.176367350317854]], [[-86.57144951426991, 36.176381852787614], [-86.57149443003412, 36.176142561693325], [-86.57148544688128, 36.17599028516191]], [[-86.57148544688128, 36.17599028516191], [-86.56944627118634, 36.175779998036774], [-86.56897016408575, 36.17578724932634]], [[-86.57148544688128, 36.17599028516191], [-86.57153934579833, 36.17587426474886], [-86.57167409309096, 36.17496059799274], [-86.57176392461936, 36.17454001765117], [-86.57195257082903, 36.173981657502985], [-86.57206935181595, 36.173742359078645], [-86.57209630127448, 36.17361183235735]], [[-86.56897016408575, 36.17578724932634], [-86.56875456841757, 36.17538117607684], [-86.56862880427778, 36.175207144039966]], [[-86.57530328683879, 36.173836628242135], [-86.57523142161607, 36.173872885582504], [-86.57470141559844, 36.17386563411578], [-86.57283291980747, 36.173698850195706], [-86.57256342522223, 36.173648089801745]], [[-86.57256342522223, 36.173648089801745], [-86.57209630127448, 36.17361183235735]], [[-86.57256342522223, 36.173648089801745], [-86.5725993578336, 36.173488556920944], [-86.57285088611314, 36.17287217682987], [-86.57286885241884, 36.172661881336616], [-86.5728419029603, 36.17239357247414], [-86.57288681872451, 36.172226785420946], [-86.57293173448872, 36.172183275696504], [-86.5731922459211, 36.17220503056174], [-86.57339885843646, 36.172183275696504], [-86.57346174050635, 36.172096256175166], [-86.57350665627055, 36.17179168708951], [-86.57356953834044, 36.171704667133326], [-86.57365038671601, 36.17164665377553], [-86.5737132687859, 36.171639402102784]], [[-86.57209630127448, 36.17361183235735], [-86.5720334192046, 36.17357557489619], [-86.57166510993811, 36.173488556920944], [-86.57076679465399, 36.17306796867835], [-86.57070391258411, 36.17301720787572]], [[-86.57070391258411, 36.17301720787572], [-86.57045238430456, 36.172922937726455], [-86.57038051908181, 36.172857673710524]], [[-86.57038051908181, 36.172857673710524], [-86.5702457717892, 36.17284317058849], [-86.5691767766011, 36.17251684963314]], [[-86.57038051908181, 36.172857673710524], [-86.57059611475002, 36.17169741546596], [-86.57063204736137, 36.17164665377553]], [[-86.5691767766011, 36.17251684963314], [-86.56888033255734, 36.17244433368075], [-86.56773048899367, 36.172052746378256], [-86.56755082593683, 36.17202373983356], [-86.56726336504593, 36.17202373983356]], [[-86.5691767766011, 36.17251684963314], [-86.56931152389372, 36.1721325143208], [-86.56945525433918, 36.17185695199323]], [[-86.56614047094078, 36.172154269200135], [-86.5661674203993, 36.1721325143208], [-86.56684115686238, 36.17208175291221], [-86.56726336504593, 36.17202373983356]], [[-86.56726336504593, 36.17202373983356], [-86.56729929765729, 36.171639402102784]], [[-86.56700285361353, 36.17185695199323], [-86.56691302208512, 36.17173367379613], [-86.56680522425103, 36.171639402102784], [-86.5667782747925, 36.171639402102784]]]}}]}