{"type": "FeatureCollection", "features": [{"id": "0", "type": "Feature", "properties": {"name": "road_network"}, "geometry": {"type": "MultiLineString", "coordinates": [[[-85.7242939379291, 38.231285538622494], [-85.72417715694218, 38.23122203065131], [-85.72397054442682, 38.23101739347803]], [[-85.72106898605912, 38.231285538622494], [-85.72124864911594, 38.23125731286437], [-85.72166187414663, 38.23105267579036], [-85.72178763828641, 38.230975054680634], [-85.72182357089778, 38.23087626405752]], [[-85.72555157932686, 38.23119380486854], [-85.72532700050584, 38.230840981659604], [-85.72525513528312, 38.23076336032394], [-85.72520123636606, 38.230749247344924]], [[-85.72435681999899, 38.23113029681725], [-85.72452749990298, 38.23103150640501], [-85.72520123636606, 38.230749247344924]], [[-85.72397054442682, 38.23101739347803], [-85.72317104382395, 38.230946828802004], [-85.72182357089778, 38.23087626405752]], [[-85.72397054442682, 38.23101739347803], [-85.7239435949683, 38.2308692075793], [-85.7238986792041, 38.23079864275952], [-85.72304527968417, 38.229697822705944], [-85.72251527366654, 38.229062726634524]], [[-85.72182357089778, 38.23087626405752], [-85.72159000892391, 38.230840981659604], [-85.72107796921196, 38.23081981221264], [-85.7199281256483, 38.23071396488538], [-85.7192364228795, 38.23071396488538], [-85.71865251794483, 38.23064339991497], [-85.7181853939971, 38.23065751291453], [-85.71779013527208, 38.23069985189678]], [[-85.72520123636606, 38.230749247344924], [-85.72515632060187, 38.230629286912674], [-85.7249047923223, 38.23033291323178], [-85.72481496079389, 38.23019178248306], [-85.72473411241832, 38.23011416045454], [-85.72469817980696, 38.230107103902384]], [[-85.7264319283053, 38.230445817633566], [-85.7260815853445, 38.22999419897479], [-85.72600972012177, 38.229944803013844]], [[-85.72584802337063, 38.23001536866206], [-85.72600972012177, 38.229944803013844]], [[-85.72600972012177, 38.229944803013844], [-85.72599175381609, 38.22988835044599], [-85.72565039400813, 38.229436728325645], [-85.72559649509108, 38.22918268965061], [-85.72559649509108, 38.22897804673933], [-85.72562344454961, 38.2288721967317], [-85.72569530977233, 38.228745176519226], [-85.72577615814791, 38.2286816663298], [-85.72586598967631, 38.228653439561135], [-85.72602768642746, 38.228653439561135], [-85.72640497884679, 38.22872400646224]], [[-85.72060186211138, 38.22968370952015], [-85.72023355284489, 38.22942967170776], [-85.71985626042554, 38.22909095324434], [-85.71973049628578, 38.22900627338202], [-85.71961371529885, 38.22897804673933]], [[-85.7266295576678, 38.22918268965061], [-85.72661159136213, 38.229098009895075], [-85.726449894611, 38.228879253403676], [-85.72640497884679, 38.22872400646224]], [[-85.7194071027835, 38.228879253403676], [-85.71913760819825, 38.22881574333132], [-85.7189938777528, 38.22881574333132]], [[-85.72640497884679, 38.22872400646224], [-85.726449894611, 38.228653439561135], [-85.7266295576678, 38.22854053237697]], [[-85.72313511121259, 38.22858992929161], [-85.72339562264499, 38.22844879516078]], [[-85.72194933503755, 38.22832883093426], [-85.72176967198074, 38.22805361813756], [-85.72149119424265, 38.22774312039884], [-85.72133848064435, 38.22749613261473], [-85.72112288497617, 38.22726325765012]], [[-85.72293748185008, 38.228152412594646], [-85.72308121229554, 38.22825120691755], [-85.72323392589384, 38.22831471748284], [-85.72353935309044, 38.22832883093426], [-85.72375494875863, 38.228279433842296], [-85.7242939379291, 38.22807478838967], [-85.72443766837458, 38.227997164101836]], [[-85.71973049628578, 38.22799010734429], [-85.71969456367441, 38.227940710022295], [-85.71928133864371, 38.22784897204959], [-85.7184908211937, 38.227750177180354], [-85.7182752255255, 38.22769372290912]], [[-85.72203916656596, 38.227954823546284], [-85.72209306548301, 38.22789836943389], [-85.72238052637393, 38.22774312039884], [-85.72267697041768, 38.227637268594066], [-85.72315307751828, 38.22736910999919], [-85.72384478028704, 38.22704449564059], [-85.72408732541376, 38.22686807418592], [-85.7242490221649, 38.22671282295186], [-85.72445563468025, 38.22636703492147], [-85.7245544493615, 38.22602830219585], [-85.72454546620867, 38.225668396946574], [-85.72439275261036, 38.225195577540234]], [[-85.7182752255255, 38.22769372290912], [-85.71804166355163, 38.22770783648103], [-85.71770928689651, 38.22766549575707]], [[-85.7182752255255, 38.22769372290912], [-85.71832912444256, 38.22761609821462], [-85.7189938777528, 38.22730559860823], [-85.71914659135109, 38.22725620082139], [-85.71922743972667, 38.22727031447819]], [[-85.7220481497188, 38.22725620082139], [-85.72158102577106, 38.22664931098788]], [[-85.72215594755289, 38.227192689331844], [-85.7226140883478, 38.22698804082165], [-85.72269493672337, 38.226931585958894], [-85.72268595357053, 38.226882187918044]], [[-85.71975744574429, 38.2265293437935], [-85.72018863708068, 38.2265293437935], [-85.72035931698466, 38.226501116189596], [-85.72042219905454, 38.22645877476321]], [[-85.71743979231127, 38.226508173091595], [-85.71745775861696, 38.22647288857473], [-85.7176014890624, 38.22637409183648], [-85.71787098364766, 38.226261181114154], [-85.71828420867836, 38.22620472568727], [-85.71848183804086, 38.22612709940377], [-85.71874234947325, 38.22592244789562], [-85.71878726523745, 38.22582365040975], [-85.71878726523745, 38.225724852789696]], [[-85.72042219905454, 38.22645877476321], [-85.72132949749151, 38.22643054713192], [-85.72150916054834, 38.22640231948967], [-85.72156305946538, 38.226338807254585]], [[-85.72042219905454, 38.22645877476321], [-85.72038626644319, 38.226381148750804], [-85.72020660338636, 38.226162384088354], [-85.72017067077499, 38.22606358692837]], [[-85.72156305946538, 38.226338807254585], [-85.72213798124722, 38.22606358692837], [-85.72280273455748, 38.22568956789288], [-85.72324290904668, 38.22547785815251], [-85.72365613407737, 38.22532260395131], [-85.72416817378932, 38.22521674862415], [-85.72439275261036, 38.225195577540234]], [[-85.72017067077499, 38.22606358692837], [-85.72091627246081, 38.22581659344134], [-85.72235357691541, 38.225146178320465], [-85.72282968401599, 38.22487095348194], [-85.72301833022566, 38.22478626870675]], [[-85.72017067077499, 38.22606358692837], [-85.72013473816364, 38.22605652998323], [-85.72002694032955, 38.22595067572408], [-85.71995507510681, 38.22585893524153], [-85.71993710880113, 38.2257742516165]], [[-85.71993710880113, 38.2257742516165], [-85.72014372131648, 38.225633112022365], [-85.7206737273341, 38.22538611707367], [-85.7212845817273, 38.22505443682333], [-85.72273086933474, 38.22418641539351], [-85.72292849869724, 38.224137015488445], [-85.72318901012963, 38.224137015488445]], [[-85.71993710880113, 38.2257742516165], [-85.71985626042554, 38.22573190976701], [-85.71947896800623, 38.22522380565075], [-85.71934422071361, 38.22507560794832]], [[-85.71878726523745, 38.225724852789696], [-85.7185806527221, 38.225717795811704], [-85.71848183804086, 38.225682510911454], [-85.71811352877435, 38.22535083201254], [-85.71797878148175, 38.22529437587914], [-85.71762843852095, 38.225230862676675], [-85.7174487754641, 38.225266147796]], [[-85.71878726523745, 38.225724852789696], [-85.71883218100166, 38.22561194105962], [-85.71883218100166, 38.22544963014058]], [[-85.7266295576678, 38.22547785815251], [-85.72655769244508, 38.22540728810214], [-85.72642294515246, 38.22538611707367], [-85.72497665754503, 38.225209691596866], [-85.72439275261036, 38.225195577540234]], [[-85.71883218100166, 38.22544963014058], [-85.71876031577894, 38.22542845912444], [-85.71870641686188, 38.225379060062814], [-85.7186255684863, 38.22516734941876], [-85.7185806527221, 38.224835668170925], [-85.7185357369579, 38.22475804042645], [-85.7184279391238, 38.22466629843981]], [[-85.71883218100166, 38.22544963014058], [-85.71896692829428, 38.225259090773505], [-85.71906574297553, 38.22516734941876], [-85.71934422071361, 38.22507560794832]], [[-85.72439275261036, 38.225195577540234], [-85.72433885369331, 38.224927409943966]], [[-85.71934422071361, 38.22507560794832], [-85.71941608593634, 38.224913295832565], [-85.71947896800623, 38.2248427252345], [-85.71963168160453, 38.22472981213519], [-85.7198652435784, 38.224602784688976], [-85.72050304743013, 38.22434167201961], [-85.72123068281026, 38.224158186880445], [-85.72137441325572, 38.22408761554984], [-85.72147322793697, 38.22406644413731]], [[-85.72611751795586, 38.22473686920903], [-85.72554259617402, 38.224334614907434], [-85.72518327006038, 38.224137015488445]], [[-85.71745775861696, 38.22468746967776], [-85.71783505103629, 38.22463807011295], [-85.7184279391238, 38.22466629843981]], [[-85.7184279391238, 38.22466629843981], [-85.71857166956926, 38.2245180996016]], [[-85.72411427487228, 38.22463807011295], [-85.7239435949683, 38.22448987121723], [-85.72367410038306, 38.22432755779457], [-85.72350342047908, 38.224242872386796], [-85.72318901012963, 38.224137015488445]], [[-85.71857166956926, 38.2245180996016], [-85.71866150109767, 38.22450398541079], [-85.7194071027835, 38.22408761554984], [-85.71953286692327, 38.22406644413731]], [[-85.71857166956926, 38.2245180996016], [-85.71852675380505, 38.22436284335204], [-85.71845488858233, 38.22426404374798], [-85.71817641084425, 38.22408761554984], [-85.718077596163, 38.224073501275505]]]}}]}