{"type": "FeatureCollection", "features": [{"id": "0", "type": "Feature", "properties": {"name": "road_network"}, "geometry": {"type": "MultiLineString", "coordinates": [[[-97.78688169153943, 30.227282434155292], [-97.78696011298459, 30.227242555303537], [-97.78703936497179, 30.227135009387283]], [[-97.78553102581844, 30.227269923295687], [-97.78564072783212, 30.227221311853004], [-97.78575253616393, 30.227001277288775], [-97.7857945384271, 30.226965573313134]], [[-97.7850375135551, 30.22726534854905], [-97.78465353741619, 30.227225694732475], [-97.78431792479822, 30.227055650782905], [-97.78322205988631, 30.22660333862886]], [[-97.78722471906894, 30.22727207437062], [-97.78720957738749, 30.22723584105795], [-97.78703936497179, 30.227135009387283]], [[-97.78592755386902, 30.227133736648355], [-97.78588218578442, 30.227020525161745], [-97.7857945384271, 30.226965573313134]], [[-97.78703936497179, 30.227135009387283], [-97.7870404724397, 30.227044786698713]], [[-97.78322131118283, 30.227086077582424], [-97.78325409113386, 30.226955544283378]], [[-97.7870404724397, 30.227044786698713], [-97.78714553233067, 30.226951014535487], [-97.78721964439198, 30.226838909277742], [-97.78724689198383, 30.226735393560094]], [[-97.7870404724397, 30.227044786698713], [-97.78697321617354, 30.227021605900685], [-97.78692707162963, 30.226971550623634], [-97.78637561220484, 30.226185929613425], [-97.7862981332803, 30.226149118863415]], [[-97.7857945384271, 30.226965573313134], [-97.78578989787746, 30.2269204138541]], [[-97.78578989787746, 30.2269204138541], [-97.78582139954133, 30.226893635863433], [-97.78584870403188, 30.22678560934536], [-97.7861932951307, 30.22622484582529], [-97.7862981332803, 30.226149118863415]], [[-97.78578989787746, 30.2269204138541], [-97.78562454972793, 30.226846695323488], [-97.78515017345791, 30.22655355304991], [-97.78492812710365, 30.22644321484918], [-97.78486651036611, 30.226383992110136]], [[-97.78193246424325, 30.226695125669707], [-97.78196519013295, 30.226569103855038], [-97.78223004570127, 30.226156494215783]], [[-97.78322205988631, 30.22660333862886], [-97.78326400731542, 30.22657214661127], [-97.78326434058278, 30.22654507984047]], [[-97.78322205988631, 30.22660333862886], [-97.7830459913203, 30.226556587204588], [-97.78223004570127, 30.226156494215783]], [[-97.78324953374266, 30.226481779338158], [-97.78327136836128, 30.226396260832882]], [[-97.78486651036611, 30.226383992110136], [-97.78476283589806, 30.226364984134182], [-97.78460273977264, 30.226286801397855]], [[-97.78486651036611, 30.226383992110136], [-97.78491465045327, 30.22627164735165], [-97.78559780900356, 30.225217743130987]], [[-97.78337195820322, 30.226243798857663], [-97.78349835513363, 30.226105111304925]], [[-97.78223004570127, 30.226156494215783], [-97.78346403633351, 30.224250506504045], [-97.78351212134089, 30.22414267337088], [-97.78355412313472, 30.224106970087103]], [[-97.78223004570127, 30.226156494215783], [-97.78197164009721, 30.226045813185323], [-97.78194611094918, 30.22600948274593]], [[-97.7862981332803, 30.226149118863415], [-97.78629968462003, 30.22602280711479]], [[-97.78629968462003, 30.22602280711479], [-97.78700377194686, 30.22495555411037], [-97.78710330264155, 30.22488880062422]], [[-97.78629968462003, 30.22602280711479], [-97.78622231666763, 30.22597697405561], [-97.78572701282673, 30.225273080165156], [-97.78559780900356, 30.225217743130987]], [[-97.78390113059169, 30.22588326747334], [-97.78450476683771, 30.22495946880319], [-97.7846323255507, 30.224726046270455]], [[-97.78559780900356, 30.225217743130987], [-97.78557769519972, 30.225163416970464], [-97.78552099639293, 30.22512679834585], [-97.7847514160606, 30.224758732222153], [-97.7846323255507, 30.224726046270455]], [[-97.78726803979741, 30.225012139749477], [-97.78722211744328, 30.224944040038046], [-97.78710330264155, 30.22488880062422]], [[-97.78710330264155, 30.22488880062422], [-97.7870801526104, 30.224658492282536], [-97.78696615550032, 30.22421078390428]], [[-97.78609049395628, 30.22486588776308], [-97.78594576164474, 30.224805895583312]], [[-97.7846323255507, 30.224726046270455], [-97.7842098539594, 30.224437893751066], [-97.78355412313472, 30.224106970087103]], [[-97.78696615550032, 30.22421078390428], [-97.78633610008382, 30.224326764861964], [-97.78607636443007, 30.224324359138745], [-97.78583282258951, 30.22427247481212], [-97.78522842408069, 30.223991663149107], [-97.78515647470492, 30.22392783312258], [-97.7851365831954, 30.22385546236384], [-97.78538058396556, 30.223447164135354], [-97.7854182771647, 30.223339233929607]], [[-97.78696615550032, 30.22421078390428], [-97.78676955364462, 30.223297610846906]], [[-97.78355412313472, 30.224106970087103], [-97.78367040519542, 30.223945630149043], [-97.7840843931731, 30.223656214883274], [-97.78455554028456, 30.222943233528415]], [[-97.78355412313472, 30.224106970087103], [-97.78256760452852, 30.223637621280748], [-97.78223217441186, 30.223454038943963]], [[-97.7819773266882, 30.22389832341372], [-97.78200485678875, 30.22377225322812], [-97.78219581179499, 30.223453701043898]], [[-97.78223217441186, 30.223454038943963], [-97.78219581179499, 30.223453701043898]], [[-97.78219581179499, 30.223453701043898], [-97.78201511061131, 30.22336178882152], [-97.78197952637554, 30.22329829506272]], [[-97.78223217441186, 30.223454038943963], [-97.78234409681801, 30.223224984997724]], [[-97.7854182771647, 30.223339233929607], [-97.7856879560726, 30.22337782623172], [-97.78607744495977, 30.223390457947076], [-97.78655071328173, 30.223349724491936], [-97.78676955364462, 30.223297610846906]], [[-97.7854182771647, 30.223339233929607], [-97.78538749728983, 30.22330736712044], [-97.78455554028456, 30.222943233528415]], [[-97.78676955364462, 30.223297610846906], [-97.78728018030816, 30.223176010894242]], [[-97.78676955364462, 30.223297610846906], [-97.78664710838731, 30.222691916213503], [-97.78661621753389, 30.22266907195812]], [[-97.78234409681801, 30.223224984997724], [-97.78262019109854, 30.223164386988337], [-97.78301040055241, 30.223118383094405], [-97.78319337942247, 30.223025337601367], [-97.78330402181628, 30.222900038759875]], [[-97.78234409681801, 30.223224984997724], [-97.78229454033358, 30.223030523772337], [-97.78219851031155, 30.222813072449462], [-97.78220548363868, 30.222668764582362], [-97.78225793005818, 30.222628647113304]], [[-97.78455554028456, 30.222943233528415], [-97.78459759666352, 30.222903018746184], [-97.78470956845945, 30.22266945145925], [-97.78474615269484, 30.222651744119485]], [[-97.78455554028456, 30.222943233528415], [-97.78402382281145, 30.222667602173242], [-97.78387870645483, 30.2226391857392]]]}}]}