{"type": "FeatureCollection", "features": [{"id": "0", "type": "Feature", "properties": {"name": "road_network"}, "geometry": {"type": "MultiLineString", "coordinates": [[[-13166468.049864134, 4042012.325023027], [-13166464.049864134, 4042007.325023027], [-13166454.049864134, 4041979.325023027], [-13166453.049864134, 4041960.325023027]], [[-13166237.049864134, 4042012.325023027], [-13166257.049864134, 4042006.325023027], [-13166365.049864134, 4041898.325023027], [-13166370.049864134, 4041897.325023027]], [[-13166097.049864134, 4042012.325023027], [-13166114.049864134, 4042004.325023027], [-13166121.049864134, 4041989.325023027], [-13166144.049864134, 4041959.325023027], [-13166286.049864134, 4041805.325023027], [-13166292.049864134, 4041798.325023027], [-13166296.049864134, 4041785.325023027]], [[-13165958.049864134, 4042012.325023027], [-13165955.049864134, 4042009.325023027], [-13165954.049864134, 4042000.325023027], [-13165951.049864134, 4041958.325023027], [-13165952.049864134, 4041938.325023027], [-13165957.049864134, 4041928.325023027], [-13165993.049864134, 4041894.325023027]], [[-13165648.049864134, 4042012.325023027], [-13165657.049864134, 4042009.325023027], [-13165720.049864134, 4041941.325023027], [-13165735.049864134, 4041938.325023027]], [[-13165564.049864134, 4042011.325023027], [-13165568.049864134, 4042010.325023027], [-13165660.049864134, 4041928.325023027], [-13165674.049864134, 4041909.325023027], [-13165672.049864134, 4041899.325023027], [-13165656.049864134, 4041883.325023027], [-13165645.049864134, 4041868.325023027], [-13165639.049864134, 4041839.325023027], [-13165641.049864134, 4041810.325023027], [-13165645.049864134, 4041794.325023027], [-13165667.049864134, 4041756.325023027], [-13165670.049864134, 4041738.325023027], [-13165667.049864134, 4041729.325023027], [-13165661.049864134, 4041724.325023027], [-13165648.049864134, 4041722.325023027], [-13165607.049864134, 4041725.325023027], [-13165567.049864134, 4041725.325023027], [-13165564.049864134, 4041722.325023027]], [[-13165729.049864134, 4042006.325023027], [-13165734.049864134, 4042007.325023027], [-13165749.049864134, 4042002.325023027], [-13165777.049864134, 4041977.325023027], [-13165791.049864134, 4041956.325023027], [-13165794.049864134, 4041938.325023027]], [[-13165729.049864134, 4042006.325023027], [-13165729.049864134, 4041994.325023027], [-13165735.049864134, 4041960.325023027], [-13165735.049864134, 4041938.325023027]], [[-13166453.049864134, 4041960.325023027], [-13166462.049864134, 4041958.325023027], [-13166483.049864134, 4041945.325023027], [-13166506.049864134, 4041935.325023027], [-13166545.049864134, 4041925.325023027], [-13166565.049864134, 4041926.325023027], [-13166579.049864134, 4041930.325023027], [-13166584.049864134, 4041933.325023027], [-13166586.049864134, 4041939.325023027]], [[-13166453.049864134, 4041960.325023027], [-13166449.049864134, 4041957.325023027], [-13166447.049864134, 4041951.325023027], [-13166449.049864134, 4041933.325023027], [-13166503.049864134, 4041854.325023027], [-13166508.049864134, 4041837.325023027]], [[-13166411.049864134, 4041945.325023027], [-13166411.049864134, 4041939.325023027], [-13166406.049864134, 4041930.325023027], [-13166370.049864134, 4041897.325023027]], [[-13165735.049864134, 4041938.325023027], [-13165742.049864134, 4041914.325023027], [-13165742.049864134, 4041885.325023027], [-13165739.049864134, 4041874.325023027], [-13165716.049864134, 4041832.325023027]], [[-13165794.049864134, 4041923.325023027], [-13165795.049864134, 4041843.325023027], [-13165797.049864134, 4041829.325023027], [-13165804.049864134, 4041804.325023027], [-13165811.049864134, 4041789.325023027], [-13165814.049864134, 4041787.325023027]], [[-13166370.049864134, 4041897.325023027], [-13166371.049864134, 4041888.325023027], [-13166384.049864134, 4041865.325023027], [-13166391.049864134, 4041856.325023027], [-13166398.049864134, 4041852.325023027]], [[-13165563.049864134, 4041897.325023027], [-13165566.049864134, 4041877.325023027], [-13165566.049864134, 4041813.325023027], [-13165563.049864134, 4041786.325023027]], [[-13165890.049864134, 4041869.325023027], [-13165915.049864134, 4041873.325023027], [-13165929.049864134, 4041872.325023027], [-13165935.049864134, 4041866.325023027], [-13165944.049864134, 4041830.325023027], [-13165947.049864134, 4041824.325023027], [-13165953.049864134, 4041820.325023027], [-13165967.049864134, 4041823.325023027], [-13166017.049864134, 4041858.325023027], [-13166034.049864134, 4041858.325023027], [-13166047.049864134, 4041851.325023027], [-13166058.049864134, 4041840.325023027], [-13166066.049864134, 4041826.325023027], [-13166067.049864134, 4041805.325023027], [-13166060.049864134, 4041767.325023027], [-13166060.049864134, 4041755.325023027], [-13166070.049864134, 4041748.325023027], [-13166083.049864134, 4041749.325023027], [-13166110.049864134, 4041760.325023027], [-13166158.049864134, 4041773.325023027], [-13166233.049864134, 4041776.325023027], [-13166239.049864134, 4041778.325023027]], [[-13166170.049864134, 4041857.325023027], [-13166151.049864134, 4041855.325023027], [-13166134.049864134, 4041846.325023027], [-13166123.049864134, 4041833.325023027], [-13166116.049864134, 4041815.325023027]], [[-13166398.049864134, 4041852.325023027], [-13166406.049864134, 4041858.325023027], [-13166417.049864134, 4041858.325023027], [-13166483.049864134, 4041839.325023027], [-13166508.049864134, 4041837.325023027]], [[-13166398.049864134, 4041852.325023027], [-13166405.049864134, 4041827.325023027], [-13166444.049864134, 4041749.325023027], [-13166453.049864134, 4041744.325023027]], [[-13166508.049864134, 4041837.325023027], [-13166552.049864134, 4041829.325023027], [-13166583.049864134, 4041828.325023027]], [[-13166195.049864134, 4041835.325023027], [-13166235.049864134, 4041791.325023027], [-13166239.049864134, 4041778.325023027]], [[-13165814.049864134, 4041787.325023027], [-13165847.049864134, 4041793.325023027], [-13165867.049864134, 4041794.325023027], [-13165899.049864134, 4041786.325023027]], [[-13165814.049864134, 4041787.325023027], [-13165815.049864134, 4041776.325023027], [-13165820.049864134, 4041767.325023027], [-13165845.049864134, 4041735.325023027], [-13165857.049864134, 4041702.325023027], [-13165860.049864134, 4041686.325023027], [-13165860.049864134, 4041620.325023027]], [[-13166296.049864134, 4041785.325023027], [-13166304.049864134, 4041783.325023027], [-13166417.049864134, 4041666.325023027], [-13166429.049864134, 4041657.325023027], [-13166439.049864134, 4041654.325023027]], [[-13166296.049864134, 4041785.325023027], [-13166291.049864134, 4041780.325023027], [-13166286.049864134, 4041779.325023027], [-13166239.049864134, 4041778.325023027]], [[-13165923.049864134, 4041779.325023027], [-13165927.049864134, 4041780.325023027], [-13165933.049864134, 4041777.325023027], [-13165951.049864134, 4041760.325023027], [-13165966.049864134, 4041715.325023027], [-13165973.049864134, 4041702.325023027], [-13165989.049864134, 4041691.325023027], [-13166008.049864134, 4041685.325023027], [-13166045.049864134, 4041681.325023027], [-13166065.049864134, 4041682.325023027], [-13166082.049864134, 4041686.325023027], [-13166108.049864134, 4041700.325023027], [-13166165.049864134, 4041716.325023027], [-13166180.049864134, 4041715.325023027], [-13166186.049864134, 4041712.325023027], [-13166216.049864134, 4041688.325023027], [-13166254.049864134, 4041701.325023027], [-13166271.049864134, 4041700.325023027], [-13166290.049864134, 4041689.325023027]], [[-13166583.049864134, 4041751.325023027], [-13166477.049864134, 4041751.325023027], [-13166459.049864134, 4041749.325023027], [-13166453.049864134, 4041744.325023027]], [[-13166453.049864134, 4041744.325023027], [-13166455.049864134, 4041731.325023027], [-13166459.049864134, 4041725.325023027], [-13166474.049864134, 4041708.325023027], [-13166496.049864134, 4041691.325023027], [-13166502.049864134, 4041678.325023027]], [[-13165733.049864134, 4041730.325023027], [-13165724.049864134, 4041689.325023027], [-13165714.049864134, 4041662.325023027], [-13165715.049864134, 4041606.325023027]], [[-13166586.049864134, 4041682.325023027], [-13166572.049864134, 4041666.325023027]], [[-13166502.049864134, 4041678.325023027], [-13166555.049864134, 4041671.325023027], [-13166572.049864134, 4041666.325023027]], [[-13166502.049864134, 4041678.325023027], [-13166492.049864134, 4041669.325023027], [-13166449.049864134, 4041660.325023027], [-13166439.049864134, 4041654.325023027]], [[-13166572.049864134, 4041666.325023027], [-13166586.049864134, 4041598.325023027]], [[-13166439.049864134, 4041654.325023027], [-13166445.049864134, 4041637.325023027], [-13166475.049864134, 4041601.325023027], [-13166560.049864134, 4041510.325023027], [-13166575.049864134, 4041488.325023027], [-13166580.049864134, 4041484.325023027], [-13166586.049864134, 4041465.325023027]], [[-13165860.049864134, 4041620.325023027], [-13165908.049864134, 4041607.325023027], [-13165934.049864134, 4041604.325023027]], [[-13165860.049864134, 4041620.325023027], [-13165858.049864134, 4041605.325023027], [-13165865.049864134, 4041578.325023027], [-13165904.049864134, 4041505.325023027], [-13165912.049864134, 4041496.325023027], [-13165936.049864134, 4041457.325023027], [-13165944.049864134, 4041451.325023027]], [[-13166100.049864134, 4041612.325023027], [-13166111.049864134, 4041610.325023027], [-13166128.049864134, 4041599.325023027], [-13166161.049864134, 4041556.325023027], [-13166185.049864134, 4041529.325023027], [-13166219.049864134, 4041501.325023027], [-13166263.049864134, 4041473.325023027], [-13166268.049864134, 4041462.325023027]], [[-13165715.049864134, 4041606.325023027], [-13165721.049864134, 4041603.325023027]], [[-13165715.049864134, 4041606.325023027], [-13165603.049864134, 4041606.325023027], [-13165594.049864134, 4041604.325023027]], [[-13165594.049864134, 4041604.325023027], [-13165569.049864134, 4041605.325023027], [-13165564.049864134, 4041600.325023027]], [[-13165594.049864134, 4041604.325023027], [-13165597.049864134, 4041540.325023027], [-13165596.049864134, 4041491.325023027], [-13165598.049864134, 4041479.325023027]], [[-13165796.049864134, 4041603.325023027], [-13165783.049864134, 4041606.325023027], [-13165743.049864134, 4041606.325023027], [-13165721.049864134, 4041603.325023027]], [[-13165721.049864134, 4041603.325023027], [-13165723.049864134, 4041589.325023027], [-13165736.049864134, 4041561.325023027], [-13165827.049864134, 4041391.325023027], [-13165885.049864134, 4041273.325023027], [-13165961.049864134, 4041135.325023027], [-13165988.049864134, 4041082.325023027], [-13165989.049864134, 4041076.325023027]], [[-13166364.049864134, 4041500.325023027], [-13166371.049864134, 4041498.325023027], [-13166412.049864134, 4041461.325023027], [-13166418.049864134, 4041450.325023027], [-13166419.049864134, 4041439.325023027]], [[-13165660.049864134, 4041495.325023027], [-13165650.049864134, 4041490.325023027], [-13165618.049864134, 4041481.325023027], [-13165598.049864134, 4041479.325023027]], [[-13165598.049864134, 4041479.325023027], [-13165596.049864134, 4041476.325023027]], [[-13165568.049864134, 4041477.325023027], [-13165596.049864134, 4041476.325023027]], [[-13165596.049864134, 4041476.325023027], [-13165597.049864134, 4041464.325023027], [-13165593.049864134, 4041442.325023027], [-13165567.049864134, 4041404.325023027], [-13165563.049864134, 4041393.325023027]], [[-13166268.049864134, 4041462.325023027], [-13166284.049864134, 4041460.325023027], [-13166318.049864134, 4041450.325023027], [-13166337.049864134, 4041449.325023027], [-13166387.049864134, 4041440.325023027], [-13166419.049864134, 4041439.325023027]], [[-13166268.049864134, 4041462.325023027], [-13166253.049864134, 4041450.325023027], [-13166251.049864134, 4041443.325023027]], [[-13165944.049864134, 4041451.325023027], [-13165960.049864134, 4041457.325023027], [-13166041.049864134, 4041475.325023027], [-13166061.049864134, 4041476.325023027], [-13166085.049864134, 4041464.325023027], [-13166129.049864134, 4041421.325023027], [-13166149.049864134, 4041410.325023027], [-13166171.049864134, 4041411.325023027], [-13166189.049864134, 4041418.325023027], [-13166231.049864134, 4041440.325023027], [-13166251.049864134, 4041443.325023027]], [[-13165944.049864134, 4041451.325023027], [-13165947.049864134, 4041439.325023027], [-13166010.049864134, 4041318.325023027], [-13166018.049864134, 4041304.325023027], [-13166024.049864134, 4041300.325023027]], [[-13166251.049864134, 4041443.325023027], [-13166254.049864134, 4041429.325023027], [-13166268.049864134, 4041400.325023027], [-13166270.049864134, 4041386.325023027]], [[-13166419.049864134, 4041439.325023027], [-13166421.049864134, 4041437.325023027], [-13166458.049864134, 4041431.325023027], [-13166473.049864134, 4041422.325023027], [-13166482.049864134, 4041412.325023027], [-13166492.049864134, 4041395.325023027], [-13166497.049864134, 4041375.325023027]], [[-13165658.049864134, 4041424.325023027], [-13165637.049864134, 4041386.325023027], [-13165626.049864134, 4041352.325023027], [-13165625.049864134, 4041342.325023027]], [[-13166270.049864134, 4041386.325023027], [-13166279.049864134, 4041379.325023027], [-13166317.049864134, 4041304.325023027], [-13166321.049864134, 4041292.325023027]], [[-13166270.049864134, 4041386.325023027], [-13166260.049864134, 4041383.325023027], [-13166175.049864134, 4041338.325023027], [-13166144.049864134, 4041324.325023027], [-13166126.049864134, 4041324.325023027], [-13166095.049864134, 4041331.325023027], [-13166084.049864134, 4041328.325023027], [-13166080.049864134, 4041323.325023027]], [[-13165723.049864134, 4041381.325023027], [-13165714.049864134, 4041373.325023027], [-13165712.049864134, 4041362.325023027]], [[-13166497.049864134, 4041375.325023027], [-13166505.049864134, 4041369.325023027], [-13166529.049864134, 4041320.325023027]], [[-13166497.049864134, 4041375.325023027], [-13166475.049864134, 4041366.325023027], [-13166353.049864134, 4041301.325023027], [-13166336.049864134, 4041294.325023027], [-13166321.049864134, 4041292.325023027]], [[-13166586.049864134, 4041352.325023027], [-13166577.049864134, 4041332.325023027]], [[-13165625.049864134, 4041342.325023027], [-13165632.049864134, 4041336.325023027], [-13165636.049864134, 4041325.325023027], [-13165651.049864134, 4041228.325023027], [-13165679.049864134, 4041172.325023027], [-13165685.049864134, 4041155.325023027]], [[-13165625.049864134, 4041342.325023027], [-13165617.049864134, 4041337.325023027], [-13165609.049864134, 4041317.325023027], [-13165576.049864134, 4041255.325023027]], [[-13166577.049864134, 4041332.325023027], [-13166560.049864134, 4041330.325023027], [-13166544.049864134, 4041322.325023027], [-13166529.049864134, 4041320.325023027]], [[-13166577.049864134, 4041332.325023027], [-13166586.049864134, 4041290.325023027]], [[-13166080.049864134, 4041323.325023027], [-13166063.049864134, 4041319.325023027], [-13166024.049864134, 4041300.325023027]], [[-13166080.049864134, 4041323.325023027], [-13166095.049864134, 4041293.325023027], [-13166129.049864134, 4041246.325023027], [-13166162.049864134, 4041217.325023027], [-13166183.049864134, 4041209.325023027]], [[-13166529.049864134, 4041320.325023027], [-13166521.049864134, 4041311.325023027], [-13166466.049864134, 4041283.325023027], [-13166459.049864134, 4041279.325023027], [-13166456.049864134, 4041274.325023027]], [[-13166024.049864134, 4041300.325023027], [-13166026.049864134, 4041289.325023027], [-13166042.049864134, 4041256.325023027], [-13166119.049864134, 4041111.325023027], [-13166124.049864134, 4041106.325023027]], [[-13166321.049864134, 4041292.325023027], [-13166315.049864134, 4041284.325023027], [-13166306.049864134, 4041278.325023027], [-13166203.049864134, 4041224.325023027], [-13166183.049864134, 4041209.325023027]], [[-13166456.049864134, 4041274.325023027], [-13166470.049864134, 4041242.325023027], [-13166582.049864134, 4041033.325023027], [-13166586.049864134, 4041010.325023027]], [[-13166456.049864134, 4041274.325023027], [-13166445.049864134, 4041272.325023027], [-13166349.049864134, 4041222.325023027], [-13166342.049864134, 4041216.325023027], [-13166341.049864134, 4041212.325023027]], [[-13165576.049864134, 4041255.325023027], [-13165578.049864134, 4041247.325023027], [-13165592.049864134, 4041222.325023027], [-13165628.049864134, 4041169.325023027], [-13165641.049864134, 4041146.325023027], [-13165657.049864134, 4041086.325023027], [-13165670.049864134, 4041059.325023027], [-13165679.049864134, 4041048.325023027], [-13165688.049864134, 4041044.325023027], [-13165698.049864134, 4041044.325023027], [-13165723.049864134, 4041058.325023027], [-13165733.049864134, 4041059.325023027], [-13165740.049864134, 4041056.325023027], [-13165754.049864134, 4041037.325023027], [-13165766.049864134, 4041025.325023027], [-13165776.049864134, 4041019.325023027], [-13165782.049864134, 4041017.325023027], [-13165803.049864134, 4041017.325023027], [-13165829.049864134, 4041025.325023027], [-13165844.049864134, 4041025.325023027], [-13165856.049864134, 4041019.325023027], [-13165866.049864134, 4041009.325023027], [-13165877.049864134, 4040991.325023027]], [[-13166341.049864134, 4041212.325023027], [-13166326.049864134, 4041210.325023027], [-13166231.049864134, 4041161.325023027]], [[-13166341.049864134, 4041212.325023027], [-13166346.049864134, 4041199.325023027], [-13166446.049864134, 4041008.325023027], [-13166454.049864134, 4040994.325023027], [-13166461.049864134, 4040990.325023027]], [[-13166183.049864134, 4041209.325023027], [-13166190.049864134, 4041195.325023027], [-13166214.049864134, 4041172.325023027], [-13166220.049864134, 4041161.325023027]], [[-13165797.049864134, 4041188.325023027], [-13165793.049864134, 4041203.325023027], [-13165763.049864134, 4041256.325023027], [-13165749.049864134, 4041276.325023027], [-13165718.049864134, 4041336.325023027], [-13165713.049864134, 4041340.325023027], [-13165708.049864134, 4041340.325023027], [-13165702.049864134, 4041332.325023027], [-13165698.049864134, 4041314.325023027], [-13165697.049864134, 4041244.325023027], [-13165709.049864134, 4041205.325023027], [-13165733.049864134, 4041162.325023027]], [[-13165797.049864134, 4041188.325023027], [-13165787.049864134, 4041185.325023027], [-13165749.049864134, 4041165.325023027], [-13165733.049864134, 4041162.325023027]], [[-13165797.049864134, 4041188.325023027], [-13165805.049864134, 4041182.325023027], [-13165825.049864134, 4041150.325023027], [-13165832.049864134, 4041134.325023027], [-13165844.049864134, 4041116.325023027], [-13165846.049864134, 4041107.325023027]], [[-13165563.049864134, 4041189.325023027], [-13165566.049864134, 4041169.325023027], [-13165636.049864134, 4041040.325023027]], [[-13166231.049864134, 4041161.325023027], [-13166220.049864134, 4041161.325023027]], [[-13166220.049864134, 4041161.325023027], [-13166208.049864134, 4041149.325023027], [-13166124.049864134, 4041106.325023027]], [[-13165733.049864134, 4041162.325023027], [-13165726.049864134, 4041156.325023027], [-13165705.049864134, 4041151.325023027]], [[-13166231.049864134, 4041161.325023027], [-13166235.049864134, 4041157.325023027], [-13166283.049864134, 4041061.325023027], [-13166296.049864134, 4041040.325023027], [-13166318.049864134, 4040994.325023027], [-13166326.049864134, 4040990.325023027]], [[-13165680.049864134, 4041131.325023027], [-13165681.049864134, 4041127.325023027], [-13165690.049864134, 4041121.325023027], [-13165728.049864134, 4041110.325023027], [-13165750.049864134, 4041101.325023027], [-13165766.049864134, 4041086.325023027], [-13165781.049864134, 4041080.325023027], [-13165801.049864134, 4041082.325023027], [-13165846.049864134, 4041107.325023027]], [[-13165846.049864134, 4041107.325023027], [-13165851.049864134, 4041102.325023027], [-13165891.049864134, 4041032.325023027], [-13165907.049864134, 4040995.325023027]], [[-13166124.049864134, 4041106.325023027], [-13166124.049864134, 4041101.325023027]], [[-13166124.049864134, 4041101.325023027], [-13166128.049864134, 4041098.325023027], [-13166142.049864134, 4041067.325023027], [-13166181.049864134, 4040994.325023027], [-13166189.049864134, 4040990.325023027]], [[-13166124.049864134, 4041101.325023027], [-13166120.049864134, 4041097.325023027], [-13166112.049864134, 4041095.325023027], [-13166077.049864134, 4041074.325023027], [-13166041.049864134, 4041056.325023027], [-13166011.049864134, 4041046.325023027]], [[-13165563.049864134, 4041086.325023027], [-13165570.049864134, 4041051.325023027], [-13165582.049864134, 4041041.325023027], [-13165596.049864134, 4041020.325023027], [-13165608.049864134, 4040995.325023027], [-13165616.049864134, 4040990.325023027]], [[-13165989.049864134, 4041076.325023027], [-13165995.049864134, 4041071.325023027], [-13166006.049864134, 4041049.325023027], [-13166011.049864134, 4041046.325023027]], [[-13165989.049864134, 4041076.325023027], [-13165980.049864134, 4041068.325023027], [-13165959.049864134, 4041030.325023027], [-13165942.049864134, 4041009.325023027], [-13165920.049864134, 4040997.325023027], [-13165907.049864134, 4040995.325023027]], [[-13166011.049864134, 4041046.325023027], [-13166015.049864134, 4041030.325023027], [-13166032.049864134, 4040995.325023027], [-13166040.049864134, 4040990.325023027]]]}}], "crs": {"type": "name", "properties": {"name": "urn:ogc:def:crs:EPSG::3857"}}}