{"type": "FeatureCollection", "features": [{"id": "0", "type": "Feature", "properties": {"name": "road_network"}, "geometry": {"type": "MultiLineString", "coordinates": [[[-89.76043641808734, 35.08667268120122], [-89.76045438439301, 35.0866579796694], [-89.76044540124018, 35.0865550688724], [-89.76039150232313, 35.086481561080774]], [[-89.75882843372877, 35.08662122582823], [-89.76039150232313, 35.086481561080774]], [[-89.75882843372877, 35.08662122582823], [-89.75881046742307, 35.08644480716011], [-89.7588374168816, 35.08559946241393], [-89.7589002989515, 35.084901127537286], [-89.7589002989515, 35.08396020372262], [-89.75893623156286, 35.08312218431236], [-89.75897216417422, 35.08288694924622]], [[-89.76039150232313, 35.086481561080774], [-89.76173897524932, 35.086319843705986], [-89.76207135190442, 35.08626103730839]], [[-89.76207135190442, 35.08626103730839], [-89.76379611724994, 35.086077267042626], [-89.76411052759939, 35.0860111096456]], [[-89.76207135190442, 35.08626103730839], [-89.76199050352886, 35.0857832337562], [-89.76202643614022, 35.08531277829324]], [[-89.76411052759939, 35.0860111096456], [-89.76452375263008, 35.08600375882039]], [[-89.76411052759939, 35.0860111096456], [-89.76398476345962, 35.08528337473672], [-89.76393086454256, 35.08490847846186], [-89.76393984769541, 35.084842320116856]], [[-89.76452375263008, 35.08600375882039], [-89.76460460100566, 35.08590819803244]], [[-89.76008607512654, 35.08549655028141], [-89.76061608114416, 35.08545244504201], [-89.76152337958112, 35.085334830953684], [-89.76202643614022, 35.08531277829324]], [[-89.76008607512654, 35.08549655028141], [-89.76009505827938, 35.08407046879358], [-89.76007709197368, 35.08382788544072]], [[-89.76202643614022, 35.08531277829324], [-89.76220609919704, 35.08523926938204]], [[-89.76220609919704, 35.08523926938204], [-89.76292475142435, 35.085180462205386], [-89.7632211954681, 35.08512165498634]], [[-89.76220609919704, 35.08523926938204], [-89.7621971160442, 35.08501874225097], [-89.76225101496127, 35.08476145984452]], [[-89.76225101496127, 35.08476145984452], [-89.76222406550272, 35.08415132975088]], [[-89.7581636804185, 35.08446007085057], [-89.75864877067194, 35.08421013766949], [-89.75874758535319, 35.08418808470498]], [[-89.76328407753799, 35.084217488656336], [-89.76284390304878, 35.08410722378411], [-89.76222406550272, 35.08415132975088]], [[-89.76222406550272, 35.08415132975088], [-89.7621971160442, 35.084085170791774], [-89.76211626766863, 35.083416227191115]], [[-89.76007709197368, 35.08382788544072], [-89.7605172664629, 35.08382053441876], [-89.76075082843678, 35.08379113032432], [-89.76115507031463, 35.083688215910314], [-89.76168507633227, 35.0835117908985], [-89.76211626766863, 35.083416227191115]], [[-89.76211626766863, 35.083416227191115], [-89.76214321712716, 35.083350067635806]], [[-89.76214321712716, 35.083350067635806], [-89.76237677910103, 35.08331331230412], [-89.7630235661056, 35.083136886481476], [-89.76417340966927, 35.083011917959574], [-89.7643979884903, 35.082945758076356], [-89.76448782001872, 35.082835491485085], [-89.76455968524145, 35.08237237017415], [-89.76459561785282, 35.08168871010033], [-89.76459561785282, 35.081519631994084], [-89.76456866839429, 35.081482875837665]], [[-89.76214321712716, 35.083350067635806], [-89.76211626766863, 35.0832986101668], [-89.76208033505728, 35.082960460277256], [-89.76203541929307, 35.082835491485085], [-89.76169405948511, 35.08232091208842]], [[-89.75897216417422, 35.08288694924622], [-89.75993336152823, 35.08289430035231], [-89.76022082241914, 35.08285754481526]], [[-89.75897216417422, 35.08288694924622], [-89.7589452147157, 35.082813438148946], [-89.75895419786855, 35.08236501902103], [-89.75893623156286, 35.08221799581957], [-89.7589901304799, 35.08186513905497], [-89.75896318102139, 35.081431417190856], [-89.75898114732706, 35.08112266462834], [-89.75903504624411, 35.08087272122188], [-89.75903504624411, 35.08033607543856], [-89.75906199570264, 35.079968507796615]], [[-89.76022082241914, 35.08285754481526], [-89.76038251917028, 35.082850193705866], [-89.76057116537996, 35.082791384806846], [-89.76169405948511, 35.08232091208842]], [[-89.76022082241914, 35.08285754481526], [-89.76018488980779, 35.082578202192494], [-89.76018488980779, 35.082144484119475], [-89.76023878872483, 35.08094623406797], [-89.76020285611347, 35.08085066735512], [-89.76008607512654, 35.08079185701465], [-89.75989742891686, 35.080799208309536], [-89.75984352999981, 35.08085066735512]], [[-89.76169405948511, 35.08232091208842], [-89.76173897524932, 35.08227680513196], [-89.76296966718856, 35.08176957341857]], [[-89.76169405948511, 35.08232091208842], [-89.76146948066408, 35.081938651006794], [-89.76139761544134, 35.081762222211125], [-89.76137964913566, 35.08162990036399], [-89.7613886322885, 35.08113736715781], [-89.76136168282999, 35.081085908293055]], [[-89.76326611123231, 35.08221064465254], [-89.76319424600958, 35.082129781771506], [-89.76311339763402, 35.081931299814585], [-89.76296966718856, 35.08176957341857]], [[-89.76296966718856, 35.08176957341857], [-89.76296966718856, 35.081740168584844]], [[-89.76296966718856, 35.081740168584844], [-89.76357153842892, 35.08154168567999], [-89.76412849390506, 35.08147552460439], [-89.76456866839429, 35.081482875837665]], [[-89.76296966718856, 35.081740168584844], [-89.76292475142435, 35.08169606131439], [-89.76290678511867, 35.081615197923284], [-89.7628259367431, 35.08147552460439], [-89.76261932422774, 35.08120352850766], [-89.7625654253107, 35.081078557024014]], [[-89.76458663469997, 35.08103444939585], [-89.76457765154713, 35.08096828790888], [-89.76430815696189, 35.080747749231485], [-89.76289780196582, 35.07982883165846]], [[-89.76437103903177, 35.080505155997756], [-89.76459561785282, 35.08029196740897]], [[-89.7615413458868, 35.08013023776309], [-89.76188270569477, 35.08016699452895], [-89.76243067801808, 35.08016699452895], [-89.7625654253107, 35.080122886407935], [-89.76269118945046, 35.080042021457494], [-89.7628708525073, 35.07982883165846]], [[-89.75906199570264, 35.079968507796615], [-89.75847809076795, 35.07993175094134], [-89.75789418583328, 35.07983618304012], [-89.7574629944969, 35.079821480276145], [-89.75733723035712, 35.07978472335463], [-89.75724739882871, 35.07978472335463], [-89.75716655045315, 35.07981412889317]], [[-89.75906199570264, 35.079968507796615], [-89.75909792831399, 35.07987293993845]], [[-89.75909792831399, 35.07987293993845], [-89.75974471531856, 35.07986558856011], [-89.75997827729245, 35.07983618304012], [-89.7601669235021, 35.07973326363668], [-89.76026573818335, 35.07964504690183], [-89.76030167079472, 35.07960093849863], [-89.76032862025323, 35.07949066738632]], [[-89.75909792831399, 35.07987293993845], [-89.75906199570264, 35.07974061502695], [-89.75907996200831, 35.07924807041458], [-89.75910691146684, 35.07919661035814]], [[-89.76289780196582, 35.07982883165846], [-89.7628708525073, 35.07982883165846]], [[-89.7628708525073, 35.07982883165846], [-89.76231389703115, 35.07946126173118], [-89.76197253722317, 35.07918925891885], [-89.76189168884761, 35.07916720459703]], [[-89.76289780196582, 35.07982883165846], [-89.76296068403572, 35.07974796641655], [-89.76325712807946, 35.07949066738632]], [[-89.76032862025323, 35.07949066738632], [-89.76061608114416, 35.07931423329659], [-89.76090354203508, 35.07919661035814], [-89.76110117139758, 35.07916720459703]], [[-89.76032862025323, 35.07949066738632], [-89.76004115936233, 35.07935834185479], [-89.75986149630549, 35.07918925891885], [-89.7597986142356, 35.07916720459703]]]}}]}