{"type": "FeatureCollection", "features": [{"id": "0", "type": "Feature", "properties": {"name": "road_network"}, "geometry": {"type": "MultiLineString", "coordinates": [[[-86.81152393774437, 36.10853448500899], [-86.81148800513301, 36.10848368243554], [-86.81058968984888, 36.108280471813146]], [[-86.81151495459153, 36.10570400583583], [-86.81145207252165, 36.10561691255159], [-86.81086816758696, 36.1054499834869], [-86.81066155507162, 36.10533385871096], [-86.81063460561309, 36.10523224939118], [-86.8106795213773, 36.10472420082095], [-86.81065257191877, 36.10470242723736]], [[-86.81055375723751, 36.10477500582582], [-86.81065257191877, 36.10470242723736]], [[-86.81065257191877, 36.10470242723736], [-86.81066155507162, 36.104513722593566]], [[-86.81150597143869, 36.104600817100874], [-86.81145207252165, 36.10455001198334], [-86.81134427468754, 36.104535496229445]], [[-86.81134427468754, 36.104535496229445], [-86.81066155507162, 36.104513722593566]], [[-86.81134427468754, 36.104535496229445], [-86.8113352915347, 36.10439759643362], [-86.81129935892334, 36.10433953328928], [-86.8111825779364, 36.10423792268341], [-86.81103884749095, 36.10417260151024]], [[-86.81066155507162, 36.104513722593566], [-86.81059867300172, 36.10449194895165]], [[-86.81059867300172, 36.10449194895165], [-86.81029324580513, 36.104477433187014], [-86.81022138058239, 36.10443388587704]], [[-86.81059867300172, 36.10449194895165], [-86.81064358876593, 36.10436856486681], [-86.81071545398866, 36.10428872800277], [-86.81086816758696, 36.10421614896506], [-86.81103884749095, 36.10417260151024]], [[-86.81103884749095, 36.10417260151024], [-86.81107478010232, 36.10375164153585]], [[-86.81147003882732, 36.10378067333064], [-86.81107478010232, 36.10375164153585]], [[-86.81107478010232, 36.10375164153585], [-86.81114664532504, 36.10325809938298], [-86.81117359478355, 36.10281536040176], [-86.81120952739492, 36.10268471563548]], [[-86.81152393774437, 36.10272826391505], [-86.81149698828585, 36.10269923173136], [-86.81120952739492, 36.10268471563548]], [[-86.81120952739492, 36.10268471563548], [-86.81124546000629, 36.10245245773679]], [[-86.81124546000629, 36.10245245773679], [-86.81034714472217, 36.10232907044883], [-86.81022138058239, 36.10232907044883]]]}}]}