{"type": "FeatureCollection", "features": [{"id": "0", "type": "Feature", "properties": {"name": "road_network"}, "geometry": {"type": "MultiLineString", "coordinates": [[[-86.8340413595158, 36.101417649845395], [-86.83407729212716, 36.101388617177385], [-86.83411322473853, 36.101141839066194], [-86.83416712365558, 36.10062650580528], [-86.83416712365558, 36.1004160165997], [-86.83423000572546, 36.10007487772417], [-86.83427492148968, 36.0996176041422]], [[-86.83174167238845, 36.101417649845395], [-86.83178658815265, 36.10138135900871], [-86.83181353761118, 36.10124345367644], [-86.8318404870697, 36.10074989576706], [-86.8319033691396, 36.10048859914808], [-86.8320111669737, 36.100220043384155]], [[-86.8362871477261, 36.101395875345396], [-86.83629613087894, 36.101141839066194], [-86.83635901294882, 36.10074263753938], [-86.83643087817156, 36.100002294793605], [-86.8365476591585, 36.09923291160735], [-86.83658359176987, 36.09882644197701], [-86.83661952438122, 36.09868853216041]], [[-86.83255015614415, 36.101395875345396], [-86.8325771056027, 36.10131603546044], [-86.83263998767258, 36.10070634639091]], [[-86.82821129332187, 36.10094586766103], [-86.82824722593323, 36.10040150008198], [-86.82825620908606, 36.10037246703849], [-86.82831010800312, 36.100350692248824]], [[-86.83263998767258, 36.10070634639091], [-86.83279270127088, 36.10069182992683]], [[-86.83263998767258, 36.10070634639091], [-86.83261303821405, 36.10057569811763], [-86.83263100451974, 36.1004160165997]], [[-86.82831010800312, 36.100350692248824], [-86.82901079392472, 36.10040875834117], [-86.82958571570656, 36.10035795051272], [-86.83016962064124, 36.100220043384155], [-86.83083437395149, 36.099929711795994], [-86.8312745484407, 36.09979180391579], [-86.83146319465038, 36.09977002896522], [-86.83204709958505, 36.09979180391579]], [[-86.82831010800312, 36.100350692248824], [-86.82836400692017, 36.099828095486686]], [[-86.8326220213669, 36.100336175719036], [-86.83253218983847, 36.10029988438283], [-86.83230761101744, 36.10028536784365], [-86.8320111669737, 36.100220043384155]], [[-86.8320111669737, 36.100220043384155], [-86.83204709958505, 36.09979180391579]], [[-86.82836400692017, 36.099828095486686], [-86.82822027647471, 36.09979180391579]], [[-86.82836400692017, 36.099828095486686], [-86.82839993953152, 36.09977002896522], [-86.82842688899005, 36.09963937913502]], [[-86.83204709958505, 36.09979180391579], [-86.83208303219642, 36.0996684124494], [-86.83217286372484, 36.09894257637167], [-86.83220879633619, 36.09824576742903], [-86.8322537121004, 36.097853809683315], [-86.83228066155893, 36.09780300020275]], [[-86.82842688899005, 36.09963937913502], [-86.82857061943551, 36.0993780788229], [-86.82868740042245, 36.09923291160735], [-86.82937012003838, 36.09862320637334], [-86.82953181678951, 36.09842722868624], [-86.82962164831793, 36.09827480125834], [-86.82966656408213, 36.09824576742903]], [[-86.82842688899005, 36.09963937913502], [-86.82821129332187, 36.09957405413846]], [[-86.83427492148968, 36.0996176041422], [-86.83386169645898, 36.099581312474086]], [[-86.83427492148968, 36.0996176041422], [-86.83431085410103, 36.099501470745246], [-86.83431085410103, 36.099370820468486]], [[-86.83431085410103, 36.099370820468486], [-86.83433780355956, 36.099138552773425]], [[-86.83431085410103, 36.099370820468486], [-86.83364610079079, 36.09932727032797]], [[-86.83433780355956, 36.099138552773425], [-86.83389762907034, 36.09910951926327]], [[-86.83433780355956, 36.099138552773425], [-86.83448153400502, 36.09799172096493]], [[-86.83661952438122, 36.09868853216041], [-86.83679918743805, 36.09868127374231], [-86.83708664832896, 36.098565138961455]], [[-86.83661952438122, 36.09868853216041], [-86.83662850753407, 36.098158665876724]], [[-86.83033131739239, 36.098419970243995], [-86.82966656408213, 36.09824576742903]], [[-86.82966656408213, 36.09824576742903], [-86.82982826083328, 36.097607020469994]], [[-86.83662850753407, 36.098158665876724], [-86.83636799610167, 36.098158665876724], [-86.83448153400502, 36.09799172096493]], [[-86.83662850753407, 36.098158665876724], [-86.83669138960396, 36.098035271845674], [-86.836745288521, 36.09773041517354], [-86.83688003581362, 36.09675776931321], [-86.83698783364771, 36.09568348974457]], [[-86.83448153400502, 36.09799172096493], [-86.8337359323192, 36.09791187762086], [-86.83228066155893, 36.09780300020275]], [[-86.83448153400502, 36.09799172096493], [-86.83467916336753, 36.096518235276214]], [[-86.83228066155893, 36.09780300020275], [-86.83237947624018, 36.09686664817956], [-86.83274778550667, 36.09404300747331], [-86.83281066757655, 36.094013972080454], [-86.83311609477315, 36.094013972080454], [-86.83343050512259, 36.09402848977823], [-86.8334754208868, 36.094050266319854], [-86.83394254483454, 36.09409381938501], [-86.83410424158568, 36.094086560542486]], [[-86.83228066155893, 36.09780300020275], [-86.83174167238845, 36.097737673679475], [-86.82982826083328, 36.097607020469994]], [[-86.82982826083328, 36.097607020469994], [-86.82988215975033, 36.09684487241835], [-86.83001690704295, 36.09588673295152], [-86.83013368802987, 36.09554557441193], [-86.83031335108672, 36.095146344453], [-86.83033131739239, 36.095044721957805]], [[-86.83522713569083, 36.09658356281326], [-86.83467916336753, 36.096518235276214]], [[-86.83467916336753, 36.096518235276214], [-86.83470611282604, 36.09620611407184], [-86.83473306228457, 36.09614078622101]], [[-86.83529900091357, 36.09621337271858], [-86.83473306228457, 36.09614078622101]], [[-86.83473306228457, 36.09614078622101], [-86.83496662425844, 36.09422447843565]], [[-86.83698783364771, 36.09568348974457], [-86.8370507157176, 36.09547298729752], [-86.83711359778749, 36.09498665190154], [-86.83723037877442, 36.094442243037314]], [[-86.83698783364771, 36.09568348974457], [-86.8363320634903, 36.095618161459285]], [[-86.83033131739239, 36.095044721957805], [-86.8303762331566, 36.095015686935035], [-86.83087928971571, 36.094159148937486], [-86.83099607070264, 36.09402123092968], [-86.83111285168957, 36.09399219552878]], [[-86.83033131739239, 36.095044721957805], [-86.8301157217242, 36.09500116941963], [-86.82984622713896, 36.09489228796862], [-86.82937012003838, 36.09478340636674]], [[-86.83723037877442, 36.094442243037314], [-86.83733817660851, 36.094434984226986]], [[-86.83723037877442, 36.094442243037314], [-86.83520018623231, 36.09422447843565], [-86.83496662425844, 36.09422447843565]], [[-86.83733817660851, 36.094434984226986], [-86.83738309237272, 36.09413011358753]], [[-86.83496662425844, 36.09422447843565], [-86.83484086011867, 36.0941881842767], [-86.83423000572546, 36.09412285474837], [-86.83410424158568, 36.094086560542486]]]}}]}