{
"type": "FeatureCollection",
"name": "gee_batch_2_34.09376_-118.24065",
"crs": { "type": "name", "properties": { "name": "urn:ogc:def:crs:OGC:1.3:CRS84" } },
"features": [
{ "type": "Feature", "properties": { "name": "road_network" }, "geometry": { "type": "MultiLineString", "coordinates": [ [ [ -118.244564935467238, 34.097570025741696 ], [ -118.244735615371241, 34.097540270511921 ], [ -118.244996126803628, 34.097384055383976 ] ], [ [ -118.24320847938823, 34.097570025741696 ], [ -118.243154580471185, 34.097540270511921 ], [ -118.243136614165493, 34.097451004759826 ] ], [ [ -118.241636427641026, 34.097570025741696 ], [ -118.24148371404273, 34.097503076459994 ], [ -118.241286084680226, 34.097175768098182 ], [ -118.240792011273953, 34.096483953077346 ], [ -118.24059438191145, 34.096164079704323 ], [ -118.240279971562018, 34.09576237654678 ], [ -118.240262005256326, 34.095695425835167 ] ], [ [ -118.237504177334074, 34.097570025741696 ], [ -118.237423328958499, 34.097532831702843 ], [ -118.236695693578383, 34.09663273097847 ], [ -118.236345350617555, 34.096260785735289 ], [ -118.236129754949374, 34.096089690374541 ], [ -118.236057889726638, 34.095911155716315 ] ], [ [ -118.245202739318984, 34.097532831702843 ], [ -118.245076975179202, 34.097406371848479 ], [ -118.244996126803628, 34.097384055383976 ] ], [ [ -118.243136614165493, 34.097451004759826 ], [ -118.243199496235391, 34.097436127125327 ], [ -118.243972047379742, 34.096893091676144 ], [ -118.244295440882013, 34.096692242065693 ] ], [ [ -118.243136614165493, 34.097451004759826 ], [ -118.24307373209561, 34.097406371848479 ], [ -118.242777288051855, 34.096900530541447 ], [ -118.242687456523441, 34.096736875353649 ], [ -118.242660507064926, 34.096588097635596 ] ], [ [ -118.244996126803628, 34.097384055383976 ], [ -118.244960194192274, 34.097287350636471 ], [ -118.244852396358183, 34.097175768098182 ], [ -118.24442120502178, 34.096751753111079 ], [ -118.244295440882013, 34.096692242065693 ] ], [ [ -118.245247655083176, 34.096952602580295 ], [ -118.245193756166131, 34.096714558712613 ], [ -118.245085958332041, 34.09663273097847 ], [ -118.244834430052492, 34.096335174914692 ], [ -118.2445559523144, 34.096097129310465 ] ], [ [ -118.245094941484879, 34.096870775076297 ], [ -118.244430188174633, 34.096201274344693 ] ], [ [ -118.244295440882013, 34.096692242065693 ], [ -118.244268491423483, 34.096610414309986 ], [ -118.2442056093536, 34.096543464269175 ], [ -118.243756451711548, 34.096097129310465 ], [ -118.243639670724619, 34.096022739921843 ], [ -118.243513906584852, 34.096059934624328 ], [ -118.242849153274591, 34.096521147577143 ], [ -118.242660507064926, 34.096588097635596 ] ], [ [ -118.242660507064926, 34.096588097635596 ], [ -118.242588641842204, 34.096536025372487 ], [ -118.242175416811492, 34.09583676616424 ], [ -118.24207660213024, 34.095695425835167 ], [ -118.241932871684782, 34.095561524253064 ], [ -118.241905922226252, 34.0954871343937 ] ], [ [ -118.245247655083176, 34.096573219849404 ], [ -118.245202739318984, 34.096439319656007 ], [ -118.244537986008723, 34.095769815511467 ], [ -118.244502053397355, 34.095621036093483 ] ], [ [ -118.244430188174633, 34.096201274344693 ], [ -118.244268491423483, 34.09606737356286 ], [ -118.244187643047923, 34.095873960948452 ] ], [ [ -118.2445559523144, 34.096097129310465 ], [ -118.2445559523144, 34.096074812500738 ], [ -118.244376289257573, 34.095918594667928 ], [ -118.244187643047923, 34.095873960948452 ] ], [ [ -118.245247655083176, 34.095970667310901 ], [ -118.245148840401924, 34.095807010325103 ], [ -118.244717649065564, 34.095621036093483 ] ], [ [ -118.244187643047923, 34.095873960948452 ], [ -118.244115777825186, 34.095799571363678 ], [ -118.244016963143935, 34.095531768317166 ] ], [ [ -118.240262005256326, 34.095695425835167 ], [ -118.239669117168802, 34.095092867047498 ], [ -118.239426572042092, 34.094892013165015 ] ], [ [ -118.244717649065564, 34.095621036093483 ], [ -118.244502053397355, 34.095621036093483 ] ], [ [ -118.244502053397355, 34.095621036093483 ], [ -118.244124760978039, 34.095524329331553 ], [ -118.244016963143935, 34.095531768317166 ] ], [ [ -118.244717649065564, 34.095621036093483 ], [ -118.244726632218402, 34.0954871343937 ], [ -118.244690699607034, 34.095390427478769 ], [ -118.243720519100194, 34.094304326845474 ], [ -118.243648653877457, 34.094267131371502 ] ], [ [ -118.240477600924507, 34.095591280178503 ], [ -118.240684213439849, 34.095397866476155 ], [ -118.24070217974554, 34.095345793480767 ], [ -118.241088455317694, 34.09504079386447 ], [ -118.241169303693269, 34.095003598714129 ] ], [ [ -118.244016963143935, 34.095531768317166 ], [ -118.243882215851329, 34.09543506145323 ] ], [ [ -118.241905922226252, 34.0954871343937 ], [ -118.241995753754665, 34.09537554948205 ], [ -118.242328130409788, 34.09513006215861 ] ], [ [ -118.241905922226252, 34.0954871343937 ], [ -118.241762191780794, 34.095442500446694 ], [ -118.241357949902962, 34.095122623137698 ], [ -118.241169303693269, 34.095003598714129 ] ], [ [ -118.243603738113251, 34.09544993943949 ], [ -118.243855266392799, 34.095457378431639 ], [ -118.243882215851329, 34.09543506145323 ] ], [ [ -118.243603738113251, 34.09544993943949 ], [ -118.243504923431999, 34.095524329331553 ], [ -118.243226445693907, 34.095509451358375 ], [ -118.243091698401287, 34.095479695404165 ], [ -118.242795254357546, 34.09537554948205 ], [ -118.242435928243907, 34.095159818235743 ], [ -118.242328130409788, 34.09513006215861 ] ], [ [ -118.243603738113251, 34.09544993943949 ], [ -118.242912035344474, 34.094772988417162 ], [ -118.242786271204693, 34.094683719746428 ] ], [ [ -118.243882215851329, 34.09543506145323 ], [ -118.24387323269849, 34.095382988480736 ] ], [ [ -118.24387323269849, 34.095382988480736 ], [ -118.244043912602464, 34.095249086404358 ], [ -118.243998996838258, 34.095085428023317 ], [ -118.243594754960412, 34.094698597864756 ], [ -118.243406108750733, 34.094467986736809 ], [ -118.243280344610952, 34.094415913169343 ] ], [ [ -118.24387323269849, 34.095382988480736 ], [ -118.243765434864386, 34.095293720453348 ], [ -118.243693569641664, 34.095122623137698 ], [ -118.243343226680835, 34.094810183668848 ], [ -118.243172546776862, 34.094601890048885 ], [ -118.243082715248448, 34.094534938419322 ], [ -118.242947967955843, 34.094356400481587 ], [ -118.242624574453558, 34.094081153756434 ], [ -118.242301180951259, 34.093746393019572 ] ], [ [ -118.242328130409788, 34.09513006215861 ], [ -118.242265248339891, 34.094988720649411 ], [ -118.241869989614898, 34.094594450981546 ], [ -118.241771174933646, 34.094512621197708 ], [ -118.24172625916944, 34.094505182122525 ] ], [ [ -118.241169303693269, 34.095003598714129 ], [ -118.241169303693269, 34.094973842582085 ] ], [ [ -118.241169303693269, 34.094973842582085 ], [ -118.241420831972846, 34.094735793149134 ], [ -118.24172625916944, 34.094505182122525 ] ], [ [ -118.241169303693269, 34.094973842582085 ], [ -118.240504550383037, 34.094438230416465 ] ], [ [ -118.239426572042092, 34.094892013165015 ], [ -118.239282841596633, 34.094854817949297 ] ], [ [ -118.239426572042092, 34.094892013165015 ], [ -118.239390639430724, 34.094795305570138 ], [ -118.239103178539821, 34.094587011913553 ], [ -118.239076229081292, 34.094520060272231 ] ], [ [ -118.242786271204693, 34.094683719746428 ], [ -118.242615591300719, 34.09464652443917 ], [ -118.242094568435917, 34.094222496781157 ], [ -118.241609478182497, 34.093768710443221 ], [ -118.241519646654098, 34.09373895387705 ], [ -118.241322017291594, 34.093746393019572 ] ], [ [ -118.242786271204693, 34.094683719746428 ], [ -118.242750338593339, 34.094542377491891 ], [ -118.242597624995042, 34.094363839569844 ], [ -118.242274231492743, 34.094110910202303 ], [ -118.242247282034214, 34.094029079950992 ], [ -118.242058635824549, 34.093850540946242 ], [ -118.241995753754665, 34.09370919730042 ], [ -118.24191490537909, 34.093597610044895 ], [ -118.24159151187682, 34.09328516494682 ], [ -118.241420831972846, 34.093151259551746 ], [ -118.241124387929062, 34.092831373583834 ], [ -118.240854893343837, 34.092623075094394 ], [ -118.240783028121101, 34.092593318125495 ] ], [ [ -118.240208106339281, 34.094676280686279 ], [ -118.240504550383037, 34.094438230416465 ] ], [ [ -118.237495194181221, 34.094653963501926 ], [ -118.237189766984628, 34.094542377491891 ] ], [ [ -118.239076229081292, 34.094520060272231 ], [ -118.23919301006822, 34.094445669497532 ], [ -118.239839797072776, 34.09389517573274 ] ], [ [ -118.239076229081292, 34.094520060272231 ], [ -118.238986397552878, 34.094497743046688 ], [ -118.238474357840914, 34.094162983957403 ] ], [ [ -118.24172625916944, 34.094505182122525 ], [ -118.241663377099556, 34.094386156830694 ], [ -118.241178286846107, 34.093902614861527 ] ], [ [ -118.240504550383037, 34.094438230416465 ], [ -118.241016590094972, 34.093991884356058 ], [ -118.241178286846107, 34.093902614861527 ] ], [ [ -118.240504550383037, 34.094438230416465 ], [ -118.239839797072776, 34.09389517573274 ] ], [ [ -118.243460007667778, 34.094356400481587 ], [ -118.243648653877457, 34.094267131371502 ] ], [ [ -118.243648653877457, 34.094267131371502 ], [ -118.243621704418942, 34.09419274037451 ], [ -118.243531872890529, 34.094148105744935 ] ], [ [ -118.238474357840914, 34.094162983957403 ], [ -118.238249779019895, 34.094118349312133 ], [ -118.238025200198877, 34.094021640833311 ] ], [ [ -118.238474357840914, 34.094162983957403 ], [ -118.238456391535237, 34.093999323476353 ] ], [ [ -118.243531872890529, 34.094148105744935 ], [ -118.243352209833688, 34.094267131371502 ], [ -118.243217462541068, 34.094274570467604 ], [ -118.243145597318332, 34.094244814079275 ], [ -118.24191490537909, 34.093121502768511 ], [ -118.24169930971091, 34.092861130469053 ], [ -118.241618461335349, 34.092816495137306 ], [ -118.241501680348406, 34.092809055913051 ] ], [ [ -118.243531872890529, 34.094148105744935 ], [ -118.243477973973455, 34.094043958184386 ], [ -118.24328932776379, 34.093872858342436 ], [ -118.24218439996433, 34.092987597114529 ], [ -118.241807107545, 34.09261563585315 ], [ -118.240360819937578, 34.090592137960861 ], [ -118.240226072644958, 34.090287121215987 ], [ -118.240208106339281, 34.090041619135285 ], [ -118.240118274810868, 34.089982103372137 ] ], [ [ -118.238456391535237, 34.093999323476353 ], [ -118.239166060609705, 34.093359556741447 ] ], [ [ -118.241178286846107, 34.093902614861527 ], [ -118.241178286846107, 34.093850540946242 ] ], [ [ -118.239839797072776, 34.09389517573274 ], [ -118.240414718854623, 34.093389313440987 ], [ -118.240684213439849, 34.093247969024993 ] ], [ [ -118.239839797072776, 34.09389517573274 ], [ -118.239166060609705, 34.093359556741447 ] ], [ [ -118.241178286846107, 34.093850540946242 ], [ -118.241322017291594, 34.093746393019572 ] ], [ [ -118.241178286846107, 34.093850540946242 ], [ -118.240989640636442, 34.09366456241586 ], [ -118.240747095509747, 34.093277725763762 ], [ -118.240684213439849, 34.093247969024993 ] ], [ [ -118.237405362652822, 34.093798466998933 ], [ -118.237531126792589, 34.093731514733868 ], [ -118.237800621377815, 34.093441387640013 ], [ -118.238501307299444, 34.092831373583834 ] ], [ [ -118.237405362652822, 34.093798466998933 ], [ -118.237270615360202, 34.09373895387705 ], [ -118.236749592495428, 34.093686879861082 ], [ -118.236165687560728, 34.093560414260359 ], [ -118.236066872879476, 34.093448826808697 ] ], [ [ -118.241322017291594, 34.093746393019572 ], [ -118.24134896675011, 34.093590170889293 ], [ -118.241339983597271, 34.093493461807007 ], [ -118.241016590094972, 34.093076867574055 ], [ -118.240756078662585, 34.092794177462594 ], [ -118.24070217974554, 34.092630514334985 ], [ -118.240711162898378, 34.092585878881636 ] ], [ [ -118.242229315728537, 34.093672001564926 ], [ -118.242211349422846, 34.093634805813082 ], [ -118.242121517894446, 34.093575292576141 ] ], [ [ -118.239166060609705, 34.093359556741447 ], [ -118.240055392740956, 34.092608196611252 ], [ -118.240154207422236, 34.092556121899648 ] ], [ [ -118.239166060609705, 34.093359556741447 ], [ -118.238501307299444, 34.092831373583834 ] ], [ [ -118.240684213439849, 34.093247969024993 ], [ -118.240657263981333, 34.093136381161436 ], [ -118.240531499841552, 34.092957840273776 ], [ -118.240270988409165, 34.092623075094394 ], [ -118.240154207422236, 34.092556121899648 ] ], [ [ -118.241708292863748, 34.093181016324507 ], [ -118.241717276016601, 34.093136381161436 ], [ -118.241546596112613, 34.092928083422549 ], [ -118.241501680348406, 34.092809055913051 ] ], [ [ -118.236857390329519, 34.093143820356914 ], [ -118.236911289246564, 34.093076867574055 ], [ -118.23784553714205, 34.092295747861122 ] ], [ [ -118.238501307299444, 34.092831373583834 ], [ -118.239399622583562, 34.092057690896453 ], [ -118.239624201404595, 34.091901465649578 ] ], [ [ -118.238501307299444, 34.092831373583834 ], [ -118.23784553714205, 34.092295747861122 ] ], [ [ -118.241501680348406, 34.092809055913051 ], [ -118.241088455317694, 34.092444533124059 ] ], [ [ -118.240783028121101, 34.092593318125495 ], [ -118.240711162898378, 34.092585878881636 ] ], [ [ -118.240783028121101, 34.092593318125495 ], [ -118.240863876496675, 34.092526364907208 ], [ -118.240989640636442, 34.092518925657465 ], [ -118.241088455317694, 34.092444533124059 ] ], [ [ -118.240711162898378, 34.092585878881636 ], [ -118.240603365064288, 34.092414776092397 ], [ -118.240477600924507, 34.092310626399183 ], [ -118.240342853631901, 34.092154401619098 ], [ -118.24032488732621, 34.092072569476358 ], [ -118.239749965544362, 34.09146998489846 ], [ -118.239723016085847, 34.091410470139508 ], [ -118.239489454111975, 34.091202168153657 ], [ -118.23935470681937, 34.091016183804584 ], [ -118.238752835578993, 34.090421031141751 ], [ -118.238716902967624, 34.090324318438832 ], [ -118.238734869273316, 34.09023504507654 ] ], [ [ -118.240154207422236, 34.092556121899648 ], [ -118.240118274810868, 34.092437093867119 ], [ -118.239929628601189, 34.09219903729997 ], [ -118.239723016085847, 34.091946101463819 ], [ -118.239624201404595, 34.091901465649578 ] ], [ [ -118.241088455317694, 34.092444533124059 ], [ -118.241061505859179, 34.092377579788106 ], [ -118.240908792260882, 34.092228794407468 ], [ -118.24080997757963, 34.092184158742285 ] ], [ [ -118.23784553714205, 34.092295747861122 ], [ -118.238869616565921, 34.091410470139508 ], [ -118.23908521223413, 34.091269122419284 ] ], [ [ -118.23784553714205, 34.092295747861122 ], [ -118.237261632207364, 34.091849390503207 ], [ -118.236875356635196, 34.091514620940217 ] ], [ [ -118.240720146051217, 34.092265990777143 ], [ -118.24080997757963, 34.092184158742285 ] ], [ [ -118.236057889726638, 34.09219903729997 ], [ -118.23626450224198, 34.091990737254527 ], [ -118.236839424023827, 34.091514620940217 ] ], [ [ -118.24080997757963, 34.092184158742285 ], [ -118.240738112356908, 34.092057690896453 ], [ -118.240369803090417, 34.091737800795975 ], [ -118.239992510671073, 34.091328637277613 ], [ -118.239579285640389, 34.090971547500018 ], [ -118.239139111151175, 34.090495425453426 ], [ -118.238896566024451, 34.090279681769459 ], [ -118.238734869273316, 34.09023504507654 ] ], [ [ -118.239624201404595, 34.091901465649578 ], [ -118.239579285640389, 34.0917749973814 ], [ -118.23935470681937, 34.091507181601557 ], [ -118.239166060609705, 34.091306319210645 ], [ -118.23908521223413, 34.091269122419284 ] ], [ [ -118.24444815448031, 34.091626210941648 ], [ -118.243864249545638, 34.091395591443224 ] ], [ [ -118.236875356635196, 34.091514620940217 ], [ -118.237594008862473, 34.090904592999017 ], [ -118.237881469753418, 34.090629335049684 ], [ -118.238177913797173, 34.090398712835494 ] ], [ [ -118.236875356635196, 34.091514620940217 ], [ -118.236839424023827, 34.091514620940217 ] ], [ [ -118.236839424023827, 34.091514620940217 ], [ -118.236228569630626, 34.091023623186395 ], [ -118.236201620172096, 34.090949229338896 ] ], [ [ -118.23908521223413, 34.091269122419284 ], [ -118.239022330164246, 34.091142653206411 ], [ -118.238429442076722, 34.09056238027803 ], [ -118.238240795867057, 34.090413591706984 ], [ -118.238177913797173, 34.090398712835494 ] ], [ [ -118.245059008873525, 34.091217046883919 ], [ -118.244484087091678, 34.091001305039008 ], [ -118.243972047379742, 34.090770683838166 ] ], [ [ -118.236201620172096, 34.090949229338896 ], [ -118.237333497430086, 34.089989542844812 ], [ -118.237405362652822, 34.089967224424811 ], [ -118.23763892462668, 34.089959784950167 ], [ -118.237791638224977, 34.090004421788223 ], [ -118.238106048574437, 34.090272242322271 ], [ -118.238177913797173, 34.090398712835494 ] ], [ [ -118.236201620172096, 34.090949229338896 ], [ -118.236111788643683, 34.090934350561554 ], [ -118.236066872879476, 34.090859956635597 ] ], [ [ -118.245247655083176, 34.090257363425941 ], [ -118.245211722471822, 34.090212726721262 ], [ -118.244663750148518, 34.089959784950167 ] ], [ [ -118.238734869273316, 34.09023504507654 ], [ -118.238573172522166, 34.090063937535675 ], [ -118.238159947491482, 34.089959784950167 ] ] ] } }
]
}
