{
"type": "FeatureCollection",
"name": "gee_batch_1_33.48193_-112.04185",
"crs": { "type": "name", "properties": { "name": "urn:ogc:def:crs:OGC:1.3:CRS84" } },
"features": [
{ "type": "Feature", "properties": { "weight": 48.142135623730951, "nodes": "0-13" }, "geometry": { "type": "LineString", "coordinates": [ [ -112.045587567907816, 33.485761397012894 ], [ -112.045614517366346, 33.485738920542857 ], [ -112.045596551060655, 33.485544124224816 ], [ -112.045542652143595, 33.485521647698391 ], [ -112.045461803768035, 33.485521647698391 ] ] } },
{ "type": "Feature", "properties": { "weight": 30.556349186104047, "nodes": "1-9" }, "geometry": { "type": "LineString", "coordinates": [ [ -112.041994306771329, 33.485761397012894 ], [ -112.041904475242916, 33.485723936226258 ], [ -112.041868542631562, 33.48567898326089 ], [ -112.041850576325871, 33.485604061600107 ] ] } },
{ "type": "Feature", "properties": { "weight": 176.47365803073575, "nodes": "2-29" }, "geometry": { "type": "LineString", "coordinates": [ [ -112.041042092570166, 33.485761397012894 ], [ -112.040907345277546, 33.485693967585277 ], [ -112.040422255024112, 33.484907287050774 ], [ -112.040341406648551, 33.484734965598754 ], [ -112.040314457190021, 33.484719981108462 ] ] } },
{ "type": "Feature", "properties": { "weight": 222.32879990153884, "nodes": "3-17" }, "geometry": { "type": "LineString", "coordinates": [ [ -112.040646833845159, 33.485761397012894 ], [ -112.040494120246862, 33.485738920542857 ], [ -112.040413271871273, 33.48567898326089 ], [ -112.039928181617867, 33.485424249349798 ], [ -112.039721569102511, 33.4853568196597 ], [ -112.039568855504214, 33.485349327468668 ], [ -112.039200546237723, 33.485439233718253 ], [ -112.038904102193968, 33.485439233718253 ] ] } },
{ "type": "Feature", "properties": { "weight": 226.0365799264593, "nodes": "4-35" }, "geometry": { "type": "LineString", "coordinates": [ [ -112.041311587155406, 33.485753904856864 ], [ -112.041230738779831, 33.485708951907057 ], [ -112.041176839862786, 33.485626538105144 ], [ -112.040503103399701, 33.484352860286563 ] ] } },
{ "type": "Feature", "properties": { "weight": 29.478708664619074, "nodes": "5-11" }, "geometry": { "type": "LineString", "coordinates": [ [ -112.044671286318007, 33.48574641270018 ], [ -112.044671286318007, 33.485536632049993 ] ] } },
{ "type": "Feature", "properties": { "weight": 47.650281539872879, "nodes": "6-18" }, "geometry": { "type": "LineString", "coordinates": [ [ -112.038014770062688, 33.485723936226258 ], [ -112.038032736368365, 33.485371804039808 ] ] } },
{ "type": "Feature", "properties": { "weight": 34.828427124746192, "nodes": "7-16" }, "geometry": { "type": "LineString", "coordinates": [ [ -112.043746021575359, 33.485716444066981 ], [ -112.043746021575359, 33.485461710266073 ] ] } },
{ "type": "Feature", "properties": { "weight": 36.828427124746192, "nodes": "8-17" }, "geometry": { "type": "LineString", "coordinates": [ [ -112.038904102193968, 33.485708951907057 ], [ -112.038904102193968, 33.485439233718253 ] ] } },
{ "type": "Feature", "properties": { "weight": 37.242640687119291, "nodes": "11-15" }, "geometry": { "type": "LineString", "coordinates": [ [ -112.044671286318007, 33.485536632049993 ], [ -112.044994679820292, 33.485514155521621 ] ] } },
{ "type": "Feature", "properties": { "weight": 15.82842712474619, "nodes": "11-12" }, "geometry": { "type": "LineString", "coordinates": [ [ -112.044671286318007, 33.485536632049993 ], [ -112.044536539025401, 33.485536632049993 ] ] } },
{ "type": "Feature", "properties": { "weight": 43.656854249492383, "nodes": "12-14" }, "geometry": { "type": "LineString", "coordinates": [ [ -112.044536539025401, 33.485536632049993 ], [ -112.044464673802665, 33.485521647698391 ], [ -112.044159246606057, 33.485521647698391 ] ] } },
{ "type": "Feature", "properties": { "weight": 358.09545442950503, "nodes": "16-27" }, "geometry": { "type": "LineString", "coordinates": [ [ -112.043746021575359, 33.485461710266073 ], [ -112.041724812186104, 33.485469202447376 ], [ -112.04159006489347, 33.485401772792265 ], [ -112.04114989040427, 33.485072115944952 ], [ -112.041122940945741, 33.484974717090857 ], [ -112.041122940945741, 33.484749950086453 ] ] } },
{ "type": "Feature", "properties": { "weight": 62.650281539872879, "nodes": "16-22" }, "geometry": { "type": "LineString", "coordinates": [ [ -112.043746021575359, 33.485461710266073 ], [ -112.043746021575359, 33.484997193759213 ] ] } },
{ "type": "Feature", "properties": { "weight": 100.54977647648455, "nodes": "17-18" }, "geometry": { "type": "LineString", "coordinates": [ [ -112.038904102193968, 33.485439233718253 ], [ -112.038427995093386, 33.485416757164607 ], [ -112.038032736368365, 33.485371804039808 ] ] } },
{ "type": "Feature", "properties": { "weight": 275.65685424949237, "nodes": "17-50" }, "geometry": { "type": "LineString", "coordinates": [ [ -112.038904102193968, 33.485439233718253 ], [ -112.038904102193968, 33.483386351090317 ] ] } },
{ "type": "Feature", "properties": { "weight": 5.6502815398728847, "nodes": "18-19" }, "geometry": { "type": "LineString", "coordinates": [ [ -112.038032736368365, 33.485371804039808 ], [ -112.038014770062688, 33.485334343084659 ] ] } },
{ "type": "Feature", "properties": { "weight": 87.313708498984752, "nodes": "19-20" }, "geometry": { "type": "LineString", "coordinates": [ [ -112.038014770062688, 33.485334343084659 ], [ -112.037655443949035, 33.485304374308882 ], [ -112.037287134682543, 33.48529688211331 ], [ -112.037260185224028, 33.485274405522723 ] ] } },
{ "type": "Feature", "properties": { "weight": 133.37820360123078, "nodes": "19-34" }, "geometry": { "type": "LineString", "coordinates": [ [ -112.038014770062688, 33.485334343084659 ], [ -112.038023753215526, 33.484607597348656 ], [ -112.037996803756997, 33.484450259839939 ], [ -112.037915955381436, 33.484382829391571 ] ] } },
{ "type": "Feature", "properties": { "weight": 305.14213562373095, "nodes": "21-22" }, "geometry": { "type": "LineString", "coordinates": [ [ -112.046440967427728, 33.485034654860186 ], [ -112.046387068510683, 33.484982209314289 ], [ -112.043746021575359, 33.484997193759213 ] ] } },
{ "type": "Feature", "properties": { "weight": 35.236067977499786, "nodes": "22-28" }, "geometry": { "type": "LineString", "coordinates": [ [ -112.043746021575359, 33.484997193759213 ], [ -112.04373703842252, 33.484734965598754 ] ] } },
{ "type": "Feature", "properties": { "weight": 23.556349186104047, "nodes": "23-24" }, "geometry": { "type": "LineString", "coordinates": [ [ -112.040197676203093, 33.484922271508658 ], [ -112.040116827827518, 33.484862333661567 ], [ -112.040089878369002, 33.484787411294363 ] ] } },
{ "type": "Feature", "properties": { "weight": 28.549776476484556, "nodes": "24-29" }, "geometry": { "type": "LineString", "coordinates": [ [ -112.040089878369002, 33.484787411294363 ], [ -112.040233608814461, 33.484779919054077 ], [ -112.040314457190021, 33.484719981108462 ] ] } },
{ "type": "Feature", "properties": { "weight": 4.2360679774997898, "nodes": "24-26" }, "geometry": { "type": "LineString", "coordinates": [ [ -112.040089878369002, 33.484787411294363 ], [ -112.040053945757634, 33.484779919054077 ] ] } },
{ "type": "Feature", "properties": { "weight": 23.142135623730951, "nodes": "26-30" }, "geometry": { "type": "LineString", "coordinates": [ [ -112.040053945757634, 33.484779919054077 ], [ -112.040009029993428, 33.484712488862343 ], [ -112.039919198465029, 33.484675027622039 ] ] } },
{ "type": "Feature", "properties": { "weight": 291.82842712474621, "nodes": "27-28" }, "geometry": { "type": "LineString", "coordinates": [ [ -112.041122940945741, 33.484749950086453 ], [ -112.04373703842252, 33.484734965598754 ] ] } },
{ "type": "Feature", "properties": { "weight": 99.128990204491956, "nodes": "27-37" }, "geometry": { "type": "LineString", "coordinates": [ [ -112.041122940945741, 33.484749950086453 ], [ -112.041104974640064, 33.484682519871399 ], [ -112.041087008334372, 33.484023199447037 ] ] } },
{ "type": "Feature", "properties": { "weight": 32.0, "nodes": "28-32" }, "geometry": { "type": "LineString", "coordinates": [ [ -112.04373703842252, 33.484734965598754 ], [ -112.04373703842252, 33.484495213443026 ] ] } },
{ "type": "Feature", "properties": { "weight": 128.60360034564695, "nodes": "29-38" }, "geometry": { "type": "LineString", "coordinates": [ [ -112.040314457190021, 33.484719981108462 ], [ -112.040269541425815, 33.484547659283798 ], [ -112.040089878369002, 33.484352860286563 ], [ -112.039811400630924, 33.483933291727588 ] ] } },
{ "type": "Feature", "properties": { "weight": 86.840620433565945, "nodes": "31-34" }, "geometry": { "type": "LineString", "coordinates": [ [ -112.037251202071189, 33.484615089603849 ], [ -112.03733205044675, 33.484555151544178 ], [ -112.037619511337667, 33.484487721177473 ], [ -112.037915955381436, 33.484382829391571 ] ] } },
{ "type": "Feature", "properties": { "weight": 273.55634918610406, "nodes": "32-33" }, "geometry": { "type": "LineString", "coordinates": [ [ -112.04373703842252, 33.484495213443026 ], [ -112.044150263453218, 33.484487721177473 ], [ -112.044258061287309, 33.484465244376892 ], [ -112.045901978257248, 33.484472736644399 ], [ -112.046153506536811, 33.484457752108746 ] ] } },
{ "type": "Feature", "properties": { "weight": 80.0, "nodes": "32-41" }, "geometry": { "type": "LineString", "coordinates": [ [ -112.04373703842252, 33.484495213443026 ], [ -112.04373703842252, 33.483895830150281 ] ] } },
{ "type": "Feature", "properties": { "weight": 108.36753236814715, "nodes": "34-42" }, "geometry": { "type": "LineString", "coordinates": [ [ -112.037915955381436, 33.484382829391571 ], [ -112.037897989075745, 33.484307906609601 ], [ -112.037835107005861, 33.484247968337357 ], [ -112.037305100988235, 33.483948276353971 ], [ -112.037260185224028, 33.483880845514818 ] ] } },
{ "type": "Feature", "properties": { "weight": 45.378203601230737, "nodes": "35-36" }, "geometry": { "type": "LineString", "coordinates": [ [ -112.040503103399701, 33.484352860286563 ], [ -112.040548019163907, 33.484322891171182 ], [ -112.040548019163907, 33.484262952909305 ], [ -112.040485137094024, 33.484053168666115 ] ] } },
{ "type": "Feature", "properties": { "weight": 494.21529547664954, "nodes": "35-77" }, "geometry": { "type": "LineString", "coordinates": [ [ -112.040503103399701, 33.484352860286563 ], [ -112.040413271871273, 33.484322891171182 ], [ -112.040368356107066, 33.484277937478666 ], [ -112.03959580496273, 33.483056686572304 ], [ -112.039182579932032, 33.482247504708759 ], [ -112.038895119041129, 33.481535718116881 ], [ -112.038832236971231, 33.481318434728891 ], [ -112.038796304359877, 33.481265986932897 ] ] } },
{ "type": "Feature", "properties": { "weight": 68.656854249492369, "nodes": "36-37" }, "geometry": { "type": "LineString", "coordinates": [ [ -112.040485137094024, 33.484053168666115 ], [ -112.040799547443456, 33.484023199447037 ], [ -112.041087008334372, 33.484023199447037 ] ] } },
{ "type": "Feature", "properties": { "weight": 115.0472511595429, "nodes": "36-52" }, "geometry": { "type": "LineString", "coordinates": [ [ -112.040485137094024, 33.484053168666115 ], [ -112.040422255024112, 33.48400072252592 ], [ -112.040368356107066, 33.48387335319611 ], [ -112.040305474037183, 33.483798429973447 ], [ -112.040287507731506, 33.483730999017624 ], [ -112.040098861521841, 33.483438797602496 ], [ -112.040080895216164, 33.483333904546377 ] ] } },
{ "type": "Feature", "properties": { "weight": 218.62084428835004, "nodes": "37-40" }, "geometry": { "type": "LineString", "coordinates": [ [ -112.041087008334372, 33.484023199447037 ], [ -112.042784824221357, 33.484008214833608 ], [ -112.042928554666815, 33.483978245598976 ], [ -112.042982453583861, 33.483918307098605 ] ] } },
{ "type": "Feature", "properties": { "weight": 48.0, "nodes": "37-44" }, "geometry": { "type": "LineString", "coordinates": [ [ -112.041087008334372, 33.484023199447037 ], [ -112.041087008334372, 33.48366356800932 ] ] } },
{ "type": "Feature", "properties": { "weight": 173.78736652972049, "nodes": "38-57" }, "geometry": { "type": "LineString", "coordinates": [ [ -112.039811400630924, 33.483933291727588 ], [ -112.039631737574098, 33.483858368556767 ], [ -112.039281394613283, 33.483386351090317 ], [ -112.039101731556471, 33.483094148512542 ], [ -112.038940034805321, 33.482996747434228 ] ] } },
{ "type": "Feature", "properties": { "weight": 401.32647177312145, "nodes": "38-76" }, "geometry": { "type": "LineString", "coordinates": [ [ -112.039811400630924, 33.483933291727588 ], [ -112.039775468019556, 33.483768460666226 ], [ -112.039272411460445, 33.482951793053459 ], [ -112.038940034805321, 33.482277474542208 ], [ -112.038661557067243, 33.481565688196596 ], [ -112.038607658150198, 33.481340912346027 ] ] } },
{ "type": "Feature", "properties": { "weight": 305.31370849898479, "nodes": "39-41" }, "geometry": { "type": "LineString", "coordinates": [ [ -112.046440967427728, 33.483933291727588 ], [ -112.046387068510683, 33.483880845514818 ], [ -112.04373703842252, 33.483895830150281 ] ] } },
{ "type": "Feature", "properties": { "weight": 86.071067811865476, "nodes": "40-41" }, "geometry": { "type": "LineString", "coordinates": [ [ -112.042982453583861, 33.483918307098605 ], [ -112.0432519481691, 33.483895830150281 ], [ -112.04373703842252, 33.483895830150281 ] ] } },
{ "type": "Feature", "properties": { "weight": 36.478708664619077, "nodes": "40-45" }, "geometry": { "type": "LineString", "coordinates": [ [ -112.042982453583861, 33.483918307098605 ], [ -112.042955504125345, 33.483858368556767 ], [ -112.042946520972507, 33.483656075671824 ] ] } },
{ "type": "Feature", "properties": { "weight": 81.0, "nodes": "41-54" }, "geometry": { "type": "LineString", "coordinates": [ [ -112.04373703842252, 33.483895830150281 ], [ -112.04373703842252, 33.48328895034058 ] ] } },
{ "type": "Feature", "properties": { "weight": 67.154328932550698, "nodes": "43-48" }, "geometry": { "type": "LineString", "coordinates": [ [ -112.038490877163269, 33.483843383914824 ], [ -112.038401045634856, 33.483820906947052 ], [ -112.038032736368365, 33.483551182878813 ] ] } },
{ "type": "Feature", "properties": { "weight": 209.07106781186548, "nodes": "44-45" }, "geometry": { "type": "LineString", "coordinates": [ [ -112.041087008334372, 33.48366356800932 ], [ -112.042946520972507, 33.483656075671824 ] ] } },
{ "type": "Feature", "properties": { "weight": 49.242640687119284, "nodes": "44-53" }, "geometry": { "type": "LineString", "coordinates": [ [ -112.041087008334372, 33.48366356800932 ], [ -112.041095991487211, 33.483303935078439 ] ] } },
{ "type": "Feature", "properties": { "weight": 11.414213562373096, "nodes": "45-46" }, "geometry": { "type": "LineString", "coordinates": [ [ -112.042946520972507, 33.483656075671824 ], [ -112.042955504125345, 33.483573659916587 ] ] } },
{ "type": "Feature", "properties": { "weight": 17.242640687119287, "nodes": "46-47" }, "geometry": { "type": "LineString", "coordinates": [ [ -112.042955504125345, 33.483573659916587 ], [ -112.043099234570803, 33.483551182878813 ] ] } },
{ "type": "Feature", "properties": { "weight": 38.414213562373092, "nodes": "46-55" }, "geometry": { "type": "LineString", "coordinates": [ [ -112.042955504125345, 33.483573659916587 ], [ -112.042946520972507, 33.48328895034058 ] ] } },
{ "type": "Feature", "properties": { "weight": 105.19595949289332, "nodes": "49-58" }, "geometry": { "type": "LineString", "coordinates": [ [ -112.037817140700184, 33.48352121348605 ], [ -112.037790191241655, 33.483491244082927 ], [ -112.037673410254726, 33.483438797602496 ], [ -112.037296117835382, 33.483109133284096 ], [ -112.037251202071189, 33.482959285451876 ] ] } },
{ "type": "Feature", "properties": { "weight": 24.828427124746192, "nodes": "50-51" }, "geometry": { "type": "LineString", "coordinates": [ [ -112.039119697862148, 33.483386351090317 ], [ -112.038904102193968, 33.483386351090317 ] ] } },
{ "type": "Feature", "properties": { "weight": 54.485281374238568, "nodes": "50-57" }, "geometry": { "type": "LineString", "coordinates": [ [ -112.038904102193968, 33.483386351090317 ], [ -112.038904102193968, 33.48304170179167 ], [ -112.038940034805321, 33.482996747434228 ] ] } },
{ "type": "Feature", "properties": { "weight": 114.65685424949238, "nodes": "52-53" }, "geometry": { "type": "LineString", "coordinates": [ [ -112.040080895216164, 33.483333904546377 ], [ -112.040332423495713, 33.483303935078439 ], [ -112.041095991487211, 33.483303935078439 ] ] } },
{ "type": "Feature", "properties": { "weight": 463.32647177312145, "nodes": "52-87" }, "geometry": { "type": "LineString", "coordinates": [ [ -112.040080895216164, 33.483333904546377 ], [ -112.039982080534912, 33.48326647322893 ], [ -112.039694619643981, 33.482794452537028 ], [ -112.039470040822962, 33.482284966998947 ], [ -112.039353259836034, 33.482075177965214 ], [ -112.039317327224651, 33.481917835856486 ], [ -112.039002916875219, 33.481011240043507 ], [ -112.038940034805321, 33.480674073890924 ], [ -112.038922068499645, 33.480366876920513 ], [ -112.038868169582599, 33.480299443293397 ] ] } },
{ "type": "Feature", "properties": { "weight": 206.82842712474618, "nodes": "53-55" }, "geometry": { "type": "LineString", "coordinates": [ [ -112.041095991487211, 33.483303935078439 ], [ -112.042946520972507, 33.48328895034058 ] ] } },
{ "type": "Feature", "properties": { "weight": 97.242640687119291, "nodes": "53-66" }, "geometry": { "type": "LineString", "coordinates": [ [ -112.041095991487211, 33.483303935078439 ], [ -112.041087008334372, 33.482584664737203 ] ] } },
{ "type": "Feature", "properties": { "weight": 300.65685424949237, "nodes": "54-56" }, "geometry": { "type": "LineString", "coordinates": [ [ -112.046423001122037, 33.48328895034058 ], [ -112.045964860327132, 33.483303935078439 ], [ -112.04373703842252, 33.48328895034058 ] ] } },
{ "type": "Feature", "properties": { "weight": 78.828427124746185, "nodes": "54-60" }, "geometry": { "type": "LineString", "coordinates": [ [ -112.04373703842252, 33.48328895034058 ], [ -112.043755004728197, 33.482704543542177 ] ] } },
{ "type": "Feature", "properties": { "weight": 81.656854249492369, "nodes": "55-62" }, "geometry": { "type": "LineString", "coordinates": [ [ -112.042946520972507, 33.48328895034058 ], [ -112.042955504125345, 33.482727020799629 ], [ -112.042982453583861, 33.482689558700628 ] ] } },
{ "type": "Feature", "properties": { "weight": 24.727922061357855, "nodes": "57-59" }, "geometry": { "type": "LineString", "coordinates": [ [ -112.038940034805321, 33.482996747434228 ], [ -112.038940034805321, 33.482959285451876 ], [ -112.038859186429761, 33.48283940699946 ] ] } },
{ "type": "Feature", "properties": { "weight": 233.2137734009134, "nodes": "59-72" }, "geometry": { "type": "LineString", "coordinates": [ [ -112.038859186429761, 33.48283940699946 ], [ -112.038796304359877, 33.482869376628109 ], [ -112.038526809774623, 33.482846899407591 ], [ -112.038293247800766, 33.482786960124351 ], [ -112.038104601591087, 33.482704543542177 ], [ -112.037565612420622, 33.482314936819428 ], [ -112.037287134682543, 33.482082670439453 ], [ -112.037260185224028, 33.481992760705815 ] ] } },
{ "type": "Feature", "properties": { "weight": 375.58635640294386, "nodes": "59-85" }, "geometry": { "type": "LineString", "coordinates": [ [ -112.038859186429761, 33.48283940699946 ], [ -112.038823253818393, 33.482667081433441 ], [ -112.038715455984288, 33.482397353772306 ], [ -112.038517826621785, 33.481782970964389 ], [ -112.038454944551901, 33.481648105862334 ], [ -112.038427995093386, 33.481513240550292 ], [ -112.038203416272353, 33.480831418258767 ], [ -112.038176466813823, 33.480689059081122 ], [ -112.038158500508132, 33.48064410350274 ], [ -112.038077652132571, 33.480576670091423 ], [ -112.03797883745132, 33.480336906426061 ] ] } },
{ "type": "Feature", "properties": { "weight": 87.478708664619077, "nodes": "60-62" }, "geometry": { "type": "LineString", "coordinates": [ [ -112.043755004728197, 33.482704543542177 ], [ -112.04341364492025, 33.482712035961974 ], [ -112.042982453583861, 33.482689558700628 ] ] } },
{ "type": "Feature", "properties": { "weight": 296.07106781186542, "nodes": "60-61" }, "geometry": { "type": "LineString", "coordinates": [ [ -112.043755004728197, 33.482704543542177 ], [ -112.046396051663521, 33.482697051121725 ] ] } },
{ "type": "Feature", "properties": { "weight": 111.24264068711929, "nodes": "60-74" }, "geometry": { "type": "LineString", "coordinates": [ [ -112.043755004728197, 33.482704543542177 ], [ -112.04376398788105, 33.48188037340752 ] ] } },
{ "type": "Feature", "properties": { "weight": 219.20663072597694, "nodes": "62-66" }, "geometry": { "type": "LineString", "coordinates": [ [ -112.042982453583861, 33.482689558700628 ], [ -112.042946520972507, 33.482637111734796 ], [ -112.042883638902609, 33.482599649596899 ], [ -112.042694992692944, 33.482577172306378 ], [ -112.041087008334372, 33.482584664737203 ] ] } },
{ "type": "Feature", "properties": { "weight": 140.06449510224598, "nodes": "64-66" }, "geometry": { "type": "LineString", "coordinates": [ [ -112.03983835008944, 33.482607142025778 ], [ -112.040251575120138, 33.482584664737203 ], [ -112.041087008334372, 33.482584664737203 ] ] } },
{ "type": "Feature", "properties": { "weight": 45.242640687119284, "nodes": "66-71" }, "geometry": { "type": "LineString", "coordinates": [ [ -112.041087008334372, 33.482584664737203 ], [ -112.041078025181534, 33.482254997168091 ] ] } },
{ "type": "Feature", "properties": { "weight": 118.65685424949238, "nodes": "67-68" }, "geometry": { "type": "LineString", "coordinates": [ [ -112.045219258641325, 33.482292459455046 ], [ -112.044168229758895, 33.482292459455046 ] ] } },
{ "type": "Feature", "properties": { "weight": 64.242640687119291, "nodes": "69-70" }, "geometry": { "type": "LineString", "coordinates": [ [ -112.045875028798733, 33.482284966998947 ], [ -112.046440967427728, 33.482277474542208 ] ] } },
{ "type": "Feature", "properties": { "weight": 226.72792206135784, "nodes": "73-91" }, "geometry": { "type": "LineString", "coordinates": [ [ -112.042147020369626, 33.481910343367986 ], [ -112.04212007091111, 33.481887865898621 ], [ -112.042084138299742, 33.48023950224745 ] ] } },
{ "type": "Feature", "properties": { "weight": 293.82842712474621, "nodes": "74-75" }, "geometry": { "type": "LineString", "coordinates": [ [ -112.04376398788105, 33.48188037340752 ], [ -112.046396051663521, 33.481865388423394 ] ] } },
{ "type": "Feature", "properties": { "weight": 110.82842712474618, "nodes": "74-78" }, "geometry": { "type": "LineString", "coordinates": [ [ -112.04376398788105, 33.48188037340752 ], [ -112.04376398788105, 33.481056195431364 ] ] } },
{ "type": "Feature", "properties": { "weight": 24.785844453984343, "nodes": "76-77" }, "geometry": { "type": "LineString", "coordinates": [ [ -112.038607658150198, 33.481340912346027 ], [ -112.038661557067243, 33.48131094218855 ], [ -112.03873342228998, 33.48131094218855 ], [ -112.038796304359877, 33.481265986932897 ] ] } },
{ "type": "Feature", "properties": { "weight": 108.59797974644667, "nodes": "76-82" }, "geometry": { "type": "LineString", "coordinates": [ [ -112.038607658150198, 33.481340912346027 ], [ -112.038553759233153, 33.481221031653909 ], [ -112.038445961399063, 33.480778970167911 ], [ -112.038445961399063, 33.480696551675258 ], [ -112.038535792927476, 33.48061413310419 ] ] } },
{ "type": "Feature", "properties": { "weight": 100.59140703682718, "nodes": "77-82" }, "geometry": { "type": "LineString", "coordinates": [ [ -112.038796304359877, 33.481265986932897 ], [ -112.038670540220082, 33.480719029453759 ], [ -112.038616641303037, 33.480659088698133 ], [ -112.038535792927476, 33.48061413310419 ] ] } },
{ "type": "Feature", "properties": { "weight": 295.48528137423853, "nodes": "78-79" }, "geometry": { "type": "LineString", "coordinates": [ [ -112.04376398788105, 33.481056195431364 ], [ -112.046396051663521, 33.481041210304667 ] ] } },
{ "type": "Feature", "properties": { "weight": 110.82842712474618, "nodes": "78-92" }, "geometry": { "type": "LineString", "coordinates": [ [ -112.04376398788105, 33.481056195431364 ], [ -112.043746021575359, 33.480232009613793 ] ] } },
{ "type": "Feature", "properties": { "weight": 159.31370849898477, "nodes": "80-81" }, "geometry": { "type": "LineString", "coordinates": [ [ -112.045740281506113, 33.480636610904071 ], [ -112.044338909662883, 33.480636610904071 ] ] } },
{ "type": "Feature", "properties": { "weight": 25.414213562373096, "nodes": "82-84" }, "geometry": { "type": "LineString", "coordinates": [ [ -112.038535792927476, 33.48061413310419 ], [ -112.038526809774623, 33.480426817878332 ] ] } },
{ "type": "Feature", "properties": { "weight": 29.691912100215504, "nodes": "83-86" }, "geometry": { "type": "LineString", "coordinates": [ [ -112.037251202071189, 33.480486758794676 ], [ -112.037421881975163, 33.480321921174941 ] ] } },
{ "type": "Feature", "properties": { "weight": 30.513766515342201, "nodes": "84-90" }, "geometry": { "type": "LineString", "coordinates": [ [ -112.038526809774623, 33.480426817878332 ], [ -112.03873342228998, 33.480284458035804 ] ] } },
{ "type": "Feature", "properties": { "weight": 38.449271413096213, "nodes": "84-88" }, "geometry": { "type": "LineString", "coordinates": [ [ -112.038526809774623, 33.480426817878332 ], [ -112.038401045634856, 33.48035938429787 ], [ -112.038293247800766, 33.480336906426061 ], [ -112.038248332036559, 33.480299443293397 ] ] } },
{ "type": "Feature", "properties": { "weight": 32.071067811865476, "nodes": "85-88" }, "geometry": { "type": "LineString", "coordinates": [ [ -112.03797883745132, 33.480336906426061 ], [ -112.038032736368365, 33.48030693592122 ], [ -112.038248332036559, 33.480299443293397 ] ] } },
{ "type": "Feature", "properties": { "weight": 13.300563079745769, "nodes": "85-89" }, "geometry": { "type": "LineString", "coordinates": [ [ -112.03797883745132, 33.480336906426061 ], [ -112.037871039617229, 33.48030693592122 ] ] } },
{ "type": "Feature", "properties": { "weight": 51.656854249492383, "nodes": "86-89" }, "geometry": { "type": "LineString", "coordinates": [ [ -112.037421881975163, 33.480321921174941 ], [ -112.037871039617229, 33.48030693592122 ] ] } },
{ "type": "Feature", "properties": { "weight": 20.620844288350032, "nodes": "86-95" }, "geometry": { "type": "LineString", "coordinates": [ [ -112.037421881975163, 33.480321921174941 ], [ -112.037296117835382, 33.480209531708915 ] ] } },
{ "type": "Feature", "properties": { "weight": 362.97056274847716, "nodes": "87-91" }, "geometry": { "type": "LineString", "coordinates": [ [ -112.038868169582599, 33.480299443293397 ], [ -112.039056815792264, 33.480284458035804 ], [ -112.039811400630924, 33.480299443293397 ], [ -112.041122940945741, 33.48024699488046 ], [ -112.042084138299742, 33.48023950224745 ] ] } },
{ "type": "Feature", "properties": { "weight": 15.828427124746192, "nodes": "87-90" }, "geometry": { "type": "LineString", "coordinates": [ [ -112.038868169582599, 33.480299443293397 ], [ -112.03873342228998, 33.480284458035804 ] ] } },
{ "type": "Feature", "properties": { "weight": 156.32590180780448, "nodes": "88-99" }, "geometry": { "type": "LineString", "coordinates": [ [ -112.038248332036559, 33.480299443293397 ], [ -112.038320197259281, 33.48023950224745 ], [ -112.038320197259281, 33.480134605317232 ], [ -112.038203416272353, 33.479542684544747 ], [ -112.038194433119514, 33.479355367002135 ], [ -112.038311214106443, 33.479242976282158 ] ] } },
{ "type": "Feature", "properties": { "weight": 304.84062043356596, "nodes": "89-110" }, "geometry": { "type": "LineString", "coordinates": [ [ -112.037871039617229, 33.48030693592122 ], [ -112.037969854298481, 33.479977259683757 ], [ -112.037969854298481, 33.479759972386752 ], [ -112.037915955381436, 33.479377845128631 ], [ -112.037915955381436, 33.478681020495195 ], [ -112.03797883745132, 33.478171510764298 ], [ -112.038041719521203, 33.478134046695232 ] ] } },
{ "type": "Feature", "properties": { "weight": 18.892922226992169, "nodes": "90-96" }, "geometry": { "type": "LineString", "coordinates": [ [ -112.03873342228998, 33.480284458035804 ], [ -112.038688506525773, 33.480157083241544 ] ] } },
{ "type": "Feature", "properties": { "weight": 187.07106781186548, "nodes": "91-92" }, "geometry": { "type": "LineString", "coordinates": [ [ -112.042084138299742, 33.48023950224745 ], [ -112.043746021575359, 33.480232009613793 ] ] } },
{ "type": "Feature", "properties": { "weight": 201.65685424949237, "nodes": "92-93" }, "geometry": { "type": "LineString", "coordinates": [ [ -112.043746021575359, 33.480232009613793 ], [ -112.045542652143595, 33.480217024344519 ] ] } },
{ "type": "Feature", "properties": { "weight": 89.414213562373092, "nodes": "93-94" }, "geometry": { "type": "LineString", "coordinates": [ [ -112.045542652143595, 33.480217024344519 ], [ -112.046342152746476, 33.480209531708915 ] ] } },
{ "type": "Feature", "properties": { "weight": 109.48528137423857, "nodes": "93-97" }, "geometry": { "type": "LineString", "coordinates": [ [ -112.045542652143595, 33.480217024344519 ], [ -112.045542652143595, 33.479415308659839 ] ] } },
{ "type": "Feature", "properties": { "weight": 272.86348497546931, "nodes": "96-106" }, "geometry": { "type": "LineString", "coordinates": [ [ -112.038688506525773, 33.480157083241544 ], [ -112.038778338054186, 33.480089649451116 ], [ -112.038796304359877, 33.479864869770587 ], [ -112.038769354901348, 33.478583614454777 ], [ -112.038796304359877, 33.478171510764298 ] ] } },
{ "type": "Feature", "properties": { "weight": 141.15432893255075, "nodes": "96-99" }, "geometry": { "type": "LineString", "coordinates": [ [ -112.038688506525773, 33.480157083241544 ], [ -112.038535792927476, 33.480037200911163 ], [ -112.038490877163269, 33.479722509004596 ], [ -112.038436978246224, 33.479512713765139 ], [ -112.038427995093386, 33.47934787429201 ], [ -112.038311214106443, 33.479242976282158 ] ] } },
{ "type": "Feature", "properties": { "weight": 129.47870866461906, "nodes": "98-102" }, "geometry": { "type": "LineString", "coordinates": [ [ -112.044455690649826, 33.479295425302965 ], [ -112.044437724344149, 33.479190527229612 ], [ -112.044437724344149, 33.478373816457307 ], [ -112.044419758038444, 33.478336352475722 ] ] } },
{ "type": "Feature", "properties": { "weight": 61.656854249492383, "nodes": "99-100" }, "geometry": { "type": "LineString", "coordinates": [ [ -112.038311214106443, 33.479242976282158 ], [ -112.038302230953605, 33.479063150826931 ], [ -112.038329180412134, 33.478793411944196 ] ] } },
{ "type": "Feature", "properties": { "weight": 85.721349351738368, "nodes": "100-107" }, "geometry": { "type": "LineString", "coordinates": [ [ -112.038329180412134, 33.478793411944196 ], [ -112.038365113023488, 33.478770933666063 ], [ -112.038383079329179, 33.478725977092289 ], [ -112.038383079329179, 33.478268917268039 ], [ -112.038401045634856, 33.478179003576166 ] ] } },
{ "type": "Feature", "properties": { "weight": 37.691912100215497, "nodes": "100-101" }, "geometry": { "type": "LineString", "coordinates": [ [ -112.038329180412134, 33.478793411944196 ], [ -112.038176466813823, 33.478681020495195 ], [ -112.038167483660985, 33.47863606387476 ], [ -112.038194433119514, 33.478583614454777 ] ] } },
{ "type": "Feature", "properties": { "weight": 265.48528137423853, "nodes": "102-103" }, "geometry": { "type": "LineString", "coordinates": [ [ -112.044419758038444, 33.478336352475722 ], [ -112.042057188841213, 33.478336352475722 ] ] } },
{ "type": "Feature", "properties": { "weight": 26.650281539872886, "nodes": "102-108" }, "geometry": { "type": "LineString", "coordinates": [ [ -112.044419758038444, 33.478336352475722 ], [ -112.044437724344149, 33.478141539510332 ] ] } },
{ "type": "Feature", "properties": { "weight": 255.86348497546931, "nodes": "103-104" }, "geometry": { "type": "LineString", "coordinates": [ [ -112.042057188841213, 33.478336352475722 ], [ -112.042003289924168, 33.478381309251674 ], [ -112.041868542631562, 33.478418773213818 ], [ -112.040368356107066, 33.478433758794139 ], [ -112.039982080534912, 33.478426266004305 ], [ -112.039955131076383, 33.478411280422684 ], [ -112.039955131076383, 33.478306381278784 ] ] } },
{ "type": "Feature", "properties": { "weight": 26.828427124746192, "nodes": "103-109" }, "geometry": { "type": "LineString", "coordinates": [ [ -112.042057188841213, 33.478336352475722 ], [ -112.042057188841213, 33.478141539510332 ] ] } },
{ "type": "Feature", "properties": { "weight": 27.071067811865476, "nodes": "105-113" }, "geometry": { "type": "LineString", "coordinates": [ [ -112.0456504499777, 33.478291395676436 ], [ -112.045623500519184, 33.478104075428313 ] ] } },
{ "type": "Feature", "properties": { "weight": 15.135562914111457, "nodes": "106-111" }, "geometry": { "type": "LineString", "coordinates": [ [ -112.038796304359877, 33.478171510764298 ], [ -112.038904102193968, 33.478111568246014 ] ] } }
]
}
