{
"type": "FeatureCollection",
"name": "gee_batch_6_39.91531_-75.15259",
"crs": { "type": "name", "properties": { "name": "urn:ogc:def:crs:OGC:1.3:CRS84" } },
"features": [
{ "type": "Feature", "properties": { "name": "road_network" }, "geometry": { "type": "MultiLineString", "coordinates": [ [ [ -75.153068970333706, 39.918830299902588 ], [ -75.15224252027231, 39.918782072211862 ] ], [ [ -75.15011351304895, 39.918830299902588 ], [ -75.149601473337, 39.918795851555537 ], [ -75.149556557572794, 39.918775182538994 ], [ -75.149008585249476, 39.918706285772117 ] ], [ [ -75.150535721232487, 39.918823410234559 ], [ -75.150589620149532, 39.918795851555537 ], [ -75.1506255527609, 39.918547822945236 ] ], [ [ -75.148343831939229, 39.918816520565848 ], [ -75.148388747703436, 39.918782072211862 ], [ -75.148595360218778, 39.917824401034046 ] ], [ [ -75.148936720026754, 39.91880963089644 ], [ -75.14898163579096, 39.918782072211862 ], [ -75.149008585249476, 39.918706285772117 ] ], [ [ -75.156455618954837, 39.918795851555537 ], [ -75.156832911374167, 39.918830299902588 ], [ -75.156904776596889, 39.918823410234559 ], [ -75.156949692361096, 39.918795851555537 ], [ -75.157057490195186, 39.918217116734084 ], [ -75.157120372265084, 39.917955306517619 ], [ -75.157147321723599, 39.917920857730415 ], [ -75.157165288029276, 39.917769282860831 ], [ -75.157165288029276, 39.917665936166493 ], [ -75.157147321723599, 39.91763837702166 ], [ -75.157084439653715, 39.917617707655765 ], [ -75.156734096692915, 39.917590148491527 ], [ -75.156707147234386, 39.917576368905245 ] ], [ [ -75.156455618954837, 39.918795851555537 ], [ -75.156635282011649, 39.917789952180989 ], [ -75.156680197775856, 39.917603928075025 ], [ -75.156707147234386, 39.917576368905245 ] ], [ [ -75.156455618954837, 39.918795851555537 ], [ -75.156437652649146, 39.918795851555537 ], [ -75.156428669496307, 39.918802741226337 ], [ -75.156293922203687, 39.918802741226337 ], [ -75.155907646631519, 39.918782072211862 ], [ -75.155880697172989, 39.918754513516205 ] ], [ [ -75.154227797050211, 39.918782072211862 ], [ -75.15423678020305, 39.918582271417058 ], [ -75.154263729661579, 39.91855471264099 ] ], [ [ -75.15224252027231, 39.918782072211862 ], [ -75.15224252027231, 39.918658057994058 ], [ -75.152314385495046, 39.918306683157297 ] ], [ [ -75.155880697172989, 39.918754513516205 ], [ -75.155503404753659, 39.918720065131033 ], [ -75.155350691155363, 39.918685616728538 ] ], [ [ -75.155880697172989, 39.918754513516205 ], [ -75.156123242299714, 39.917548809724366 ], [ -75.156150191758243, 39.917493691329348 ] ], [ [ -75.149008585249476, 39.918706285772117 ], [ -75.149053501013682, 39.918389359751679 ], [ -75.149089433625051, 39.918341131750424 ] ], [ [ -75.155350691155363, 39.918685616728538 ], [ -75.155072213417299, 39.918664947678714 ], [ -75.154847634596251, 39.918623609560356 ] ], [ [ -75.155350691155363, 39.918685616728538 ], [ -75.155395606919569, 39.918354911182817 ], [ -75.155503404753659, 39.91791396797089 ], [ -75.155521371059336, 39.917741723757594 ], [ -75.155575269976396, 39.917493691329348 ], [ -75.155611202587764, 39.917445462697316 ] ], [ [ -75.154847634596251, 39.918623609560356 ], [ -75.154317628578625, 39.918575381724075 ], [ -75.154263729661579, 39.91855471264099 ] ], [ [ -75.154847634596251, 39.918623609560356 ], [ -75.154928482971826, 39.918175778345393 ], [ -75.155081196570137, 39.917528140331434 ], [ -75.155135095487182, 39.917390344219115 ] ], [ [ -75.154263729661579, 39.91855471264099 ], [ -75.154182881286005, 39.918534043551659 ], [ -75.153311515460416, 39.918437587718977 ], [ -75.152682694761523, 39.918341131750424 ], [ -75.152314385495046, 39.918306683157297 ] ], [ [ -75.154263729661579, 39.91855471264099 ], [ -75.154290679120095, 39.918485815652296 ], [ -75.154335594884301, 39.918120660454996 ] ], [ [ -75.1506255527609, 39.918547822945236 ], [ -75.150652502219415, 39.918520264155305 ], [ -75.150724367442152, 39.918141329669091 ], [ -75.150751316900667, 39.918093101493163 ] ], [ [ -75.1506255527609, 39.918547822945236 ], [ -75.149349945057452, 39.918375580326213 ], [ -75.149125366236419, 39.918361800897976 ], [ -75.149089433625051, 39.918341131750424 ] ], [ [ -75.149089433625051, 39.918341131750424 ], [ -75.149152315694934, 39.917934637247377 ], [ -75.149179265153464, 39.91789329868817 ] ], [ [ -75.152314385495046, 39.918306683157297 ], [ -75.1523503181064, 39.918251565372259 ], [ -75.152359301259253, 39.918127550193724 ], [ -75.152413200176298, 39.917886408925881 ], [ -75.152431166481975, 39.917872629399213 ] ], [ [ -75.152314385495046, 39.918306683157297 ], [ -75.152260486578001, 39.918286013993104 ], [ -75.151847261547303, 39.918244675646015 ], [ -75.151802345783096, 39.918224006463106 ] ], [ [ -75.151802345783096, 39.918224006463106 ], [ -75.151532851197857, 39.918203337273958 ], [ -75.151308272376824, 39.918161998876954 ] ], [ [ -75.151802345783096, 39.918224006463106 ], [ -75.152026924604115, 39.917038962877719 ], [ -75.152053874062645, 39.916983844072348 ] ], [ [ -75.151308272376824, 39.918161998876954 ], [ -75.150805215817712, 39.918113770715578 ], [ -75.150751316900667, 39.918093101493163 ] ], [ [ -75.151308272376824, 39.918161998876954 ], [ -75.151362171293869, 39.917810621494901 ], [ -75.151416070210914, 39.917631487233727 ], [ -75.151559800656372, 39.916921835363276 ] ], [ [ -75.154335594884301, 39.918120660454996 ], [ -75.154380510648508, 39.917996645039395 ], [ -75.15441644325989, 39.917714164643264 ] ], [ [ -75.154335594884301, 39.918120660454996 ], [ -75.152431166481975, 39.917872629399213 ] ], [ [ -75.150751316900667, 39.918093101493163 ], [ -75.149403843974497, 39.917920857730415 ], [ -75.149233164070509, 39.91791396797089 ], [ -75.149179265153464, 39.91789329868817 ] ], [ [ -75.150751316900667, 39.918093101493163 ], [ -75.150823182123403, 39.917755503310595 ], [ -75.150823182123403, 39.917659046381324 ] ], [ [ -75.149179265153464, 39.91789329868817 ], [ -75.148613326524469, 39.917838180570421 ], [ -75.148595360218778, 39.917824401034046 ] ], [ [ -75.149179265153464, 39.91789329868817 ], [ -75.149206214611979, 39.917851960104016 ], [ -75.149215197764818, 39.917721054422884 ], [ -75.149269096681877, 39.917493691329348 ], [ -75.149287062987554, 39.917479911723653 ] ], [ [ -75.152431166481975, 39.917872629399213 ], [ -75.15248506539902, 39.917555699520626 ], [ -75.152520998010388, 39.917473021919776 ] ], [ [ -75.148595360218778, 39.917824401034046 ], [ -75.148622309677307, 39.917776172634909 ], [ -75.148685191747191, 39.917404123842822 ], [ -75.14887383795687, 39.916591121299994 ] ], [ [ -75.148595360218778, 39.917824401034046 ], [ -75.148577393913101, 39.917810621494901 ], [ -75.148307899327875, 39.917789952180989 ], [ -75.148262983563669, 39.917762393086058 ] ], [ [ -75.148262983563669, 39.917762393086058 ], [ -75.148424680314804, 39.917080301952637 ], [ -75.148523494996056, 39.916549781929795 ] ], [ [ -75.148262983563669, 39.917762393086058 ], [ -75.148092303659681, 39.917762393086058 ] ], [ [ -75.148092303659681, 39.917762393086058 ], [ -75.148029421589783, 39.917721054422884 ], [ -75.148002472131267, 39.917679715734756 ] ], [ [ -75.15441644325989, 39.917714164643264 ], [ -75.153086936639383, 39.917562589316191 ], [ -75.152520998010388, 39.917473021919776 ] ], [ [ -75.15441644325989, 39.917714164643264 ], [ -75.154443392718406, 39.917665936166493 ], [ -75.154488308482613, 39.917355895147708 ], [ -75.154515257941142, 39.917300776597422 ] ], [ [ -75.150823182123403, 39.917659046381324 ], [ -75.150877081040449, 39.917493691329348 ], [ -75.150904030498964, 39.917280107129621 ] ], [ [ -75.150823182123403, 39.917659046381324 ], [ -75.149457742891542, 39.917486801526856 ], [ -75.149287062987554, 39.917479911723653 ] ], [ [ -75.156707147234386, 39.917576368905245 ], [ -75.156967658666787, 39.916343084704479 ] ], [ [ -75.156707147234386, 39.917576368905245 ], [ -75.156204090675288, 39.917521250532403 ], [ -75.156159174911082, 39.917514360732682 ], [ -75.156150191758243, 39.917493691329348 ] ], [ [ -75.156150191758243, 39.917493691329348 ], [ -75.155611202587764, 39.917445462697316 ] ], [ [ -75.156150191758243, 39.917493691329348 ], [ -75.15616815806392, 39.91733522569654 ], [ -75.15627595589801, 39.916908055642523 ], [ -75.15627595589801, 39.916770258282511 ] ], [ [ -75.149287062987554, 39.917479911723653 ], [ -75.149314012446084, 39.917218098688807 ], [ -75.14935892821029, 39.917087191796028 ] ], [ [ -75.152520998010388, 39.917473021919776 ], [ -75.152520998010388, 39.91737656459263 ], [ -75.152547947468904, 39.91733522569654 ], [ -75.152574896927433, 39.91709408163873 ], [ -75.152601846385949, 39.917052742572132 ] ], [ [ -75.155611202587764, 39.917445462697316 ], [ -75.155485438447982, 39.917417903463758 ], [ -75.155135095487182, 39.917390344219115 ] ], [ [ -75.155135095487182, 39.917390344219115 ], [ -75.155099162875814, 39.91736967477835 ], [ -75.154515257941142, 39.917300776597422 ] ], [ [ -75.154515257941142, 39.917300776597422 ], [ -75.153787622560998, 39.917218098688807 ], [ -75.153257616543357, 39.917142310518223 ], [ -75.15323965023768, 39.917128530841829 ] ], [ [ -75.154515257941142, 39.917300776597422 ], [ -75.154551190552496, 39.917045852725273 ] ], [ [ -75.150904030498964, 39.917280107129621 ], [ -75.151011828333068, 39.916846046864833 ] ], [ [ -75.150904030498964, 39.917280107129621 ], [ -75.14935892821029, 39.917087191796028 ] ], [ [ -75.15323965023768, 39.917128530841829 ], [ -75.15310490294506, 39.917128530841829 ], [ -75.152781509442789, 39.917080301952637 ], [ -75.152673711608685, 39.917080301952637 ], [ -75.152601846385949, 39.917052742572132 ] ], [ [ -75.15323965023768, 39.917128530841829 ], [ -75.153401346988829, 39.916336194786219 ], [ -75.153518127975758, 39.91590901850072 ] ], [ [ -75.14935892821029, 39.917087191796028 ], [ -75.149421810280174, 39.91668757973342 ], [ -75.149448759738704, 39.916653130308504 ] ], [ [ -75.152601846385949, 39.917052742572132 ], [ -75.15210777297969, 39.917004513629557 ], [ -75.152053874062645, 39.916983844072348 ] ], [ [ -75.152601846385949, 39.917052742572132 ], [ -75.152628795844478, 39.917011403480579 ], [ -75.152646762150155, 39.916832267128832 ], [ -75.15275455998426, 39.91639131411285 ], [ -75.15286235781835, 39.915805668999084 ] ], [ [ -75.154551190552496, 39.917045852725273 ], [ -75.154623055775232, 39.916673799965537 ], [ -75.154658988386601, 39.916584231406688 ] ], [ [ -75.152053874062645, 39.916983844072348 ], [ -75.151559800656372, 39.916921835363276 ] ], [ [ -75.152053874062645, 39.916983844072348 ], [ -75.15208082352116, 39.916928725222618 ], [ -75.15208082352116, 39.916846046864833 ], [ -75.152287436036517, 39.915929688382327 ], [ -75.1523503181064, 39.915750549201114 ] ], [ [ -75.151559800656372, 39.916921835363276 ], [ -75.151532851197857, 39.916908055642523 ], [ -75.151038777791598, 39.91686671646363 ], [ -75.151011828333068, 39.916846046864833 ] ], [ [ -75.151559800656372, 39.916921835363276 ], [ -75.151586750114916, 39.91686671646363 ], [ -75.151811328935935, 39.915681649391267 ] ], [ [ -75.151011828333068, 39.916846046864833 ], [ -75.15035605817566, 39.916777148157102 ], [ -75.149448759738704, 39.916653130308504 ] ], [ [ -75.151011828333068, 39.916846046864833 ], [ -75.151281322918308, 39.915605859520376 ] ], [ [ -75.15627595589801, 39.916770258282511 ], [ -75.156311888509379, 39.91672891902045 ], [ -75.156392736884939, 39.916301745184555 ], [ -75.156419686343469, 39.916274185490742 ] ], [ [ -75.15627595589801, 39.916770258282511 ], [ -75.155745949880384, 39.916722029141006 ], [ -75.15485661774909, 39.916598011192598 ], [ -75.154658988386601, 39.916584231406688 ] ], [ [ -75.149448759738704, 39.916653130308504 ], [ -75.149475709197219, 39.916598011192598 ], [ -75.14949367550291, 39.916425763669466 ], [ -75.149709271171091, 39.915399159446196 ] ], [ [ -75.149448759738704, 39.916653130308504 ], [ -75.149403843974497, 39.916632460645239 ], [ -75.14887383795687, 39.916591121299994 ] ], [ [ -75.14887383795687, 39.916591121299994 ], [ -75.148819939039825, 39.916570451618014 ], [ -75.148523494996056, 39.916549781929795 ] ], [ [ -75.154658988386601, 39.916584231406688 ], [ -75.154667971539439, 39.916460213208744 ], [ -75.154757803067838, 39.916053707540989 ] ], [ [ -75.148523494996056, 39.916549781929795 ], [ -75.148478579231849, 39.916529112235331 ], [ -75.148056371048312, 39.916473993019608 ], [ -75.148002472131267, 39.916425763669466 ] ], [ [ -75.157174271182129, 39.916405093937577 ], [ -75.157129355417922, 39.916356864538905 ], [ -75.156967658666787, 39.916343084704479 ] ], [ [ -75.156967658666787, 39.916343084704479 ], [ -75.156734096692915, 39.916301745184555 ], [ -75.156419686343469, 39.916274185490742 ] ], [ [ -75.156419686343469, 39.916274185490742 ], [ -75.156374770579262, 39.916253515713102 ], [ -75.155701034116177, 39.916177726475055 ], [ -75.155620185740602, 39.916150166731342 ] ], [ [ -75.156419686343469, 39.916274185490742 ], [ -75.156491551566191, 39.915977918081822 ] ], [ [ -75.155620185740602, 39.916150166731342 ], [ -75.155458488989453, 39.916143276793676 ], [ -75.154757803067838, 39.916053707540989 ] ], [ [ -75.155620185740602, 39.916150166731342 ], [ -75.155692050963339, 39.915888348612867 ], [ -75.155710017269016, 39.915722989285491 ], [ -75.155754933033222, 39.915633419483129 ] ], [ [ -75.157165288029276, 39.916074377378926 ], [ -75.156841894527005, 39.91602614774736 ], [ -75.156599349400281, 39.916012367846385 ], [ -75.156491551566191, 39.915977918081822 ] ], [ [ -75.154757803067838, 39.916053707540989 ], [ -75.153715757338261, 39.915915908461947 ], [ -75.153518127975758, 39.91590901850072 ] ], [ [ -75.154757803067838, 39.916053707540989 ], [ -75.154784752526368, 39.916005477894856 ], [ -75.154811701984897, 39.915771219130548 ], [ -75.154919499818988, 39.915316479241845 ], [ -75.154910516666135, 39.915013317638625 ], [ -75.154892550360458, 39.914965087259837 ], [ -75.154802718832045, 39.91487551646626 ] ], [ [ -75.156491551566191, 39.915977918081822 ], [ -75.156509517871882, 39.915764329154769 ], [ -75.156536467330397, 39.915716099304852 ] ], [ [ -75.153518127975758, 39.91590901850072 ], [ -75.153428296447345, 39.915874568684167 ], [ -75.15286235781835, 39.915805668999084 ] ], [ [ -75.157156304876438, 39.915819448941647 ], [ -75.157138338570761, 39.915798779026765 ], [ -75.156536467330397, 39.915716099304852 ] ], [ [ -75.15286235781835, 39.915805668999084 ], [ -75.15288930727688, 39.915771219130548 ], [ -75.152934223041086, 39.915557629558862 ], [ -75.152934223041086, 39.915454279526969 ], [ -75.15313185240359, 39.914586133101842 ], [ -75.15321270077915, 39.914496561812662 ] ], [ [ -75.15286235781835, 39.915805668999084 ], [ -75.152673711608685, 39.915778109105645 ], [ -75.152547947468904, 39.915778109105645 ], [ -75.152431166481975, 39.915750549201114 ] ], [ [ -75.152431166481975, 39.915750549201114 ], [ -75.1523503181064, 39.915750549201114 ] ], [ [ -75.1523503181064, 39.915750549201114 ], [ -75.152341334953562, 39.915736769244688 ], [ -75.152125739285367, 39.915716099304852 ], [ -75.152071840368322, 39.915695429358777 ] ], [ [ -75.152431166481975, 39.915750549201114 ], [ -75.152467099093343, 39.915688539375374 ], [ -75.15251201485755, 39.915426719492132 ], [ -75.152583880080272, 39.91525446902309 ], [ -75.15261981269164, 39.915047767888389 ], [ -75.1527006610672, 39.914813505848251 ], [ -75.152736593678583, 39.914510342018623 ], [ -75.152799475748466, 39.914455221178152 ] ], [ [ -75.156536467330397, 39.915716099304852 ], [ -75.156320871662217, 39.915702319341499 ], [ -75.155862730867312, 39.915633419483129 ], [ -75.155754933033222, 39.915633419483129 ] ], [ [ -75.156536467330397, 39.915716099304852 ], [ -75.156563416788927, 39.915688539375374 ], [ -75.156572399941766, 39.9156127495121 ] ], [ [ -75.148397730856274, 39.915722989285491 ], [ -75.148469596079011, 39.915344039321056 ] ], [ [ -75.152071840368322, 39.915695429358777 ], [ -75.151811328935935, 39.915681649391267 ] ], [ [ -75.152071840368322, 39.915695429358777 ], [ -75.152278452883678, 39.914792835629768 ], [ -75.152323368647885, 39.914489671708637 ], [ -75.152341334953562, 39.914441440961106 ], [ -75.152404217023459, 39.914386320065177 ] ], [ [ -75.157165288029276, 39.915688539375374 ], [ -75.157138338570761, 39.915667869420979 ], [ -75.156743079845754, 39.9156127495121 ], [ -75.156572399941766, 39.9156127495121 ] ], [ [ -75.151811328935935, 39.915681649391267 ], [ -75.151685564796168, 39.915647199460352 ] ], [ [ -75.147993488978429, 39.915674759406471 ], [ -75.148029421589783, 39.915440499510936 ] ], [ [ -75.151685564796168, 39.915647199460352 ], [ -75.151299289223985, 39.915619639503142 ], [ -75.151281322918308, 39.915605859520376 ] ], [ [ -75.151685564796168, 39.915647199460352 ], [ -75.151721497407522, 39.915371599389168 ], [ -75.15175743001889, 39.915288919151557 ], [ -75.151838278394465, 39.914903076722915 ], [ -75.151910143617187, 39.91444833106997 ], [ -75.151928109922864, 39.914406990406349 ], [ -75.152008958298438, 39.914338089244858 ] ], [ [ -75.155754933033222, 39.915633419483129 ], [ -75.155799848797429, 39.915350929339127 ], [ -75.155853747714474, 39.915337149302289 ] ], [ [ -75.151281322918308, 39.915605859520376 ], [ -75.15073335059499, 39.915530069565605 ] ], [ [ -75.151281322918308, 39.915605859520376 ], [ -75.151317255529662, 39.915378489404468 ], [ -75.151505901739327, 39.914627473657333 ], [ -75.151541834350695, 39.914372539834268 ], [ -75.15162268272627, 39.914289858390568 ] ], [ [ -75.156572399941766, 39.9156127495121 ], [ -75.156590366247443, 39.915378489404468 ], [ -75.156635282011649, 39.915302699198087 ] ], [ [ -75.15073335059499, 39.915530069565605 ], [ -75.15024826034157, 39.915468059540245 ] ], [ [ -75.15073335059499, 39.915530069565605 ], [ -75.150993862027377, 39.914317418882895 ], [ -75.151092676708643, 39.91422095711124 ] ], [ [ -75.15024826034157, 39.915468059540245 ], [ -75.149709271171091, 39.915399159446196 ] ], [ [ -75.15024826034157, 39.915468059540245 ], [ -75.150463856009765, 39.914489671708637 ], [ -75.150499788621119, 39.914227847242294 ], [ -75.150580636996693, 39.9141520557626 ] ], [ [ -75.149709271171091, 39.915399159446196 ], [ -75.149960799450653, 39.914165836037881 ], [ -75.150059614131905, 39.914062483905745 ] ], [ [ -75.149709271171091, 39.915399159446196 ], [ -75.149664355406884, 39.915378489404468 ], [ -75.149430793433027, 39.915364709373179 ], [ -75.148074337353989, 39.91519245874818 ] ], [ [ -75.157156304876438, 39.915378489404468 ], [ -75.156707147234386, 39.91533025928284 ], [ -75.156635282011649, 39.915302699198087 ] ], [ [ -75.147993488978429, 39.915309589220314 ], [ -75.148074337353989, 39.91519245874818 ] ], [ [ -75.156635282011649, 39.915302699198087 ], [ -75.156671214623017, 39.915013317638625 ], [ -75.156734096692915, 39.914944417087099 ] ], [ [ -75.148074337353989, 39.91519245874818 ], [ -75.148074337353989, 39.914965087259837 ], [ -75.148209084646624, 39.914055593758057 ], [ -75.148209084646624, 39.913952241459569 ], [ -75.148245017257977, 39.913814438152315 ], [ -75.148289933022184, 39.913766206929274 ] ], [ [ -75.157183254334967, 39.915102888251973 ], [ -75.157057490195186, 39.914978867371531 ], [ -75.156734096692915, 39.914944417087099 ] ], [ [ -75.156734096692915, 39.914944417087099 ], [ -75.156446635801984, 39.914896186659789 ], [ -75.156132225452552, 39.91486862640037 ], [ -75.156015444465609, 39.914847956198521 ], [ -75.155961545548564, 39.914820395919691 ] ], [ [ -75.155961545548564, 39.914820395919691 ], [ -75.155153061792859, 39.914744605095713 ], [ -75.154766786220691, 39.914682594359164 ], [ -75.154605089469541, 39.914675704273861 ], [ -75.153796605713836, 39.914551682619859 ], [ -75.153778639408145, 39.914537902422218 ] ], [ [ -75.155961545548564, 39.914820395919691 ], [ -75.156015444465609, 39.914758385251766 ], [ -75.156042393924139, 39.914572352911129 ] ], [ [ -75.156186124369597, 39.914586133101842 ], [ -75.156042393924139, 39.914572352911129 ] ], [ [ -75.156042393924139, 39.914572352911129 ], [ -75.156132225452552, 39.914214066979497 ], [ -75.156204090675288, 39.913745536394721 ] ], [ [ -75.153778639408145, 39.914537902422218 ], [ -75.15321270077915, 39.914496561812662 ] ], [ [ -75.153778639408145, 39.914537902422218 ], [ -75.153841521478043, 39.914489671708637 ], [ -75.153877454089411, 39.914296748514694 ] ], [ [ -75.15321270077915, 39.914496561812662 ], [ -75.15313185240359, 39.914469001392426 ], [ -75.152799475748466, 39.914455221178152 ] ], [ [ -75.152799475748466, 39.914455221178152 ], [ -75.15275455998426, 39.914434550851539 ], [ -75.152601846385949, 39.91441388051868 ], [ -75.152556930621756, 39.914386320065177 ] ], [ [ -75.152556930621756, 39.914386320065177 ], [ -75.152646762150155, 39.914303638638117 ], [ -75.152691677914362, 39.913972911931744 ], [ -75.152799475748466, 39.913587062089199 ], [ -75.152808458901305, 39.913414806993394 ] ], [ [ -75.152556930621756, 39.914386320065177 ], [ -75.152404217023459, 39.914386320065177 ] ], [ [ -75.152404217023459, 39.914386320065177 ], [ -75.152170655049588, 39.914344979364124 ], [ -75.152008958298438, 39.914338089244858 ] ], [ [ -75.152008958298438, 39.914338089244858 ], [ -75.1519999751456, 39.914324309004243 ], [ -75.151793362630258, 39.914296748514694 ], [ -75.15162268272627, 39.914289858390568 ] ], [ [ -75.153877454089411, 39.914296748514694 ], [ -75.153967285617824, 39.913800657806341 ], [ -75.154066100299076, 39.91347681887779 ], [ -75.154308645425786, 39.912491512295858 ], [ -75.154335594884301, 39.912333035088842 ], [ -75.154317628578625, 39.912243460853126 ] ], [ [ -75.15162268272627, 39.914289858390568 ], [ -75.151613699573431, 39.914276078140247 ], [ -75.151505901739327, 39.914255407759569 ], [ -75.151092676708643, 39.91422095711124 ] ], [ [ -75.151092676708643, 39.91422095711124 ], [ -75.151056744097275, 39.914200286713928 ], [ -75.150778266359197, 39.914158945900581 ], [ -75.150580636996693, 39.9141520557626 ] ], [ [ -75.150580636996693, 39.9141520557626 ], [ -75.150535721232487, 39.914131385344497 ], [ -75.15024826034157, 39.914090044489569 ], [ -75.150095546743273, 39.914083154344645 ], [ -75.150059614131905, 39.914062483905745 ] ], [ [ -75.150059614131905, 39.914062483905745 ], [ -75.149565540725632, 39.91401425285737 ], [ -75.148748073817089, 39.913890230005613 ], [ -75.148442646620481, 39.913876449674895 ], [ -75.148289933022184, 39.913766206929274 ] ], [ [ -75.150059614131905, 39.914062483905745 ], [ -75.150383007634176, 39.91250529290523 ], [ -75.150436906551221, 39.912305473798021 ], [ -75.15051775492681, 39.912153886500263 ] ], [ [ -75.148289933022184, 39.913766206929274 ], [ -75.148487562384688, 39.913614622864323 ], [ -75.148631292830146, 39.913552611104691 ] ], [ [ -75.148289933022184, 39.913766206929274 ], [ -75.148271966716507, 39.913738646215144 ], [ -75.148271966716507, 39.913566391500581 ], [ -75.148298916175037, 39.913497489493452 ], [ -75.148307899327875, 39.913304563504731 ], [ -75.148433663467642, 39.912822246155471 ] ], [ [ -75.156204090675288, 39.913745536394721 ], [ -75.156231040133804, 39.913711085489929 ], [ -75.15630290535654, 39.913290783056176 ], [ -75.156392736884939, 39.912932490420452 ], [ -75.156401720037778, 39.912794685061499 ] ], [ [ -75.156204090675288, 39.913745536394721 ], [ -75.155171028098536, 39.913607732671586 ], [ -75.155009331347401, 39.913566391500581 ] ], [ [ -75.152808458901305, 39.913414806993394 ], [ -75.152835408359834, 39.913359685271246 ], [ -75.153042020875176, 39.912429499519391 ] ], [ [ -75.152808458901305, 39.913414806993394 ], [ -75.15259286323311, 39.913373465705938 ] ], [ [ -75.157147321723599, 39.912856697507337 ], [ -75.156518501024721, 39.912787794786276 ], [ -75.156401720037778, 39.912794685061499 ] ], [ [ -75.148433663467642, 39.912822246155471 ], [ -75.148550444454571, 39.912760233678434 ], [ -75.148613326524469, 39.912512183208875 ], [ -75.148819939039825, 39.911960956727 ], [ -75.149197231459141, 39.911788697541681 ] ], [ [ -75.148433663467642, 39.912822246155471 ], [ -75.148236034105139, 39.9126775502884 ], [ -75.1482270509523, 39.912622427972913 ], [ -75.148379764550597, 39.911857601267791 ], [ -75.148388747703436, 39.911830039785663 ], [ -75.148460612926172, 39.911788697541681 ] ], [ [ -75.156401720037778, 39.912794685061499 ], [ -75.156329854815056, 39.912767123956435 ], [ -75.155566286823557, 39.9126775502884 ], [ -75.155494421600821, 39.912643098846424 ], [ -75.155494421600821, 39.912525963814076 ], [ -75.155575269976396, 39.912098763763353 ], [ -75.155602219434925, 39.911974737443117 ], [ -75.155647135199132, 39.911898943470192 ], [ -75.155665101504809, 39.911885162738827 ], [ -75.155772899338899, 39.911885162738827 ], [ -75.157066473348024, 39.912022969927669 ], [ -75.157111389112231, 39.91202986027983 ], [ -75.157183254334967, 39.91210565410789 ] ], [ [ -75.152853374665511, 39.912436389830667 ], [ -75.152934223041086, 39.912415718894778 ], [ -75.153042020875176, 39.912429499519391 ] ], [ [ -75.153042020875176, 39.912429499519391 ], [ -75.153176768167796, 39.912353706049686 ], [ -75.153401346988829, 39.912298583473586 ] ], [ [ -75.153940336159295, 39.912257241512393 ], [ -75.154317628578625, 39.912243460853126 ] ], [ [ -75.154317628578625, 39.912243460853126 ], [ -75.154362544342831, 39.9121401058202 ], [ -75.154380510648508, 39.912016079574812 ] ], [ [ -75.15051775492681, 39.912153886500263 ], [ -75.150715384289313, 39.912133215479123 ], [ -75.151020811485921, 39.9121401058202 ] ], [ [ -75.15051775492681, 39.912153886500263 ], [ -75.150499788621119, 39.912078092725572 ], [ -75.150526738079648, 39.9118507108983 ], [ -75.150652502219415, 39.911788697541681 ] ], [ [ -75.151020811485921, 39.9121401058202 ], [ -75.151155558778527, 39.91214699616058 ], [ -75.151901160464348, 39.912257241512393 ], [ -75.15226946973084, 39.912264131840992 ], [ -75.152359301259253, 39.912250351183111 ], [ -75.152574896927433, 39.912202118858666 ], [ -75.152772526289951, 39.912098763763353 ], [ -75.152943206193925, 39.911954066367905 ], [ -75.153033037722338, 39.911809368666788 ], [ -75.153086936639383, 39.911788697541681 ] ], [ [ -75.151990991992761, 39.912126325137351 ], [ -75.152035907756954, 39.912126325137351 ], [ -75.152179638202426, 39.912064312030253 ], [ -75.152332351800723, 39.911940285647638 ], [ -75.152386250717768, 39.9118507108983 ] ] ] } }
]
}
