{
"type": "FeatureCollection",
"name": "gee_batch_7_29.46166_-98.52556",
"crs": { "type": "name", "properties": { "name": "urn:ogc:def:crs:OGC:1.3:CRS84" } },
"features": [
{ "type": "Feature", "properties": { "name": "road_network" }, "geometry": { "type": "MultiLineString", "coordinates": [ [ [ -98.527305420098955, 29.46566320092375 ], [ -98.527170672806321, 29.465631916167681 ], [ -98.52698202659667, 29.465452028633056 ], [ -98.52695507713814, 29.465365995351519 ] ], [ [ -98.52911103382003, 29.465647558546927 ], [ -98.529146966431398, 29.465624094977162 ], [ -98.529155949584236, 29.46550677704694 ] ], [ [ -98.523254018167563, 29.465631916167681 ], [ -98.523271984473254, 29.464920185360043 ] ], [ [ -98.524673356316484, 29.465624094977162 ], [ -98.524736238386367, 29.465100073838059 ], [ -98.524709288927838, 29.464920185360043 ] ], [ [ -98.529155949584236, 29.46550677704694 ], [ -98.528850522387629, 29.465467671040042 ], [ -98.527916274492156, 29.465405101397632 ], [ -98.52738626847453, 29.465342531716615 ], [ -98.527251521181896, 29.465350352928855 ], [ -98.527017959208024, 29.465326889290331 ], [ -98.52695507713814, 29.465365995351519 ] ], [ [ -98.529155949584236, 29.46550677704694 ], [ -98.52921883165412, 29.464990576541613 ] ], [ [ -98.52695507713814, 29.465365995351519 ], [ -98.526901178221095, 29.465334710503775 ], [ -98.526883211915418, 29.465264319561062 ] ], [ [ -98.521286707695353, 29.465334710503775 ], [ -98.520990263651584, 29.465334710503775 ] ], [ [ -98.526883211915418, 29.465264319561062 ], [ -98.526910161373934, 29.465248677122712 ], [ -98.526928127679625, 29.465193928569498 ], [ -98.526973043443832, 29.464787224105983 ] ], [ [ -98.526883211915418, 29.465264319561062 ], [ -98.52676643092849, 29.465240855902632 ], [ -98.526416087967675, 29.464920185360043 ], [ -98.526380155356307, 29.46488107912694 ], [ -98.526344222744939, 29.464763760337171 ] ], [ [ -98.530144096396768, 29.46512353752906 ], [ -98.53008121432687, 29.465076610141633 ], [ -98.529299680029695, 29.465014040257952 ], [ -98.52921883165412, 29.464990576541613 ] ], [ [ -98.52921883165412, 29.464990576541613 ], [ -98.526973043443832, 29.464787224105983 ] ], [ [ -98.52921883165412, 29.464990576541613 ], [ -98.529344595793901, 29.463981631603751 ] ], [ [ -98.524709288927838, 29.464920185360043 ], [ -98.523271984473254, 29.464920185360043 ] ], [ [ -98.523271984473254, 29.464920185360043 ], [ -98.52100822995726, 29.464912364114628 ] ], [ [ -98.523271984473254, 29.464920185360043 ], [ -98.523271984473254, 29.464474373408812 ] ], [ [ -98.524709288927838, 29.464920185360043 ], [ -98.52471827208069, 29.46456040744674 ], [ -98.524700305774999, 29.464505658521958 ] ], [ [ -98.526973043443832, 29.464787224105983 ], [ -98.526434054273352, 29.464748117821614 ], [ -98.526344222744939, 29.464763760337171 ] ], [ [ -98.526973043443832, 29.464787224105983 ], [ -98.526991009749509, 29.464771581594043 ], [ -98.527035925513715, 29.464302305113996 ] ], [ [ -98.526344222744939, 29.464763760337171 ], [ -98.526218458605172, 29.464709011522171 ], [ -98.525859132491519, 29.464396160583721 ], [ -98.525805233574474, 29.46434141157027 ], [ -98.525769300963105, 29.464239734752596 ] ], [ [ -98.524960817207386, 29.464529122350488 ], [ -98.525203362334111, 29.464521301074914 ], [ -98.525329126473892, 29.464497837244579 ], [ -98.525733368351737, 29.464490015966593 ] ], [ [ -98.524700305774999, 29.464505658521958 ], [ -98.524709288927838, 29.464122415220913 ] ], [ [ -98.524574541635232, 29.464505658521958 ], [ -98.524161316604534, 29.464513479798736 ], [ -98.523271984473254, 29.464474373408812 ] ], [ [ -98.523271984473254, 29.464474373408812 ], [ -98.523271984473254, 29.464106772606431 ] ], [ [ -98.528958320221719, 29.464450909567617 ], [ -98.527377285321677, 29.464317947698316 ] ], [ [ -98.527035925513715, 29.464302305113996 ], [ -98.526541852107442, 29.464247556049884 ], [ -98.525841166185842, 29.464200628257114 ], [ -98.525769300963105, 29.464239734752596 ] ], [ [ -98.527035925513715, 29.464302305113996 ], [ -98.527080841277922, 29.463793919810211 ], [ -98.527098807583599, 29.463762634477501 ] ], [ [ -98.525769300963105, 29.464239734752596 ], [ -98.525661503129015, 29.464192806956209 ], [ -98.525553705294911, 29.464106772606431 ], [ -98.525463873766498, 29.464083308680191 ] ], [ [ -98.524709288927838, 29.464122415220913 ], [ -98.525392008543776, 29.464114593913973 ], [ -98.525463873766498, 29.464083308680191 ] ], [ [ -98.524709288927838, 29.464122415220913 ], [ -98.524188266063049, 29.464091129989541 ] ], [ [ -98.523271984473254, 29.464106772606431 ], [ -98.524143350298843, 29.464106772606431 ], [ -98.524188266063049, 29.464091129989541 ] ], [ [ -98.523271984473254, 29.464106772606431 ], [ -98.52100822995726, 29.464106772606431 ] ], [ [ -98.523271984473254, 29.464106772606431 ], [ -98.523271984473254, 29.463692242443638 ] ], [ [ -98.530153079549621, 29.464106772606431 ], [ -98.530090197479709, 29.464052023436761 ], [ -98.529344595793901, 29.463981631603751 ] ], [ [ -98.524188266063049, 29.464091129989541 ], [ -98.524161316604534, 29.463989452920945 ], [ -98.524080468228959, 29.463879954425373 ], [ -98.523945720936354, 29.463731349135148 ], [ -98.523864872560765, 29.463660957079568 ], [ -98.523837923102249, 29.463660957079568 ] ], [ [ -98.525463873766498, 29.464083308680191 ], [ -98.525436924307982, 29.463981631603751 ], [ -98.525176412875595, 29.463715706460356 ], [ -98.525149463417065, 29.463614029015375 ] ], [ [ -98.529344595793901, 29.463981631603751 ], [ -98.527098807583599, 29.463762634477501 ] ], [ [ -98.529344595793901, 29.463981631603751 ], [ -98.529398494710946, 29.463488887404697 ] ], [ [ -98.527098807583599, 29.463762634477501 ], [ -98.526730498317121, 29.463731349135148 ], [ -98.526649649941533, 29.463707885122052 ], [ -98.525904048255725, 29.463660957079568 ], [ -98.525535738989234, 29.463621850360916 ], [ -98.525508789530704, 29.46360620766923 ], [ -98.525203362334111, 29.463590564975135 ], [ -98.525149463417065, 29.463614029015375 ] ], [ [ -98.527098807583599, 29.463762634477501 ], [ -98.527143723347805, 29.463301174699158 ], [ -98.527161689653482, 29.463285531958018 ] ], [ [ -98.523271984473254, 29.463692242443638 ], [ -98.52378402418519, 29.46368442110353 ], [ -98.523837923102249, 29.463660957079568 ] ], [ [ -98.523271984473254, 29.463692242443638 ], [ -98.523254018167563, 29.463285531958018 ] ], [ [ -98.523837923102249, 29.463660957079568 ], [ -98.523819956796558, 29.463590564975135 ], [ -98.523433681224404, 29.463191675460493 ], [ -98.523397748613036, 29.463160389942011 ], [ -98.523289950778931, 29.463129104413881 ] ], [ [ -98.525149463417065, 29.463614029015375 ], [ -98.525077598194343, 29.463598386322488 ], [ -98.525041665582975, 29.46356710092947 ], [ -98.524978783513077, 29.463481066048903 ], [ -98.524942850901709, 29.463363745639604 ] ], [ [ -98.530153079549621, 29.46356710092947 ], [ -98.530144096396768, 29.46355145822934 ], [ -98.529398494710946, 29.463488887404697 ] ], [ [ -98.529398494710946, 29.463488887404697 ], [ -98.529254764265488, 29.463488887404697 ], [ -98.528967303374571, 29.463441959260887 ], [ -98.527161689653482, 29.463285531958018 ] ], [ [ -98.529398494710946, 29.463488887404697 ], [ -98.529416461016623, 29.46346542333551 ], [ -98.529425444169462, 29.463230782345015 ], [ -98.529470359933669, 29.46296485523288 ] ], [ [ -98.524942850901709, 29.463363745639604 ], [ -98.524987766665916, 29.463301174699158 ], [ -98.525068615041491, 29.462542498974624 ] ], [ [ -98.524942850901709, 29.463363745639604 ], [ -98.524808103609089, 29.463324638806355 ], [ -98.524502676412496, 29.463027426380819 ], [ -98.52409843453465, 29.462605070383127 ], [ -98.524062501923282, 29.462479927527522 ] ], [ [ -98.527161689653482, 29.463285531958018 ], [ -98.526991009749509, 29.463277710586535 ] ], [ [ -98.527161689653482, 29.463285531958018 ], [ -98.52722457172338, 29.462753677323605 ] ], [ [ -98.523254018167563, 29.463285531958018 ], [ -98.52100822995726, 29.463285531958018 ], [ -98.520972297345907, 29.463254246468487 ] ], [ [ -98.523254018167563, 29.463285531958018 ], [ -98.523289950778931, 29.463129104413881 ] ], [ [ -98.526676599400062, 29.463222960969315 ], [ -98.526416087967675, 29.463191675460493 ] ], [ [ -98.523289950778931, 29.463129104413881 ], [ -98.523263001320402, 29.46296485523288 ] ], [ [ -98.530135113243929, 29.46305089055134 ], [ -98.5301081637854, 29.463019604989434 ], [ -98.530054264868355, 29.463011783597452 ], [ -98.529578157767773, 29.462988319417878 ], [ -98.529470359933669, 29.46296485523288 ] ], [ [ -98.529470359933669, 29.46296485523288 ], [ -98.52722457172338, 29.462753677323605 ] ], [ [ -98.529470359933669, 29.46296485523288 ], [ -98.529497309392198, 29.462886641243678 ], [ -98.529605107226303, 29.461908961289492 ] ], [ [ -98.523263001320402, 29.46296485523288 ], [ -98.523451647530081, 29.462808427194155 ], [ -98.523945720936354, 29.462472106093923 ] ], [ [ -98.523263001320402, 29.46296485523288 ], [ -98.52319113609768, 29.462941391042456 ], [ -98.523092321416428, 29.462855355631106 ], [ -98.52267909638573, 29.462440820353482 ], [ -98.522616214315846, 29.462425177479634 ] ], [ [ -98.52722457172338, 29.462753677323605 ], [ -98.527188639112012, 29.46273803449802 ], [ -98.526550835260281, 29.462691106006783 ], [ -98.525490823225027, 29.46258160610946 ], [ -98.525086581347182, 29.462558141830367 ], [ -98.525068615041491, 29.462542498974624 ] ], [ [ -98.52722457172338, 29.462753677323605 ], [ -98.527332369557485, 29.461752531622253 ], [ -98.527359319016, 29.461689959687806 ] ], [ [ -98.525068615041491, 29.462542498974624 ], [ -98.525131497111389, 29.462018461913008 ] ], [ [ -98.525068615041491, 29.462542498974624 ], [ -98.525041665582975, 29.462519034686483 ], [ -98.5246104742466, 29.462479927527522 ], [ -98.524152333451696, 29.462464284659717 ], [ -98.524062501923282, 29.462479927527522 ] ], [ [ -98.524062501923282, 29.462479927527522 ], [ -98.523945720936354, 29.462472106093923 ] ], [ [ -98.523945720936354, 29.462472106093923 ], [ -98.523900805172147, 29.462386070284488 ], [ -98.523568428517009, 29.462041926316957 ], [ -98.523496563294287, 29.461862032414651 ] ], [ [ -98.520999246804422, 29.462448641789496 ], [ -98.522499433328903, 29.46245646322491 ], [ -98.522616214315846, 29.462425177479634 ] ], [ [ -98.522616214315846, 29.462425177479634 ], [ -98.522589264857316, 29.462331320185942 ], [ -98.5219514610056, 29.461674316698161 ], [ -98.521906545241393, 29.461596101713756 ] ], [ [ -98.527161689653482, 29.462221819900194 ], [ -98.526613717330179, 29.462182712626628 ], [ -98.525580654753441, 29.462065390715473 ] ], [ [ -98.525131497111389, 29.462018461913008 ], [ -98.523990636700546, 29.461901139811857 ] ], [ [ -98.525131497111389, 29.462018461913008 ], [ -98.525194379181272, 29.461588280212002 ], [ -98.525167429722742, 29.461517886669036 ] ], [ [ -98.530117146938252, 29.461963711616026 ], [ -98.529632056684818, 29.461924604242942 ], [ -98.529605107226303, 29.461908961289492 ] ], [ [ -98.529605107226303, 29.461908961289492 ], [ -98.527359319016, 29.461689959687806 ] ], [ [ -98.529605107226303, 29.461908961289492 ], [ -98.529694938754716, 29.461017308954599 ], [ -98.52973087136607, 29.460845234794693 ] ], [ [ -98.523496563294287, 29.461862032414651 ], [ -98.523550462211333, 29.461815103518099 ], [ -98.523577411669848, 29.461689959687806 ], [ -98.523568428517009, 29.461611744715462 ] ], [ [ -98.523496563294287, 29.461862032414651 ], [ -98.523361816001668, 29.461822925002362 ], [ -98.523065371957898, 29.461533529682807 ], [ -98.522948590970969, 29.461400563988871 ], [ -98.522912658359601, 29.461291062698276 ], [ -98.522921641512454, 29.461267598120624 ] ], [ [ -98.527359319016, 29.461689959687806 ], [ -98.526784397234167, 29.461658673706101 ], [ -98.526532868954604, 29.461635209213497 ], [ -98.526425071120514, 29.461603923214909 ], [ -98.525203362334111, 29.461502243652859 ] ], [ [ -98.527359319016, 29.461689959687806 ], [ -98.527413217933045, 29.461291062698276 ], [ -98.527413217933045, 29.461150275150949 ] ], [ [ -98.52100822995726, 29.461627387714756 ], [ -98.521771797948773, 29.461619566215411 ], [ -98.521825696865818, 29.461596101713756 ] ], [ [ -98.523568428517009, 29.461611744715462 ], [ -98.523613344281216, 29.461392742472032 ] ], [ [ -98.521906545241393, 29.461596101713756 ], [ -98.522598248010155, 29.461103345925082 ] ], [ [ -98.521906545241393, 29.461596101713756 ], [ -98.521825696865818, 29.461596101713756 ] ], [ [ -98.521825696865818, 29.461596101713756 ], [ -98.521771797948773, 29.461478779124061 ], [ -98.520999246804422, 29.460704446628554 ], [ -98.520963314193068, 29.460602766164804 ] ], [ [ -98.525167429722742, 29.461517886669036 ], [ -98.525203362334111, 29.461502243652859 ] ], [ [ -98.525167429722742, 29.461517886669036 ], [ -98.523613344281216, 29.461392742472032 ] ], [ [ -98.525203362334111, 29.461502243652859 ], [ -98.525266244403994, 29.460954736566592 ] ], [ [ -98.523613344281216, 29.461392742472032 ], [ -98.523577411669848, 29.461345813358349 ], [ -98.523505546447126, 29.461322348793363 ], [ -98.522921641512454, 29.461267598120624 ] ], [ [ -98.522921641512454, 29.461267598120624 ], [ -98.522777911066996, 29.461220668949046 ], [ -98.522661130080053, 29.461118989002784 ], [ -98.522598248010155, 29.461103345925082 ] ], [ [ -98.522921641512454, 29.461267598120624 ], [ -98.522957574123808, 29.461205025887025 ], [ -98.523002489888015, 29.460923450358106 ], [ -98.523002489888015, 29.460782662300534 ], [ -98.523029439346544, 29.460735732904585 ] ], [ [ -98.527413217933045, 29.461150275150949 ], [ -98.526047778701184, 29.461040773590152 ], [ -98.525266244403994, 29.460954736566592 ] ], [ [ -98.527413217933045, 29.461150275150949 ], [ -98.527440167391575, 29.461103345925082 ], [ -98.52746711685009, 29.460743554472081 ], [ -98.52749406630862, 29.460634052472198 ] ], [ [ -98.522598248010155, 29.461103345925082 ], [ -98.522517399634594, 29.460907807250251 ] ], [ [ -98.525266244403994, 29.460954736566592 ], [ -98.524996749818754, 29.460915628804482 ], [ -98.523029439346544, 29.460735732904585 ] ], [ [ -98.525266244403994, 29.460954736566592 ], [ -98.525329126473892, 29.460422869710019 ] ], [ [ -98.530144096396768, 29.460923450358106 ], [ -98.530117146938252, 29.460884342583942 ], [ -98.52973087136607, 29.460845234794693 ] ], [ [ -98.522517399634594, 29.460907807250251 ], [ -98.522481467023226, 29.46089998569542 ], [ -98.522400618647652, 29.460829591674774 ], [ -98.522149090368103, 29.460548015103651 ], [ -98.521834680018657, 29.46025079454169 ], [ -98.521780781101612, 29.460133470395906 ] ], [ [ -98.52973087136607, 29.460845234794693 ], [ -98.52749406630862, 29.460634052472198 ] ], [ [ -98.52973087136607, 29.460845234794693 ], [ -98.529748837671761, 29.460813948552442 ], [ -98.529784770283115, 29.460336832162341 ], [ -98.52986561865869, 29.459773675502657 ] ], [ [ -98.523029439346544, 29.460735732904585 ], [ -98.523065371957898, 29.460211686508167 ], [ -98.523083338263589, 29.460196043290541 ] ], [ [ -98.52749406630862, 29.460634052472198 ], [ -98.525329126473892, 29.460422869710019 ] ], [ [ -98.52749406630862, 29.460634052472198 ], [ -98.527547965225665, 29.46009436231715 ] ], [ [ -98.525329126473892, 29.460422869710019 ], [ -98.525356075932407, 29.460360296955312 ], [ -98.525400991696614, 29.459883178431351 ] ], [ [ -98.525329126473892, 29.460422869710019 ], [ -98.523083338263589, 29.460196043290541 ] ], [ [ -98.521205859319778, 29.460266437750867 ], [ -98.521133994097056, 29.46017257845957 ], [ -98.521026196262952, 29.460086540699592 ] ], [ [ -98.529030185444469, 29.460219508116079 ], [ -98.528751707706377, 29.460188221680816 ] ], [ [ -98.523083338263589, 29.460196043290541 ], [ -98.521933494699908, 29.460102183934108 ], [ -98.521825696865818, 29.460102183934108 ], [ -98.521780781101612, 29.460133470395906 ] ], [ [ -98.523083338263589, 29.460196043290541 ], [ -98.523137237180634, 29.459664172455749 ] ], [ [ -98.528679842483655, 29.460188221680816 ], [ -98.527880341880788, 29.460110005550465 ] ], [ [ -98.521780781101612, 29.460133470395906 ], [ -98.521690949573212, 29.46009436231715 ], [ -98.521619084350476, 29.460031789359796 ], [ -98.521241791931146, 29.459640707501752 ], [ -98.521205859319778, 29.459546847631458 ] ], [ [ -98.527547965225665, 29.46009436231715 ], [ -98.527619830448387, 29.459554669290632 ] ], [ [ -98.527547965225665, 29.46009436231715 ], [ -98.526757447775637, 29.46001614611442 ], [ -98.526452020579029, 29.460008324490829 ], [ -98.525400991696614, 29.459883178431351 ] ], [ [ -98.525400991696614, 29.459883178431351 ], [ -98.525347092779569, 29.459867535163063 ], [ -98.524924884596032, 29.45985189189236 ], [ -98.523478596988596, 29.459695459052639 ], [ -98.523289950778931, 29.459695459052639 ], [ -98.523137237180634, 29.459664172455749 ] ], [ [ -98.525400991696614, 29.459883178431351 ], [ -98.525472856919336, 29.459351305956076 ] ], [ [ -98.530153079549621, 29.45985189189236 ], [ -98.530099180632561, 29.459789318785422 ], [ -98.52986561865869, 29.459773675502657 ] ], [ [ -98.52986561865869, 29.459773675502657 ], [ -98.529173915889913, 29.459718923993982 ], [ -98.52832949952284, 29.459625064196068 ], [ -98.527655763059755, 29.459578134264536 ], [ -98.527619830448387, 29.459554669290632 ] ], [ [ -98.52986561865869, 29.459773675502657 ], [ -98.53000036595131, 29.458717748338682 ] ], [ [ -98.523137237180634, 29.459664172455749 ], [ -98.523155203486311, 29.459656350805016 ], [ -98.523218085556195, 29.459132298832142 ] ], [ [ -98.523137237180634, 29.459664172455749 ], [ -98.522517399634594, 29.459625064196068 ], [ -98.521457387599327, 29.459507739326536 ], [ -98.521286707695353, 29.459507739326536 ], [ -98.521205859319778, 29.459546847631458 ] ], [ [ -98.527619830448387, 29.459554669290632 ], [ -98.526514902648927, 29.459468631006541 ], [ -98.525472856919336, 29.459351305956076 ] ], [ [ -98.527619830448387, 29.459554669290632 ], [ -98.527673729365432, 29.459038438491426 ] ], [ [ -98.521205859319778, 29.459546847631458 ], [ -98.521151960402733, 29.459531204311297 ], [ -98.521017213110113, 29.459413879333209 ], [ -98.520963314193068, 29.459257445818007 ] ], [ [ -98.525472856919336, 29.459351305956076 ], [ -98.525131497111389, 29.459327840929699 ], [ -98.524736238386367, 29.459273089180382 ], [ -98.523900805172147, 29.459210515716393 ], [ -98.523559445364171, 29.459163585593085 ], [ -98.523245035014725, 29.459147942213814 ], [ -98.523218085556195, 29.459132298832142 ] ], [ [ -98.525472856919336, 29.459351305956076 ], [ -98.525535738989234, 29.458827252407268 ] ], [ [ -98.523218085556195, 29.459132298832142 ], [ -98.523271984473254, 29.458600422419746 ] ], [ [ -98.523218085556195, 29.459132298832142 ], [ -98.52100822995726, 29.458936756357637 ] ], [ [ -98.527673729365432, 29.459038438491426 ], [ -98.525535738989234, 29.458827252407268 ] ], [ [ -98.527673729365432, 29.459038438491426 ], [ -98.527754577741007, 29.458498739846906 ] ], [ [ -98.52100822995726, 29.458936756357637 ], [ -98.520981280498745, 29.458897647817498 ], [ -98.520981280498745, 29.458709926614972 ], [ -98.521017213110113, 29.458397057172121 ] ], [ [ -98.525535738989234, 29.458827252407268 ], [ -98.523523512752803, 29.458639531074468 ], [ -98.523271984473254, 29.458600422419746 ] ], [ [ -98.525535738989234, 29.458827252407268 ], [ -98.525589637906293, 29.458295374395433 ] ], [ [ -98.530153079549621, 29.458764678668263 ], [ -98.5301081637854, 29.458717748338682 ], [ -98.53000036595131, 29.458717748338682 ] ], [ [ -98.53000036595131, 29.458717748338682 ], [ -98.527754577741007, 29.458498739846906 ] ], [ [ -98.53000036595131, 29.458717748338682 ], [ -98.530036298562663, 29.458342304920414 ], [ -98.5301081637854, 29.458052899670456 ], [ -98.530117146938252, 29.457693097397573 ], [ -98.530063248021193, 29.457661810183101 ] ], [ [ -98.523271984473254, 29.458600422419746 ], [ -98.523002489888015, 29.458584778953632 ], [ -98.522804860525511, 29.458537848540821 ], [ -98.522706045844245, 29.458537848540821 ] ], [ [ -98.523271984473254, 29.458600422419746 ], [ -98.52329893393177, 29.458569135485114 ], [ -98.52329893393177, 29.458404878919957 ], [ -98.523343849695991, 29.458076364991754 ] ], [ [ -98.527754577741007, 29.458498739846906 ], [ -98.526011846089816, 29.458334483167764 ], [ -98.525778284115944, 29.458326661414503 ], [ -98.525589637906293, 29.458295374395433 ] ], [ [ -98.527754577741007, 29.458498739846906 ], [ -98.527799493505213, 29.457951216548786 ] ], [ [ -98.522616214315846, 29.458506561586891 ], [ -98.522508416481756, 29.458522205065062 ], [ -98.522382652341975, 29.458498739846906 ], [ -98.52192451154707, 29.458475274623307 ], [ -98.521628067503315, 29.458428344159831 ], [ -98.521017213110113, 29.458397057172121 ] ], [ [ -98.521017213110113, 29.458397057172121 ], [ -98.521017213110113, 29.458240622088844 ], [ -98.521044162568643, 29.458201513280319 ], [ -98.521071112027172, 29.45792775119854 ], [ -98.521098061485688, 29.457872998693535 ] ], [ [ -98.525589637906293, 29.458295374395433 ], [ -98.525616587364809, 29.458201513280319 ], [ -98.525652519976177, 29.457763493594857 ] ], [ [ -98.525589637906293, 29.458295374395433 ], [ -98.525526755836381, 29.458271909124797 ], [ -98.525302177015362, 29.458264087366715 ], [ -98.523343849695991, 29.458076364991754 ] ], [ [ -98.523343849695991, 29.458076364991754 ], [ -98.521098061485688, 29.457872998693535 ] ], [ [ -98.523343849695991, 29.458076364991754 ], [ -98.523361816001668, 29.458060721444824 ], [ -98.523388765460197, 29.45774002820119 ], [ -98.523451647530081, 29.457677453791543 ] ], [ [ -98.527799493505213, 29.457951216548786 ], [ -98.525652519976177, 29.457763493594857 ] ], [ [ -98.527799493505213, 29.457951216548786 ], [ -98.527835426116567, 29.457700919199681 ], [ -98.527790510352375, 29.457669631987621 ] ], [ [ -98.521098061485688, 29.457872998693535 ], [ -98.521098061485688, 29.457732206402095 ], [ -98.521107044638526, 29.457700919199681 ], [ -98.521142977249895, 29.457677453791543 ] ], [ [ -98.525652519976177, 29.457763493594857 ], [ -98.525652519976177, 29.457732206402095 ], [ -98.525625570517647, 29.457716562802091 ], [ -98.524556575329541, 29.457661810183101 ] ] ] } }
]
}
