{
"type": "FeatureCollection",
"name": "gee_batch_8_33.41197_-112.05428",
"crs": { "type": "name", "properties": { "name": "urn:ogc:def:crs:OGC:1.3:CRS84" } },
"features": [
{ "type": "Feature", "properties": { "weight": 252.46803743153549, "nodes": "0-3" }, "geometry": { "type": "LineString", "coordinates": [ [ -112.05156830288125, 33.415794157439322 ], [ -112.051541353422735, 33.41577166282886 ], [ -112.05143355558863, 33.415344264122972 ], [ -112.051307791448863, 33.414556945211132 ], [ -112.051182027309082, 33.414272008988789 ], [ -112.051146094697728, 33.414152035562857 ], [ -112.051146094697728, 33.414047058679202 ] ] } },
{ "type": "Feature", "properties": { "weight": 250.94112549695427, "nodes": "1-6" }, "geometry": { "type": "LineString", "coordinates": [ [ -112.056077845607533, 33.415786659236481 ], [ -112.056032929843326, 33.414961852971565 ], [ -112.055898182550706, 33.414272008988789 ], [ -112.055880216245029, 33.413979573472716 ] ] } },
{ "type": "Feature", "properties": { "weight": 529.44927141309608, "nodes": "3-7" }, "geometry": { "type": "LineString", "coordinates": [ [ -112.051146094697728, 33.414047058679202 ], [ -112.055386142838756, 33.4139945701898 ], [ -112.055673603729687, 33.413987071831585 ], [ -112.055844283633661, 33.41395707839223 ] ] } },
{ "type": "Feature", "properties": { "weight": 152.07106781186548, "nodes": "3-4" }, "geometry": { "type": "LineString", "coordinates": [ [ -112.051146094697728, 33.414047058679202 ], [ -112.050229813107919, 33.414017065260566 ], [ -112.049798621771544, 33.414024563616209 ] ] } },
{ "type": "Feature", "properties": { "weight": 36.656854249492383, "nodes": "4-9" }, "geometry": { "type": "LineString", "coordinates": [ [ -112.049798621771544, 33.414024563616209 ], [ -112.049816588077221, 33.413762120783964 ] ] } },
{ "type": "Feature", "properties": { "weight": 329.72792206135784, "nodes": "5-6" }, "geometry": { "type": "LineString", "coordinates": [ [ -112.058808724071255, 33.414017065260566 ], [ -112.057092941878594, 33.4139720751132 ], [ -112.055880216245029, 33.413979573472716 ] ] } },
{ "type": "Feature", "properties": { "weight": 5.2426406871192857, "nodes": "6-7" }, "geometry": { "type": "LineString", "coordinates": [ [ -112.055880216245029, 33.413979573472716 ], [ -112.055844283633661, 33.41395707839223 ] ] } },
{ "type": "Feature", "properties": { "weight": 36.656854249492383, "nodes": "7-10" }, "geometry": { "type": "LineString", "coordinates": [ [ -112.055844283633661, 33.41395707839223 ], [ -112.055808351022307, 33.413694635356059 ] ] } },
{ "type": "Feature", "properties": { "weight": 93.242640687119291, "nodes": "8-9" }, "geometry": { "type": "LineString", "coordinates": [ [ -112.050643038138617, 33.413769619161606 ], [ -112.049816588077221, 33.413762120783964 ] ] } },
{ "type": "Feature", "properties": { "weight": 245.31370849898477, "nodes": "9-16" }, "geometry": { "type": "LineString", "coordinates": [ [ -112.049816588077221, 33.413762120783964 ], [ -112.049834554382898, 33.411947494359403 ] ] } },
{ "type": "Feature", "properties": { "weight": 875.63160108007571, "nodes": "10-22" }, "geometry": { "type": "LineString", "coordinates": [ [ -112.055808351022307, 33.413694635356059 ], [ -112.055386142838756, 33.413687136971951 ], [ -112.055107665100692, 33.413642146653658 ], [ -112.054406979179078, 33.4133797026658 ], [ -112.054173417205206, 33.413214737467527 ], [ -112.053805107938715, 33.413117257884892 ], [ -112.052430685554015, 33.4125698705041 ], [ -112.052233056191511, 33.412449894726819 ], [ -112.052143224663098, 33.412367411283803 ], [ -112.051703050173884, 33.411745033688305 ], [ -112.051478471352837, 33.411467586816983 ], [ -112.051029313710785, 33.411115153026834 ], [ -112.050768802278384, 33.410980178005076 ], [ -112.050229813107919, 33.410830205512688 ], [ -112.049753706007337, 33.410725224613934 ], [ -112.049699807090292, 33.410687731405055 ] ] } },
{ "type": "Feature", "properties": { "weight": 285.49747468305833, "nodes": "10-19" }, "geometry": { "type": "LineString", "coordinates": [ [ -112.055808351022307, 33.413694635356059 ], [ -112.055799367869454, 33.413544667550745 ], [ -112.055754452105262, 33.413342210602799 ], [ -112.055745468952409, 33.41299728286377 ], [ -112.055889199397868, 33.412082467877937 ], [ -112.055961064620604, 33.411677546693078 ], [ -112.055979030926281, 33.411662549575894 ] ] } },
{ "type": "Feature", "properties": { "weight": 55.89949493661166, "nodes": "11-12" }, "geometry": { "type": "LineString", "coordinates": [ [ -112.058395499040572, 33.412659852228295 ], [ -112.05864702732012, 33.412674849173271 ], [ -112.058853639835462, 33.412667350701106 ], [ -112.058871606141139, 33.412652353754844 ] ] } },
{ "type": "Feature", "properties": { "weight": 161.89949493661166, "nodes": "13-14" }, "geometry": { "type": "LineString", "coordinates": [ [ -112.058826690376947, 33.41215745307538 ], [ -112.05826973490079, 33.412149954558544 ], [ -112.057946341398505, 33.412119960484752 ], [ -112.057398369075202, 33.412104963443966 ] ] } },
{ "type": "Feature", "properties": { "weight": 30.071067811865476, "nodes": "15-17" }, "geometry": { "type": "LineString", "coordinates": [ [ -112.049726756548807, 33.412104963443966 ], [ -112.049681840784601, 33.411895004601099 ] ] } },
{ "type": "Feature", "properties": { "weight": 68.485281374238554, "nodes": "18-19" }, "geometry": { "type": "LineString", "coordinates": [ [ -112.056571919013805, 33.411662549575894 ], [ -112.056329373887095, 33.411685045250685 ], [ -112.055996997231958, 33.411677546693078 ], [ -112.055979030926281, 33.411662549575894 ] ] } },
{ "type": "Feature", "properties": { "weight": 154.72792206135784, "nodes": "19-24" }, "geometry": { "type": "LineString", "coordinates": [ [ -112.055979030926281, 33.411662549575894 ], [ -112.056041912996164, 33.411160144654133 ], [ -112.056023946690487, 33.410530259751049 ] ] } },
{ "type": "Feature", "properties": { "weight": 75.828427124746185, "nodes": "20-21" }, "geometry": { "type": "LineString", "coordinates": [ [ -112.058853639835462, 33.411482583967818 ], [ -112.058179903372377, 33.411482583967818 ] ] } },
{ "type": "Feature", "properties": { "weight": 316.48528137423853, "nodes": "23-24" }, "geometry": { "type": "LineString", "coordinates": [ [ -112.058835673529785, 33.410537758407713 ], [ -112.058817707224094, 33.410515262435773 ], [ -112.056023946690487, 33.410530259751049 ] ] } },
{ "type": "Feature", "properties": { "weight": 99.656854249492383, "nodes": "24-28" }, "geometry": { "type": "LineString", "coordinates": [ [ -112.056023946690487, 33.410530259751049 ], [ -112.055988014079119, 33.409795388257528 ] ] } },
{ "type": "Feature", "properties": { "weight": 121.55634918610404, "nodes": "25-26" }, "geometry": { "type": "LineString", "coordinates": [ [ -112.051559319728412, 33.410425278489768 ], [ -112.052071359440362, 33.410432777155492 ], [ -112.052134241510245, 33.410417779823391 ], [ -112.052170174121628, 33.410387785151421 ], [ -112.052188140427305, 33.410335294450547 ], [ -112.052188140427305, 33.410020349579128 ] ] } },
{ "type": "Feature", "properties": { "weight": 171.06177259678003, "nodes": "27-32" }, "geometry": { "type": "LineString", "coordinates": [ [ -112.053661377493256, 33.409810385697092 ], [ -112.053643411187565, 33.409667909916678 ], [ -112.053661377493256, 33.409412952673691 ], [ -112.053661377493256, 33.408550591746788 ] ] } },
{ "type": "Feature", "properties": { "weight": 67.071067811865476, "nodes": "28-29" }, "geometry": { "type": "LineString", "coordinates": [ [ -112.055988014079119, 33.409795388257528 ], [ -112.056571919013805, 33.409787889536773 ] ] } },
{ "type": "Feature", "properties": { "weight": 170.13556291411146, "nodes": "28-33" }, "geometry": { "type": "LineString", "coordinates": [ [ -112.055988014079119, 33.409795388257528 ], [ -112.055916148856397, 33.40854309291857 ] ] } },
{ "type": "Feature", "properties": { "weight": 44.485281374238568, "nodes": "30-31" }, "geometry": { "type": "LineString", "coordinates": [ [ -112.053059506252893, 33.409053011762545 ], [ -112.053086455711423, 33.409038014192213 ], [ -112.053436798672223, 33.409038014192213 ] ] } },
{ "type": "Feature", "properties": { "weight": 447.54705397101861, "nodes": "32-34" }, "geometry": { "type": "LineString", "coordinates": [ [ -112.053661377493256, 33.408550591746788 ], [ -112.053607478576211, 33.408565589401277 ], [ -112.052044409981832, 33.408550591746788 ], [ -112.05146050504716, 33.408573088227548 ], [ -112.049744722854498, 33.40858058705318 ], [ -112.049690823937439, 33.408535594089713 ] ] } },
{ "type": "Feature", "properties": { "weight": 254.72792206135784, "nodes": "32-33" }, "geometry": { "type": "LineString", "coordinates": [ [ -112.053661377493256, 33.408550591746788 ], [ -112.055916148856397, 33.40854309291857 ] ] } },
{ "type": "Feature", "properties": { "weight": 49.0, "nodes": "32-35" }, "geometry": { "type": "LineString", "coordinates": [ [ -112.053661377493256, 33.408550591746788 ], [ -112.053661377493256, 33.408183148402962 ] ] } },
{ "type": "Feature", "properties": { "weight": 57.313708498984752, "nodes": "33-37" }, "geometry": { "type": "LineString", "coordinates": [ [ -112.055916148856397, 33.40854309291857 ], [ -112.055907165703559, 33.408198146120888 ], [ -112.055835300480823, 33.408145654096813 ] ] } }
]
}
