{
"type": "FeatureCollection",
"name": "gee_batch_0_29.76405_-95.35378",
"crs": { "type": "name", "properties": { "name": "urn:ogc:def:crs:OGC:1.3:CRS84" } },
"features": [
{ "type": "Feature", "properties": { "name": "road_network" }, "geometry": { "type": "MultiLineString", "coordinates": [ [ [ -95.358324161411247, 29.768036942948264 ], [ -95.358153481507273, 29.767927774262873 ], [ -95.358090599437375, 29.767748425450009 ], [ -95.357991784756123, 29.767654852028869 ] ], [ [ -95.355781929157189, 29.768036942948264 ], [ -95.35615023842368, 29.767982358620436 ], [ -95.3562849857163, 29.767865392103506 ] ], [ [ -95.351667645155928, 29.768036942948264 ], [ -95.351775442990018, 29.767997954145709 ], [ -95.351910190282638, 29.767779616570966 ], [ -95.352026971269581, 29.767701638750371 ] ], [ [ -95.350418986910995, 29.768021347429066 ], [ -95.350508818439408, 29.76796676309274 ], [ -95.350544751050776, 29.767912178726672 ], [ -95.350724414107589, 29.766438389600175 ], [ -95.35074238041328, 29.766064090496489 ], [ -95.350778313024648, 29.765908132123883 ], [ -95.350859161400223, 29.765042558742945 ], [ -95.350993908692843, 29.764130189516063 ], [ -95.351173571749655, 29.763638910337104 ], [ -95.351371201112173, 29.763272398904494 ], [ -95.351478998946263, 29.76317102316515 ] ], [ [ -95.354254793174192, 29.768013549668552 ], [ -95.354281742632722, 29.767366333430139 ] ], [ [ -95.353464275724164, 29.768013549668552 ], [ -95.353455292571326, 29.767381929051318 ] ], [ [ -95.352071887033787, 29.76799015638338 ], [ -95.352080870186626, 29.767771818791637 ], [ -95.352026971269581, 29.767701638750371 ] ], [ [ -95.356734143358352, 29.767896583188048 ], [ -95.356653294982792, 29.767803009905304 ] ], [ [ -95.356419733008906, 29.767873189875552 ], [ -95.35655448030154, 29.767997954145709 ], [ -95.356725160205514, 29.768005751907438 ], [ -95.356868890650972, 29.767982358620436 ], [ -95.357183301000418, 29.767865392103506 ], [ -95.357327031445877, 29.767849796557599 ] ], [ [ -95.356419733008906, 29.767873189875552 ], [ -95.356491598231656, 29.767818605458498 ], [ -95.356653294982792, 29.767803009905304 ] ], [ [ -95.356419733008906, 29.767873189875552 ], [ -95.3562849857163, 29.767865392103506 ] ], [ [ -95.3562849857163, 29.767865392103506 ], [ -95.356141255270842, 29.767686043178966 ] ], [ [ -95.357327031445877, 29.767849796557599 ], [ -95.357461778738497, 29.767818605458498 ], [ -95.357569576572587, 29.767717234319342 ] ], [ [ -95.356653294982792, 29.767803009905304 ], [ -95.356823974886765, 29.767771818791637 ] ], [ [ -95.356823974886765, 29.767771818791637 ], [ -95.356913806415179, 29.767740627668257 ] ], [ [ -95.356913806415179, 29.767740627668257 ], [ -95.357237199917463, 29.76762366086907 ], [ -95.357380930362922, 29.767600267492849 ], [ -95.357443812432805, 29.767600267492849 ], [ -95.357569576572587, 29.767717234319342 ] ], [ [ -95.357569576572587, 29.767717234319342 ], [ -95.357991784756123, 29.767654852028869 ] ], [ [ -95.352026971269581, 29.767701638750371 ], [ -95.352071887033787, 29.767374131241031 ] ], [ [ -95.356141255270842, 29.767686043178966 ], [ -95.355728030240144, 29.767787414349684 ], [ -95.355287855750916, 29.768005751907438 ], [ -95.355108192694104, 29.768021347429066 ], [ -95.355063276929897, 29.76799015638338 ], [ -95.35504531062422, 29.767366333430139 ] ], [ [ -95.356141255270842, 29.767686043178966 ], [ -95.35617718788221, 29.76749889613275 ], [ -95.356374817244699, 29.76693745289635 ], [ -95.356401766703229, 29.766781495883365 ] ], [ [ -95.357991784756123, 29.767654852028869 ], [ -95.358072633131698, 29.767537885129546 ], [ -95.358162464660111, 29.767459907120781 ], [ -95.358162464660111, 29.767327344366578 ] ], [ [ -95.353455292571326, 29.767381929051318 ], [ -95.354003264894629, 29.767358535618644 ], [ -95.354281742632722, 29.767366333430139 ] ], [ [ -95.353455292571326, 29.767381929051318 ], [ -95.352071887033787, 29.767374131241031 ] ], [ [ -95.352071887033787, 29.767374131241031 ], [ -95.352053920728096, 29.765791163185092 ] ], [ [ -95.35504531062422, 29.767366333430139 ], [ -95.354281742632722, 29.767366333430139 ] ], [ [ -95.35504531062422, 29.767366333430139 ], [ -95.355063276929897, 29.767272759652098 ], [ -95.355189041069664, 29.767054420496748 ], [ -95.355359720973667, 29.766609942888653 ], [ -95.35542260304355, 29.766547559908652 ], [ -95.355503451419111, 29.766539762033418 ], [ -95.355710063934467, 29.766578751403511 ], [ -95.356204137340725, 29.766719113010193 ], [ -95.356338884633345, 29.766734708732127 ], [ -95.356401766703229, 29.766781495883365 ] ], [ [ -95.358162464660111, 29.767327344366578 ], [ -95.358234329882848, 29.767272759652098 ], [ -95.358261279341363, 29.767218174907878 ], [ -95.358378060328292, 29.766414995947162 ] ], [ [ -95.358162464660111, 29.767327344366578 ], [ -95.357964835297594, 29.767186983612113 ], [ -95.357165334694741, 29.766953048584295 ], [ -95.356635328677115, 29.766820485159371 ], [ -95.356482615078818, 29.766804889450789 ], [ -95.35644668246745, 29.766773698026341 ] ], [ [ -95.356401766703229, 29.766781495883365 ], [ -95.35644668246745, 29.766773698026341 ] ], [ [ -95.35644668246745, 29.766773698026341 ], [ -95.356482615078818, 29.766570953530707 ], [ -95.356814991733927, 29.765674194109735 ], [ -95.356868890650972, 29.765409063699998 ] ], [ [ -95.353113932763364, 29.76664893223143 ], [ -95.354012248047468, 29.766414995947162 ], [ -95.354236826868515, 29.766337017064352 ] ], [ [ -95.349385924334257, 29.766149867497937 ], [ -95.349736267295071, 29.766087484231438 ] ], [ [ -95.353859534449171, 29.766064090496489 ], [ -95.354344624702605, 29.765970515502062 ], [ -95.354955479095807, 29.765791163185092 ], [ -95.356320918327654, 29.765448053510145 ], [ -95.356653294982792, 29.76538566980663 ], [ -95.356823974886765, 29.76538566980663 ], [ -95.356868890650972, 29.765409063699998 ] ], [ [ -95.353859534449171, 29.766064090496489 ], [ -95.353805635532126, 29.7660251009261 ], [ -95.353652921933829, 29.766040696756075 ] ], [ [ -95.352053920728096, 29.765791163185092 ], [ -95.35149696525194, 29.765736577633593 ] ], [ [ -95.352053920728096, 29.765791163185092 ], [ -95.352017988116742, 29.763880651186529 ], [ -95.352000021811051, 29.763787074152717 ], [ -95.351946122894006, 29.763615516030399 ], [ -95.351865274518431, 29.76346735196109 ], [ -95.351685611461605, 29.763295793291316 ], [ -95.351559847321838, 29.763241206380236 ], [ -95.351478998946263, 29.76317102316515 ] ], [ [ -95.357866020616356, 29.765518235130155 ], [ -95.357695340712368, 29.765377871840954 ], [ -95.357560593419748, 29.76532328606427 ], [ -95.35714736838905, 29.76532328606427 ] ], [ [ -95.356868890650972, 29.765409063699998 ], [ -95.356949739026547, 29.765260902283067 ], [ -95.356976688485062, 29.765003568774993 ] ], [ [ -95.349188294971754, 29.765276498232012 ], [ -95.349215244430283, 29.765206316442647 ], [ -95.349430840098464, 29.764956780793419 ] ], [ [ -95.349188294971754, 29.765042558742945 ], [ -95.349251177041651, 29.764894396783994 ] ], [ [ -95.356976688485062, 29.765003568774993 ], [ -95.357021604249283, 29.764964578791862 ], [ -95.357165334694741, 29.764551284037818 ], [ -95.357228216764625, 29.764348535044565 ], [ -95.357255166223155, 29.764145785641016 ] ], [ [ -95.356976688485062, 29.765003568774993 ], [ -95.35644668246745, 29.764894396783994 ], [ -95.356033457436752, 29.764769628648612 ], [ -95.355090226388413, 29.764543486007209 ], [ -95.355054293777059, 29.764512293878678 ], [ -95.355072260082736, 29.764340736998172 ], [ -95.355269889445239, 29.763833862680546 ], [ -95.355296838903755, 29.763662304638345 ] ], [ [ -95.349251177041651, 29.764894396783994 ], [ -95.349305075958696, 29.76487880077557 ], [ -95.349556604238245, 29.764637062334522 ], [ -95.349754233600748, 29.764371929180111 ], [ -95.349790166212117, 29.764262756500834 ], [ -95.349853048282, 29.764208170116575 ] ], [ [ -95.349251177041651, 29.764894396783994 ], [ -95.349206261277445, 29.764855406758382 ], [ -95.349206261277445, 29.764777426661631 ], [ -95.349358974875742, 29.764223766229406 ] ], [ [ -95.349951862963252, 29.764395323310197 ], [ -95.349969829268943, 29.764309544806519 ], [ -95.349853048282, 29.764208170116575 ] ], [ [ -95.349358974875742, 29.764223766229406 ], [ -95.349439823251302, 29.764247160394088 ], [ -95.34974525044791, 29.764169179823909 ], [ -95.349853048282, 29.764184775942798 ] ], [ [ -95.349358974875742, 29.764223766229406 ], [ -95.349358974875742, 29.763958631981268 ], [ -95.349403890639948, 29.76386505502029 ], [ -95.349466772709832, 29.763412765143475 ] ], [ [ -95.353778686073611, 29.7642159681733 ], [ -95.353751736615081, 29.764184775942798 ], [ -95.352799522413918, 29.763896247350331 ], [ -95.352574943592884, 29.763802670331092 ], [ -95.352386297383219, 29.763685698934122 ] ], [ [ -95.349853048282, 29.764208170116575 ], [ -95.349853048282, 29.764184775942798 ] ], [ [ -95.350140509172917, 29.764184775942798 ], [ -95.35001474503315, 29.764254958447765 ], [ -95.349942879810413, 29.764254958447765 ], [ -95.349853048282, 29.764184775942798 ] ], [ [ -95.349853048282, 29.764184775942798 ], [ -95.34998779557462, 29.763904045431321 ], [ -95.350068643950195, 29.763849458851634 ] ], [ [ -95.357255166223155, 29.764145785641016 ], [ -95.3573090651402, 29.764114593388673 ], [ -95.357407879821452, 29.763880651186529 ] ], [ [ -95.357255166223155, 29.764145785641016 ], [ -95.355512434571963, 29.763685698934122 ], [ -95.355296838903755, 29.763662304638345 ] ], [ [ -95.350239323854183, 29.764005420428983 ], [ -95.350068643950195, 29.763849458851634 ] ], [ [ -95.358378060328292, 29.763997622355888 ], [ -95.358351110869776, 29.763857256936266 ], [ -95.358261279341363, 29.763662304638345 ], [ -95.358126532048743, 29.763482948189235 ] ], [ [ -95.357407879821452, 29.763880651186529 ], [ -95.357596526031116, 29.763826064594088 ], [ -95.358072633131698, 29.763490746302388 ], [ -95.358126532048743, 29.763482948189235 ] ], [ [ -95.357407879821452, 29.763880651186529 ], [ -95.35741686297429, 29.763701295128278 ], [ -95.357551610266896, 29.76312423432778 ], [ -95.357614492336808, 29.76299166583658 ], [ -95.357812121699297, 29.762742124671423 ] ], [ [ -95.353940382824746, 29.763872853103713 ], [ -95.35411106272872, 29.763358178296134 ] ], [ [ -95.350068643950195, 29.763849458851634 ], [ -95.350203391242815, 29.763779276062625 ], [ -95.350239323854183, 29.763732487509301 ] ], [ [ -95.350068643950195, 29.763849458851634 ], [ -95.349933896657575, 29.76372468941495 ], [ -95.349942879810413, 29.763584323612964 ], [ -95.350203391242815, 29.762539372017109 ], [ -95.350266273312698, 29.76214166369579 ] ], [ [ -95.350239323854183, 29.763732487509301 ], [ -95.350418986910995, 29.763685698934122 ], [ -95.35047288582804, 29.763638910337104 ], [ -95.350940009775798, 29.76295267507049 ], [ -95.351164588596816, 29.762843500844728 ] ], [ [ -95.350239323854183, 29.763732487509301 ], [ -95.350203391242815, 29.763701295128278 ], [ -95.350239323854183, 29.763529736859088 ], [ -95.350661532037705, 29.762937078759805 ], [ -95.350796279330339, 29.762726528327963 ], [ -95.350814245636016, 29.762648546574258 ] ], [ [ -95.355296838903755, 29.763662304638345 ], [ -95.355269889445239, 29.763631112235476 ], [ -95.355162091611149, 29.763592121718236 ], [ -95.354263776327031, 29.763373774541268 ], [ -95.35411106272872, 29.763358178296134 ] ], [ [ -95.358126532048743, 29.763482948189235 ], [ -95.358189414118641, 29.763412765143475 ], [ -95.358342127716938, 29.763311389546164 ], [ -95.358378060328292, 29.763233408247658 ], [ -95.358378060328292, 29.76312423432778 ], [ -95.358297211952731, 29.762983867684579 ], [ -95.357946868991917, 29.762788913687231 ], [ -95.357812121699297, 29.762742124671423 ] ], [ [ -95.349466772709832, 29.763412765143475 ], [ -95.349682368378026, 29.763295793291316 ], [ -95.349736267295071, 29.763116436186095 ], [ -95.349924913504736, 29.762071479710507 ], [ -95.34996084611609, 29.761970102756091 ] ], [ [ -95.349466772709832, 29.763412765143475 ], [ -95.349332025417212, 29.763295793291316 ], [ -95.349323042264373, 29.763116436186095 ], [ -95.349349991722903, 29.762835702681194 ], [ -95.349385924334257, 29.762781115519449 ], [ -95.349430840098464, 29.762523775642094 ] ], [ [ -95.351478998946263, 29.76317102316515 ], [ -95.351478998946263, 29.763077445468564 ] ], [ [ -95.351478998946263, 29.763077445468564 ], [ -95.352125785950832, 29.762523775642094 ], [ -95.353329528431544, 29.761751752044365 ] ], [ [ -95.351478998946263, 29.763077445468564 ], [ -95.351416116876379, 29.763030656587496 ], [ -95.351299335889436, 29.762999463987981 ], [ -95.351164588596816, 29.762843500844728 ] ], [ [ -95.351164588596816, 29.762843500844728 ], [ -95.351209504361023, 29.762656344752362 ], [ -95.351434083182056, 29.762297627931517 ] ], [ [ -95.357812121699297, 29.762742124671423 ], [ -95.357812121699297, 29.762703133808227 ] ], [ [ -95.357812121699297, 29.762703133808227 ], [ -95.357866020616356, 29.762664142929854 ], [ -95.35790195322771, 29.762586161127597 ], [ -95.358333144564099, 29.762048085037822 ], [ -95.358351110869776, 29.761884322176087 ], [ -95.357776189087943, 29.76154899738599 ], [ -95.357650424948162, 29.76152560259132 ] ], [ [ -95.357812121699297, 29.762703133808227 ], [ -95.356976688485062, 29.762219645843995 ], [ -95.356105322659474, 29.761650374766461 ] ], [ [ -95.350814245636016, 29.762648546574258 ], [ -95.350868144553061, 29.762617353855784 ], [ -95.351164588596816, 29.76211826903949 ], [ -95.3512274706667, 29.762087076155936 ] ], [ [ -95.350814245636016, 29.762648546574258 ], [ -95.350670515190544, 29.762531573829907 ] ], [ [ -95.349430840098464, 29.762523775642094 ], [ -95.349538637932554, 29.762453591924462 ], [ -95.349565587391083, 29.76235221535666 ], [ -95.349628469460981, 29.761907716887009 ], [ -95.34963745261382, 29.761673769531999 ], [ -95.34963745261382, 29.761595786958953 ], [ -95.34958355369676, 29.761541199121705 ] ], [ [ -95.349430840098464, 29.762523775642094 ], [ -95.34936795802858, 29.762476986502467 ], [ -95.349385924334257, 29.762110470819511 ], [ -95.349439823251302, 29.761634778253065 ], [ -95.349520671626877, 29.761541199121705 ] ], [ [ -95.351434083182056, 29.762297627931517 ], [ -95.351532897863308, 29.762258636895339 ], [ -95.351730527225811, 29.762040286812383 ], [ -95.351784426142856, 29.762009093904545 ] ], [ [ -95.351434083182056, 29.762297627931517 ], [ -95.351317302195113, 29.762196251205904 ], [ -95.351308319042275, 29.76211826903949 ], [ -95.3512274706667, 29.762087076155936 ] ], [ [ -95.350562717356453, 29.762180654777477 ], [ -95.350517801592247, 29.762110470819511 ], [ -95.350535767897938, 29.761860927459708 ], [ -95.350463902675202, 29.761798541522651 ] ], [ [ -95.350266273312698, 29.76214166369579 ], [ -95.350293222771228, 29.762055883262665 ] ], [ [ -95.350266273312698, 29.76214166369579 ], [ -95.350212374395653, 29.762094874377727 ], [ -95.350077627103033, 29.762079277933523 ], [ -95.35001474503315, 29.762016892132422 ] ], [ [ -95.355754979698659, 29.76213386547763 ], [ -95.355808878615704, 29.762032488586335 ], [ -95.356024474283913, 29.761775146786238 ], [ -95.356051423742429, 29.76169716429208 ], [ -95.356105322659474, 29.761650374766461 ] ], [ [ -95.3512274706667, 29.762087076155936 ], [ -95.351263403278068, 29.761938909826405 ], [ -95.351407133723541, 29.761728357297024 ] ], [ [ -95.351919173435491, 29.762071479710507 ], [ -95.351865274518431, 29.762079277933523 ], [ -95.351784426142856, 29.762009093904545 ] ], [ [ -95.350293222771228, 29.762055883262665 ], [ -95.350347121688273, 29.761829734496033 ], [ -95.350374071146788, 29.761798541522651 ] ], [ [ -95.350293222771228, 29.762055883262665 ], [ -95.350239323854183, 29.762016892132422 ], [ -95.350167458631446, 29.762016892132422 ] ], [ [ -95.35001474503315, 29.762016892132422 ], [ -95.34996084611609, 29.761970102756091 ] ], [ [ -95.351784426142856, 29.762009093904545 ], [ -95.351865274518431, 29.7618765239379 ], [ -95.352458162605942, 29.761385233708555 ], [ -95.352718674038343, 29.761127890246112 ], [ -95.352826471872433, 29.761003117420358 ], [ -95.352889353942331, 29.760886142755105 ] ], [ [ -95.34996084611609, 29.761970102756091 ], [ -95.34998779557462, 29.761720559046701 ], [ -95.35009559340871, 29.761307250910946 ], [ -95.350167458631446, 29.760862747805668 ], [ -95.350311189076905, 29.760355855893266 ], [ -95.35036508799395, 29.760192090265836 ], [ -95.350562717356453, 29.760067316274824 ] ], [ [ -95.351092723374094, 29.761806339766906 ], [ -95.351371201112173, 29.761346242317337 ], [ -95.351559847321838, 29.761283856059826 ] ], [ [ -95.350463902675202, 29.761798541522651 ], [ -95.350374071146788, 29.761798541522651 ] ], [ [ -95.350463902675202, 29.761798541522651 ], [ -95.350517801592247, 29.761759550292265 ], [ -95.350571700509292, 29.761595786958953 ] ], [ [ -95.350374071146788, 29.761798541522651 ], [ -95.350320172229743, 29.761743953795854 ], [ -95.350320172229743, 29.761689366039331 ], [ -95.350347121688273, 29.761580190437062 ], [ -95.350401020605318, 29.761486611254714 ], [ -95.350445936369525, 29.761283856059826 ] ], [ [ -95.357488728197012, 29.761782945032312 ], [ -95.357650424948162, 29.76152560259132 ] ], [ [ -95.353329528431544, 29.761751752044365 ], [ -95.353365461042912, 29.761775146786238 ], [ -95.353518174641209, 29.761751752044365 ], [ -95.353814618684979, 29.761650374766461 ], [ -95.354614119287831, 29.761502207791168 ], [ -95.354982428554322, 29.761354040596796 ], [ -95.355251923139562, 29.761174680015717 ] ], [ [ -95.353329528431544, 29.761751752044365 ], [ -95.353383427348589, 29.761626979995452 ], [ -95.353634955628152, 29.761447619902945 ], [ -95.35367088823952, 29.761346242317337 ] ], [ [ -95.351407133723541, 29.761728357297024 ], [ -95.351541881016146, 29.761439821630773 ], [ -95.351559847321838, 29.761283856059826 ] ], [ [ -95.356105322659474, 29.761650374766461 ], [ -95.35652753084301, 29.761135688542566 ], [ -95.356671261288469, 29.760917336012522 ] ], [ [ -95.356105322659474, 29.761650374766461 ], [ -95.355251923139562, 29.761174680015717 ] ], [ [ -95.350571700509292, 29.761595786958953 ], [ -95.35063458257919, 29.761564593912738 ], [ -95.350751363566118, 29.761229268052645 ], [ -95.350778313024648, 29.761042108945102 ], [ -95.350733397260441, 29.76099531911359 ] ], [ [ -95.34958355369676, 29.761541199121705 ], [ -95.349520671626877, 29.761541199121705 ] ], [ [ -95.349520671626877, 29.761541199121705 ], [ -95.349421856945625, 29.761408628536 ], [ -95.34936795802858, 29.761283856059826 ], [ -95.349484739015509, 29.761088898754757 ], [ -95.349601520002437, 29.76055861296593 ], [ -95.349790166212117, 29.760114106539664 ], [ -95.349888980893368, 29.760067316274824 ], [ -95.349969829268943, 29.760067316274824 ], [ -95.350023728185988, 29.760106308163699 ] ], [ [ -95.34958355369676, 29.761541199121705 ], [ -95.349700334683703, 29.76145541817451 ], [ -95.349835081976323, 29.760667789681268 ], [ -95.350023728185988, 29.760106308163699 ] ], [ [ -95.357650424948162, 29.76152560259132 ], [ -95.357587542878278, 29.761447619902945 ], [ -95.356877873803811, 29.761034310641364 ], [ -95.356716177052675, 29.760917336012522 ] ], [ [ -95.35367088823952, 29.761346242317337 ], [ -95.353805635532126, 29.761315049193438 ], [ -95.353868517602024, 29.761268259489384 ], [ -95.354389540466812, 29.760636596346167 ] ], [ [ -95.35367088823952, 29.761346242317337 ], [ -95.353616989322475, 29.761283856059826 ], [ -95.352943252859376, 29.760886142755105 ] ], [ [ -95.357641441795323, 29.761322847475327 ], [ -95.358153481507273, 29.760683386345182 ] ], [ [ -95.351559847321838, 29.761283856059826 ], [ -95.351712560920134, 29.761026512337029 ], [ -95.351982055505374, 29.760449436131626 ], [ -95.352035954422419, 29.760387049315764 ] ], [ [ -95.350598649967822, 29.761213671473698 ], [ -95.35063458257919, 29.761065503852667 ], [ -95.350733397260441, 29.76099531911359 ] ], [ [ -95.355251923139562, 29.761174680015717 ], [ -95.355305822056621, 29.761135688542566 ], [ -95.355359720973667, 29.761026512337029 ], [ -95.355790912310027, 29.760496226218027 ], [ -95.355835828074234, 29.760410444376259 ] ], [ [ -95.355251923139562, 29.761174680015717 ], [ -95.354389540466812, 29.760636596346167 ] ], [ [ -95.350454919522363, 29.761182478308527 ], [ -95.350454919522363, 29.760979722498227 ], [ -95.350535767897938, 29.760613201338469 ], [ -95.350589666814983, 29.760496226218027 ], [ -95.350598649967822, 29.760371452605728 ] ], [ [ -95.349197278124606, 29.761018714032076 ], [ -95.349206261277445, 29.760964125880445 ], [ -95.349305075958696, 29.760847151169674 ] ], [ [ -95.350733397260441, 29.76099531911359 ], [ -95.350904077164429, 29.760394847669868 ], [ -95.351056790762726, 29.760114106539664 ], [ -95.351281369583745, 29.760059517895225 ], [ -95.351622729391721, 29.760106308163699 ], [ -95.352035954422419, 29.760387049315764 ] ], [ [ -95.356716177052675, 29.760917336012522 ], [ -95.356671261288469, 29.760917336012522 ] ], [ [ -95.356671261288469, 29.760917336012522 ], [ -95.356581429760055, 29.760839352850766 ], [ -95.355889726991293, 29.760410444376259 ] ], [ [ -95.356716177052675, 29.760917336012522 ], [ -95.357048553707813, 29.760535217940021 ], [ -95.357273132528832, 29.76018429189595 ] ], [ [ -95.358378060328292, 29.76090173938503 ], [ -95.358252296188525, 29.760667789681268 ] ], [ [ -95.352943252859376, 29.760886142755105 ], [ -95.352889353942331, 29.760886142755105 ] ], [ [ -95.352889353942331, 29.760886142755105 ], [ -95.352844438178124, 29.760839352850766 ], [ -95.352089853339464, 29.760387049315764 ] ], [ [ -95.352943252859376, 29.760886142755105 ], [ -95.35297918547073, 29.760854949487971 ], [ -95.353024101234936, 29.760745772976545 ], [ -95.353473258877003, 29.760145300037411 ] ], [ [ -95.358153481507273, 29.760683386345182 ], [ -95.358252296188525, 29.760667789681268 ] ], [ [ -95.358153481507273, 29.760683386345182 ], [ -95.358126532048743, 29.760652193014934 ], [ -95.358018734214653, 29.76062099967498 ], [ -95.357434829279967, 29.760231082106163 ], [ -95.357273132528832, 29.76018429189595 ] ], [ [ -95.358252296188525, 29.760667789681268 ], [ -95.358378060328292, 29.760231082106163 ] ], [ [ -95.354389540466812, 29.760636596346167 ], [ -95.354443439383857, 29.760597604663634 ], [ -95.354479371995225, 29.760519621253035 ], [ -95.354703950816244, 29.760254477203077 ], [ -95.354793782344672, 29.760114106539664 ], [ -95.354874630720232, 29.760075114653816 ] ], [ [ -95.354389540466812, 29.760636596346167 ], [ -95.353643938780991, 29.760192090265836 ], [ -95.353536140946886, 29.760145300037411 ], [ -95.353473258877003, 29.760145300037411 ] ], [ [ -95.355889726991293, 29.760410444376259 ], [ -95.355835828074234, 29.760410444376259 ] ], [ [ -95.355835828074234, 29.760410444376259 ], [ -95.355790912310027, 29.760363654249797 ], [ -95.355332771515137, 29.760106308163699 ], [ -95.355117175846942, 29.760067316274824 ] ], [ [ -95.355889726991293, 29.760410444376259 ], [ -95.356051423742429, 29.760137501663884 ], [ -95.356087356353797, 29.760106308163699 ], [ -95.356222103646402, 29.760067316274824 ] ], [ [ -95.352089853339464, 29.760387049315764 ], [ -95.352170701715039, 29.760223283739315 ], [ -95.3522515500906, 29.760121904915007 ], [ -95.352377314230381, 29.760067316274824 ] ], [ [ -95.352089853339464, 29.760387049315764 ], [ -95.352035954422419, 29.760387049315764 ] ], [ [ -95.357273132528832, 29.76018429189595 ], [ -95.357255166223155, 29.760137501663884 ], [ -95.35720126730611, 29.760106308163699 ], [ -95.356958722179385, 29.760059517895225 ] ], [ [ -95.353473258877003, 29.760145300037411 ], [ -95.353401393654281, 29.7600829130322 ], [ -95.353275629514499, 29.760059517895225 ] ] ] } }
]
}
