{
"type": "FeatureCollection",
"name": "gee_batch_0_33.44601_-112.09195",
"crs": { "type": "name", "properties": { "name": "urn:ogc:def:crs:OGC:1.3:CRS84" } },
"features": [
{ "type": "Feature", "properties": { "weight": 79.242640687119277, "nodes": "0-5" }, "geometry": { "type": "LineString", "coordinates": [ [ -112.089270932314449, 33.449828340220833 ], [ -112.089252966008758, 33.449813349694423 ], [ -112.089243982855919, 33.449243707770528 ] ] } },
{ "type": "Feature", "properties": { "weight": 77.064495102245971, "nodes": "1-6" }, "geometry": { "type": "LineString", "coordinates": [ [ -112.088130071903606, 33.449813349694423 ], [ -112.088121088750768, 33.449243707770528 ] ] } },
{ "type": "Feature", "properties": { "weight": 79.549776476484553, "nodes": "2-8" }, "geometry": { "type": "LineString", "coordinates": [ [ -112.095819650735663, 33.449798359165413 ], [ -112.095828633888502, 33.449228717143058 ] ] } },
{ "type": "Feature", "properties": { "weight": 75.828427124746185, "nodes": "3-7" }, "geometry": { "type": "LineString", "coordinates": [ [ -112.091426888996324, 33.449790863899928 ], [ -112.091426888996324, 33.449228717143058 ] ] } },
{ "type": "Feature", "properties": { "weight": 60.892922226992169, "nodes": "4-7" }, "geometry": { "type": "LineString", "coordinates": [ [ -112.091947911861112, 33.449258698395404 ], [ -112.091920962402583, 33.449228717143058 ], [ -112.091426888996324, 33.449228717143058 ] ] } },
{ "type": "Feature", "properties": { "weight": 246.31370849898477, "nodes": "5-7" }, "geometry": { "type": "LineString", "coordinates": [ [ -112.089243982855919, 33.449243707770528 ], [ -112.091426888996324, 33.449228717143058 ] ] } },
{ "type": "Feature", "properties": { "weight": 126.65685424949237, "nodes": "5-6" }, "geometry": { "type": "LineString", "coordinates": [ [ -112.089243982855919, 33.449243707770528 ], [ -112.088121088750768, 33.449243707770528 ] ] } },
{ "type": "Feature", "properties": { "weight": 142.41421356237311, "nodes": "5-13" }, "geometry": { "type": "LineString", "coordinates": [ [ -112.089243982855919, 33.449243707770528 ], [ -112.089234999703081, 33.448179366781702 ] ] } },
{ "type": "Feature", "properties": { "weight": 88.727922061357859, "nodes": "6-10" }, "geometry": { "type": "LineString", "coordinates": [ [ -112.088121088750768, 33.449243707770528 ], [ -112.087429385981991, 33.449258698395404 ], [ -112.087366503912108, 33.449198735880344 ] ] } },
{ "type": "Feature", "properties": { "weight": 144.30713578936525, "nodes": "6-14" }, "geometry": { "type": "LineString", "coordinates": [ [ -112.088121088750768, 33.449243707770528 ], [ -112.088121088750768, 33.448179366781702 ] ] } },
{ "type": "Feature", "properties": { "weight": 145.07106781186548, "nodes": "7-15" }, "geometry": { "type": "LineString", "coordinates": [ [ -112.091426888996324, 33.449228717143058 ], [ -112.091417905843485, 33.448156880563587 ] ] } },
{ "type": "Feature", "properties": { "weight": 74.242640687119291, "nodes": "8-9" }, "geometry": { "type": "LineString", "coordinates": [ [ -112.095828633888502, 33.449228717143058 ], [ -112.09648440404591, 33.449221221828353 ] ] } },
{ "type": "Feature", "properties": { "weight": 424.08383108600219, "nodes": "8-11" }, "geometry": { "type": "LineString", "coordinates": [ [ -112.095828633888502, 33.449228717143058 ], [ -112.094364379975403, 33.449228717143058 ], [ -112.094023020167427, 33.449168754607278 ], [ -112.093807424499246, 33.449078810725865 ], [ -112.093591828831052, 33.448943894728863 ], [ -112.092963008132173, 33.44838923786962 ], [ -112.092792328228185, 33.448291797784812 ], [ -112.092558766254314, 33.448201852993982 ] ] } },
{ "type": "Feature", "properties": { "weight": 148.65685424949237, "nodes": "8-18" }, "geometry": { "type": "LineString", "coordinates": [ [ -112.095828633888502, 33.449228717143058 ], [ -112.095837617041354, 33.448246825401057 ], [ -112.09586456649987, 33.448126898930376 ] ] } },
{ "type": "Feature", "properties": { "weight": 130.06177259678003, "nodes": "11-15" }, "geometry": { "type": "LineString", "coordinates": [ [ -112.092558766254314, 33.448201852993982 ], [ -112.091876046638376, 33.448149385156256 ], [ -112.091417905843485, 33.448156880563587 ] ] } },
{ "type": "Feature", "properties": { "weight": 219.20815280171308, "nodes": "11-26" }, "geometry": { "type": "LineString", "coordinates": [ [ -112.092558766254314, 33.448201852993982 ], [ -112.092594698865668, 33.448096917286797 ], [ -112.092837243992392, 33.448014467713506 ], [ -112.093070805966263, 33.447902036350904 ], [ -112.093313351092974, 33.447699659530947 ], [ -112.093537929914007, 33.447347372829071 ], [ -112.093564879372522, 33.447242436088104 ], [ -112.093573862525375, 33.447032562225303 ] ] } },
{ "type": "Feature", "properties": { "weight": 76.656854249492383, "nodes": "12-14" }, "geometry": { "type": "LineString", "coordinates": [ [ -112.087447352287668, 33.448194357590538 ], [ -112.088121088750768, 33.448179366781702 ] ] } },
{ "type": "Feature", "properties": { "weight": 126.65685424949238, "nodes": "13-17" }, "geometry": { "type": "LineString", "coordinates": [ [ -112.089234999703081, 33.448179366781702 ], [ -112.090357893808232, 33.448164375970272 ] ] } },
{ "type": "Feature", "properties": { "weight": 120.41421356237309, "nodes": "13-16" }, "geometry": { "type": "LineString", "coordinates": [ [ -112.089234999703081, 33.448179366781702 ], [ -112.088157021362136, 33.44817187137631 ] ] } },
{ "type": "Feature", "properties": { "weight": 4.2360679774997898, "nodes": "14-16" }, "geometry": { "type": "LineString", "coordinates": [ [ -112.088121088750768, 33.448179366781702 ], [ -112.088157021362136, 33.44817187137631 ] ] } },
{ "type": "Feature", "properties": { "weight": 119.06449510224598, "nodes": "15-17" }, "geometry": { "type": "LineString", "coordinates": [ [ -112.091417905843485, 33.448156880563587 ], [ -112.090357893808232, 33.448164375970272 ] ] } },
{ "type": "Feature", "properties": { "weight": 147.82842712474618, "nodes": "15-25" }, "geometry": { "type": "LineString", "coordinates": [ [ -112.091417905843485, 33.448156880563587 ], [ -112.091417905843485, 33.447055048734889 ] ] } },
{ "type": "Feature", "properties": { "weight": 149.81913190966077, "nodes": "16-22" }, "geometry": { "type": "LineString", "coordinates": [ [ -112.088157021362136, 33.44817187137631 ], [ -112.088112105597929, 33.447062544236786 ] ] } },
{ "type": "Feature", "properties": { "weight": 148.89292222699217, "nodes": "17-23" }, "geometry": { "type": "LineString", "coordinates": [ [ -112.090357893808232, 33.448164375970272 ], [ -112.090348910655393, 33.447130003724759 ], [ -112.090312978044011, 33.447062544236786 ] ] } },
{ "type": "Feature", "properties": { "weight": 88.792417163603844, "nodes": "18-19" }, "geometry": { "type": "LineString", "coordinates": [ [ -112.09586456649987, 33.448126898930376 ], [ -112.095963381181122, 33.448141889748278 ], [ -112.096331690447613, 33.448134394339654 ], [ -112.096502370351601, 33.448164375970272 ], [ -112.096538302962955, 33.448126898930376 ], [ -112.096547286115793, 33.448066935632852 ] ] } },
{ "type": "Feature", "properties": { "weight": 18.47213595499958, "nodes": "18-20" }, "geometry": { "type": "LineString", "coordinates": [ [ -112.09586456649987, 33.448126898930376 ], [ -112.09586456649987, 33.447991981452645 ] ] } },
{ "type": "Feature", "properties": { "weight": 134.89019972152624, "nodes": "20-27" }, "geometry": { "type": "LineString", "coordinates": [ [ -112.09586456649987, 33.447991981452645 ], [ -112.095873549652708, 33.447909531779608 ], [ -112.095837617041354, 33.447654686840167 ], [ -112.095810667582825, 33.44701007570989 ] ] } },
{ "type": "Feature", "properties": { "weight": 124.81913190966077, "nodes": "22-24" }, "geometry": { "type": "LineString", "coordinates": [ [ -112.089217033397404, 33.447070039738051 ], [ -112.088237869737696, 33.447077535238655 ], [ -112.088112105597929, 33.447062544236786 ] ] } },
{ "type": "Feature", "properties": { "weight": 88.384776310850242, "nodes": "22-30" }, "geometry": { "type": "LineString", "coordinates": [ [ -112.088112105597929, 33.447062544236786 ], [ -112.087465318593345, 33.447077535238655 ], [ -112.087366503912108, 33.446995084696361 ] ] } },
{ "type": "Feature", "properties": { "weight": 73.064495102245971, "nodes": "22-32" }, "geometry": { "type": "LineString", "coordinates": [ [ -112.088112105597929, 33.447062544236786 ], [ -112.088103122445091, 33.446522866444347 ] ] } },
{ "type": "Feature", "properties": { "weight": 123.89292222699217, "nodes": "23-24" }, "geometry": { "type": "LineString", "coordinates": [ [ -112.089217033397404, 33.447070039738051 ], [ -112.090312978044011, 33.447062544236786 ] ] } },
{ "type": "Feature", "properties": { "weight": 125.07106781186548, "nodes": "23-25" }, "geometry": { "type": "LineString", "coordinates": [ [ -112.090312978044011, 33.447062544236786 ], [ -112.090474674795161, 33.447047553232345 ], [ -112.091417905843485, 33.447055048734889 ] ] } },
{ "type": "Feature", "properties": { "weight": 145.72134935173835, "nodes": "24-37" }, "geometry": { "type": "LineString", "coordinates": [ [ -112.089217033397404, 33.447070039738051 ], [ -112.089226016550242, 33.446327981971876 ], [ -112.089208050244551, 33.445998176482526 ] ] } },
{ "type": "Feature", "properties": { "weight": 239.72134935173835, "nodes": "25-29" }, "geometry": { "type": "LineString", "coordinates": [ [ -112.091417905843485, 33.447055048734889 ], [ -112.093340300551503, 33.447040057729147 ], [ -112.093546913066845, 33.447017571215675 ] ] } },
{ "type": "Feature", "properties": { "weight": 141.65685424949237, "nodes": "25-34" }, "geometry": { "type": "LineString", "coordinates": [ [ -112.091417905843485, 33.447055048734889 ], [ -112.091435872149162, 33.44648538869518 ], [ -112.091417905843485, 33.446005672075756 ] ] } },
{ "type": "Feature", "properties": { "weight": 252.47598615915314, "nodes": "26-27" }, "geometry": { "type": "LineString", "coordinates": [ [ -112.093573862525375, 33.447032562225303 ], [ -112.094768621853248, 33.447032562225303 ], [ -112.095810667582825, 33.44701007570989 ] ] } },
{ "type": "Feature", "properties": { "weight": 3.6502815398728847, "nodes": "26-29" }, "geometry": { "type": "LineString", "coordinates": [ [ -112.093573862525375, 33.447032562225303 ], [ -112.093546913066845, 33.447017571215675 ] ] } },
{ "type": "Feature", "properties": { "weight": 75.414213562373092, "nodes": "27-28" }, "geometry": { "type": "LineString", "coordinates": [ [ -112.09648440404591, 33.447017571215675 ], [ -112.095810667582825, 33.44701007570989 ] ] } },
{ "type": "Feature", "properties": { "weight": 143.71205413665294, "nodes": "27-41" }, "geometry": { "type": "LineString", "coordinates": [ [ -112.095810667582825, 33.44701007570989 ], [ -112.095828633888502, 33.446972598171236 ], [ -112.095828633888502, 33.446567839721965 ], [ -112.095801684429986, 33.446005672075756 ], [ -112.095774734971457, 33.445960698506667 ] ] } },
{ "type": "Feature", "properties": { "weight": 133.65685424949237, "nodes": "29-33" }, "geometry": { "type": "LineString", "coordinates": [ [ -112.093546913066845, 33.447017571215675 ], [ -112.093546913066845, 33.446193061695986 ], [ -112.093564879372522, 33.446028158851554 ] ] } },
{ "type": "Feature", "properties": { "weight": 26.414213562373096, "nodes": "31-32" }, "geometry": { "type": "LineString", "coordinates": [ [ -112.087869560471205, 33.446530361992238 ], [ -112.088103122445091, 33.446522866444347 ] ] } },
{ "type": "Feature", "properties": { "weight": 69.0, "nodes": "32-35" }, "geometry": { "type": "LineString", "coordinates": [ [ -112.088103122445091, 33.446522866444347 ], [ -112.088103122445091, 33.446005672075756 ] ] } },
{ "type": "Feature", "properties": { "weight": 5.0644951022459797, "nodes": "33-36" }, "geometry": { "type": "LineString", "coordinates": [ [ -112.093564879372522, 33.446028158851554 ], [ -112.09360081198389, 33.446005672075756 ] ] } },
{ "type": "Feature", "properties": { "weight": 242.72792206135787, "nodes": "33-34" }, "geometry": { "type": "LineString", "coordinates": [ [ -112.093564879372522, 33.446028158851554 ], [ -112.093501997302639, 33.445998176482526 ], [ -112.092594698865668, 33.446005672075756 ], [ -112.092298254821927, 33.445990680888649 ], [ -112.091417905843485, 33.446005672075756 ] ] } },
{ "type": "Feature", "properties": { "weight": 3.6502815398728847, "nodes": "34-39" }, "geometry": { "type": "LineString", "coordinates": [ [ -112.091417905843485, 33.446005672075756 ], [ -112.091399939537794, 33.445983185294125 ] ] } },
{ "type": "Feature", "properties": { "weight": 76.0, "nodes": "35-38" }, "geometry": { "type": "LineString", "coordinates": [ [ -112.088103122445091, 33.446005672075756 ], [ -112.087420402829153, 33.446005672075756 ] ] } },
{ "type": "Feature", "properties": { "weight": 124.81913190966077, "nodes": "35-37" }, "geometry": { "type": "LineString", "coordinates": [ [ -112.089208050244551, 33.445998176482526 ], [ -112.088103122445091, 33.446005672075756 ] ] } },
{ "type": "Feature", "properties": { "weight": 182.78969465813788, "nodes": "35-43" }, "geometry": { "type": "LineString", "coordinates": [ [ -112.088103122445091, 33.446005672075756 ], [ -112.088103122445091, 33.445503465897303 ], [ -112.088076172986561, 33.445278596516779 ], [ -112.087977358305295, 33.445226126910775 ], [ -112.087447352287668, 33.445226126910775 ], [ -112.087402436523462, 33.445218631250178 ], [ -112.087366503912108, 33.445188648601338 ] ] } },
{ "type": "Feature", "properties": { "weight": 244.48528137423858, "nodes": "36-41" }, "geometry": { "type": "LineString", "coordinates": [ [ -112.09360081198389, 33.446005672075756 ], [ -112.094544043032215, 33.445975689698955 ], [ -112.09575676866578, 33.445975689698955 ], [ -112.095774734971457, 33.445960698506667 ] ] } },
{ "type": "Feature", "properties": { "weight": 135.89949493661169, "nodes": "36-44" }, "geometry": { "type": "LineString", "coordinates": [ [ -112.09360081198389, 33.446005672075756 ], [ -112.093573862525375, 33.445983185294125 ], [ -112.093555896219684, 33.44583327326761 ], [ -112.093555896219684, 33.445008752490665 ] ] } },
{ "type": "Feature", "properties": { "weight": 4.2360679774997898, "nodes": "37-40" }, "geometry": { "type": "LineString", "coordinates": [ [ -112.089208050244551, 33.445998176482526 ], [ -112.089243982855919, 33.445990680888649 ] ] } },
{ "type": "Feature", "properties": { "weight": 241.24264068711929, "nodes": "39-40" }, "geometry": { "type": "LineString", "coordinates": [ [ -112.089243982855919, 33.445990680888649 ], [ -112.091399939537794, 33.445983185294125 ] ] } },
{ "type": "Feature", "properties": { "weight": 132.07106781186548, "nodes": "39-45" }, "geometry": { "type": "LineString", "coordinates": [ [ -112.091399939537794, 33.445983185294125 ], [ -112.091408922690633, 33.445008752490665 ] ] } },
{ "type": "Feature", "properties": { "weight": 253.45584412271575, "nodes": "40-49" }, "geometry": { "type": "LineString", "coordinates": [ [ -112.089243982855919, 33.445990680888649 ], [ -112.089243982855919, 33.444431583283645 ], [ -112.089217033397404, 33.444364121697113 ], [ -112.089217033397404, 33.444266677090589 ], [ -112.089136185021815, 33.444146745116917 ] ] } },
{ "type": "Feature", "properties": { "weight": 80.414213562373092, "nodes": "41-42" }, "geometry": { "type": "LineString", "coordinates": [ [ -112.095774734971457, 33.445960698506667 ], [ -112.096493387198748, 33.44595320290955 ] ] } },
{ "type": "Feature", "properties": { "weight": 262.21320343559643, "nodes": "41-55" }, "geometry": { "type": "LineString", "coordinates": [ [ -112.095774734971457, 33.445960698506667 ], [ -112.095801684429986, 33.445863255693645 ], [ -112.095774734971457, 33.445555935335548 ], [ -112.095765751818618, 33.444041804503939 ] ] } },
{ "type": "Feature", "properties": { "weight": 81.656854249492383, "nodes": "44-46" }, "geometry": { "type": "LineString", "coordinates": [ [ -112.094274548446975, 33.445008752490665 ], [ -112.09413980115437, 33.444993761131265 ], [ -112.093555896219684, 33.445008752490665 ] ] } },
{ "type": "Feature", "properties": { "weight": 240.65685424949237, "nodes": "44-45" }, "geometry": { "type": "LineString", "coordinates": [ [ -112.093555896219684, 33.445008752490665 ], [ -112.091408922690633, 33.445008752490665 ] ] } },
{ "type": "Feature", "properties": { "weight": 115.65685424949238, "nodes": "45-48" }, "geometry": { "type": "LineString", "coordinates": [ [ -112.091408922690633, 33.445008752490665 ], [ -112.091399939537794, 33.444364121697113 ], [ -112.091390956384956, 33.444184223876505 ], [ -112.091372990079279, 33.444154240870134 ] ] } },
{ "type": "Feature", "properties": { "weight": 23.556349186104047, "nodes": "47-52" }, "geometry": { "type": "LineString", "coordinates": [ [ -112.088336684418948, 33.444214206872516 ], [ -112.088408549641684, 33.444214206872516 ], [ -112.088507364322936, 33.444131753608552 ] ] } },
{ "type": "Feature", "properties": { "weight": 231.55634918610406, "nodes": "48-50" }, "geometry": { "type": "LineString", "coordinates": [ [ -112.091372990079279, 33.444154240870134 ], [ -112.091058579729832, 33.444169232374612 ], [ -112.089396696454216, 33.444176728125882 ], [ -112.089333814384332, 33.444146745116917 ] ] } },
{ "type": "Feature", "properties": { "weight": 5.2360679774997898, "nodes": "48-53" }, "geometry": { "type": "LineString", "coordinates": [ [ -112.091372990079279, 33.444154240870134 ], [ -112.091381973232117, 33.444116762097593 ] ] } },
{ "type": "Feature", "properties": { "weight": 3.4142135623730949, "nodes": "49-51" }, "geometry": { "type": "LineString", "coordinates": [ [ -112.089136185021815, 33.444146745116917 ], [ -112.089163134480344, 33.444139249363062 ] ] } },
{ "type": "Feature", "properties": { "weight": 70.828427124746185, "nodes": "49-52" }, "geometry": { "type": "LineString", "coordinates": [ [ -112.089136185021815, 33.444146745116917 ], [ -112.088507364322936, 33.444131753608552 ] ] } },
{ "type": "Feature", "properties": { "weight": 20.242640687119287, "nodes": "50-51" }, "geometry": { "type": "LineString", "coordinates": [ [ -112.089333814384332, 33.444146745116917 ], [ -112.089163134480344, 33.444139249363062 ] ] } },
{ "type": "Feature", "properties": { "weight": 19.307135789365262, "nodes": "51-58" }, "geometry": { "type": "LineString", "coordinates": [ [ -112.089163134480344, 33.444139249363062 ], [ -112.089217033397404, 33.444086779067902 ], [ -112.089217033397404, 33.444011821448342 ] ] } },
{ "type": "Feature", "properties": { "weight": 152.66247484869263, "nodes": "52-65" }, "geometry": { "type": "LineString", "coordinates": [ [ -112.088507364322936, 33.444131753608552 ], [ -112.088444482253053, 33.444079283308866 ], [ -112.088192953973504, 33.444079283308866 ], [ -112.088112105597929, 33.444049300266222 ], [ -112.087734813178599, 33.444041804503939 ], [ -112.087519217510405, 33.444019317213211 ], [ -112.087357520759255, 33.443809435552012 ] ] } },
{ "type": "Feature", "properties": { "weight": 497.94112549695433, "nodes": "53-55" }, "geometry": { "type": "LineString", "coordinates": [ [ -112.091381973232117, 33.444116762097593 ], [ -112.091642484664519, 33.444101770584048 ], [ -112.091938928708274, 33.444116762097593 ], [ -112.092936058673644, 33.444116762097593 ], [ -112.09311572173047, 33.444101770584048 ], [ -112.094023020167427, 33.444116762097593 ], [ -112.094067935931633, 33.444094274826305 ], [ -112.09438234628108, 33.444056796027859 ], [ -112.09500218382712, 33.444079283308866 ], [ -112.095460324622024, 33.444071787549177 ], [ -112.095765751818618, 33.444041804503939 ] ] } },
{ "type": "Feature", "properties": { "weight": 161.89949493661169, "nodes": "53-70" }, "geometry": { "type": "LineString", "coordinates": [ [ -112.091381973232117, 33.444116762097593 ], [ -112.091328074315072, 33.443674511358807 ], [ -112.091319091162234, 33.442924928686288 ] ] } },
{ "type": "Feature", "properties": { "weight": 5.0644951022459797, "nodes": "55-56" }, "geometry": { "type": "LineString", "coordinates": [ [ -112.095765751818618, 33.444041804503939 ], [ -112.095792701277148, 33.444011821448342 ] ] } },
{ "type": "Feature", "properties": { "weight": 76.828427124746185, "nodes": "56-57" }, "geometry": { "type": "LineString", "coordinates": [ [ -112.096475420893071, 33.444011821448342 ], [ -112.095792701277148, 33.444011821448342 ] ] } },
{ "type": "Feature", "properties": { "weight": 94.313708498984766, "nodes": "56-69" }, "geometry": { "type": "LineString", "coordinates": [ [ -112.095792701277148, 33.444011821448342 ], [ -112.095765751818618, 33.44392936799202 ], [ -112.09575676866578, 33.443479620487025 ], [ -112.095774734971457, 33.443329704133873 ] ] } },
{ "type": "Feature", "properties": { "weight": 51.899494936611667, "nodes": "59-62" }, "geometry": { "type": "LineString", "coordinates": [ [ -112.089639241580926, 33.444004325682826 ], [ -112.089585342663881, 33.443951855306061 ], [ -112.089217033397404, 33.443936863764016 ] ] } },
{ "type": "Feature", "properties": { "weight": 63.142135623730951, "nodes": "61-63" }, "geometry": { "type": "LineString", "coordinates": [ [ -112.09060942208778, 33.443944359535365 ], [ -112.090555523170735, 33.44392936799202 ], [ -112.090465691642322, 33.443944359535365 ], [ -112.090079416070139, 33.44392936799202 ] ] } },
{ "type": "Feature", "properties": { "weight": 18.414213562373096, "nodes": "62-64" }, "geometry": { "type": "LineString", "coordinates": [ [ -112.089217033397404, 33.443936863764016 ], [ -112.08905533664624, 33.44392936799202 ] ] } },
{ "type": "Feature", "properties": { "weight": 211.15994953175098, "nodes": "66-70" }, "geometry": { "type": "LineString", "coordinates": [ [ -112.092971991285012, 33.443404662342836 ], [ -112.092450968420223, 33.443254745860138 ], [ -112.092352153738972, 33.443247250029209 ], [ -112.092271305363397, 33.44317978752165 ], [ -112.091822147721331, 33.44302237479998 ], [ -112.091579602594635, 33.442984895538437 ], [ -112.091516720524737, 33.442947416260701 ], [ -112.091435872149162, 33.442947416260701 ], [ -112.091355023773588, 33.442917432826853 ], [ -112.091319091162234, 33.442924928686288 ] ] } },
{ "type": "Feature", "properties": { "weight": 165.55634918610406, "nodes": "67-78" }, "geometry": { "type": "LineString", "coordinates": [ [ -112.093537929914007, 33.443374679067027 ], [ -112.093546913066845, 33.442287778322239 ], [ -112.093537929914007, 33.442220315068553 ], [ -112.093475047844123, 33.4421828354605 ] ] } },
{ "type": "Feature", "properties": { "weight": 81.656854249492383, "nodes": "68-69" }, "geometry": { "type": "LineString", "coordinates": [ [ -112.096493387198748, 33.443329704133873 ], [ -112.095774734971457, 33.443329704133873 ] ] } },
{ "type": "Feature", "properties": { "weight": 130.82842712474618, "nodes": "69-73" }, "geometry": { "type": "LineString", "coordinates": [ [ -112.095774734971457, 33.443329704133873 ], [ -112.09575676866578, 33.443142308328113 ], [ -112.09575676866578, 33.442355241523465 ] ] } },
{ "type": "Feature", "properties": { "weight": 107.17719347445407, "nodes": "70-71" }, "geometry": { "type": "LineString", "coordinates": [ [ -112.091319091162234, 33.442924928686288 ], [ -112.091256209092336, 33.442954912117543 ], [ -112.091049596576994, 33.442939920403212 ], [ -112.090816034603122, 33.442894945244674 ], [ -112.090744169380386, 33.442849970062817 ], [ -112.090519590559367, 33.442842474196894 ], [ -112.090447725336645, 33.44281249072678 ] ] } },
{ "type": "Feature", "properties": { "weight": 96.071067811865476, "nodes": "70-77" }, "geometry": { "type": "LineString", "coordinates": [ [ -112.091319091162234, 33.442924928686288 ], [ -112.091328074315072, 33.442220315068553 ] ] } },
{ "type": "Feature", "properties": { "weight": 358.95331880577407, "nodes": "72-75" }, "geometry": { "type": "LineString", "coordinates": [ [ -112.090447725336645, 33.442730036130527 ], [ -112.089935685624695, 33.442662573220758 ], [ -112.089738056262178, 33.44261010203244 ], [ -112.089648224733764, 33.44261010203244 ], [ -112.089594325816719, 33.442580118482006 ], [ -112.089432629065584, 33.442557630812381 ], [ -112.08919008393886, 33.442475175973897 ], [ -112.088076172986561, 33.442362737431473 ], [ -112.087420402829153, 33.442347745614811 ] ] } },
{ "type": "Feature", "properties": { "weight": 83.242640687119291, "nodes": "73-74" }, "geometry": { "type": "LineString", "coordinates": [ [ -112.09575676866578, 33.442355241523465 ], [ -112.096187960002155, 33.442362737431473 ], [ -112.096493387198748, 33.442347745614811 ] ] } },
{ "type": "Feature", "properties": { "weight": 15.414213562373096, "nodes": "73-76" }, "geometry": { "type": "LineString", "coordinates": [ [ -112.09575676866578, 33.442355241523465 ], [ -112.095765751818618, 33.442242802825611 ] ] } }
]
}
