{
"type": "FeatureCollection",
"name": "gee_batch_8_34.09452_-118.27286",
"crs": { "type": "name", "properties": { "name": "urn:ogc:def:crs:OGC:1.3:CRS84" } },
"features": [
{ "type": "Feature", "properties": { "name": "road_network" }, "geometry": { "type": "MultiLineString", "coordinates": [ [ [ -118.274311528967814, 34.098325293813886 ], [ -118.274509158330318, 34.098273222619603 ], [ -118.275452389378643, 34.097484712047574 ], [ -118.275506288295688, 34.097469834419002 ] ], [ [ -118.273062870722896, 34.098325293813886 ], [ -118.273215584321193, 34.09826578387495 ], [ -118.273278466391076, 34.098154202626667 ], [ -118.273458129447889, 34.097953356009029 ], [ -118.27482356867975, 34.096725949655642 ], [ -118.27485051813828, 34.096636683044657 ] ], [ [ -118.269029435097181, 34.098325293813886 ], [ -118.269110283472756, 34.098302977591693 ], [ -118.269649272643235, 34.097812019214587 ], [ -118.269810969394371, 34.097774825282087 ] ], [ [ -118.276377654121262, 34.098317855073802 ], [ -118.276260873134333, 34.098042621231265 ], [ -118.276260873134333, 34.097945917236252 ] ], [ [ -118.26828383341136, 34.098310416333078 ], [ -118.26839163124545, 34.098250906383683 ], [ -118.269119266625594, 34.097715314956083 ], [ -118.269236047612523, 34.097588855374383 ], [ -118.269254013918214, 34.097529344917611 ], [ -118.269227064459685, 34.097469834419002 ], [ -118.269065367708549, 34.097328496817077 ], [ -118.268993502485813, 34.097239230841623 ], [ -118.268948586721621, 34.097053259757033 ], [ -118.268948586721621, 34.096926799186093 ], [ -118.268993502485813, 34.096725949655642 ], [ -118.26903841825002, 34.096636683044657 ], [ -118.269191131848316, 34.096443271731218 ], [ -118.269227064459685, 34.096324249164816 ], [ -118.269209098154008, 34.096227543206361 ], [ -118.26914621608411, 34.096182909649805 ], [ -118.269056384555711, 34.096168031792388 ], [ -118.268310782869875, 34.096197787504607 ], [ -118.268265867105669, 34.096160592862702 ] ], [ [ -118.271778279866581, 34.098302977591693 ], [ -118.271751330408051, 34.097923600914022 ], [ -118.271769296713742, 34.097752508914738 ], [ -118.271814212477935, 34.097692998573038 ], [ -118.272119639674557, 34.097462395603728 ] ], [ [ -118.269757070477326, 34.09828066136361 ], [ -118.269810969394371, 34.098288100106956 ], [ -118.269918767228461, 34.098258345129643 ], [ -118.270188261813701, 34.098064937522111 ], [ -118.270305042800629, 34.097923600914022 ], [ -118.270349958564836, 34.097782264069892 ], [ -118.270340975411997, 34.09755910015123 ], [ -118.270367924870513, 34.096963993491272 ], [ -118.270430806940396, 34.096770582925814 ], [ -118.270511655315971, 34.096644121932499 ] ], [ [ -118.269757070477326, 34.09828066136361 ], [ -118.269810969394371, 34.097931039688753 ], [ -118.269810969394371, 34.097774825282087 ] ], [ [ -118.275883580715018, 34.098250906383683 ], [ -118.275865614409327, 34.098102131327124 ], [ -118.275874597562179, 34.097767386493622 ], [ -118.275587136671263, 34.097514467296882 ], [ -118.275506288295688, 34.097469834419002 ] ], [ [ -118.276260873134333, 34.097945917236252 ], [ -118.276781895999136, 34.097737631333231 ], [ -118.27708732319573, 34.09767812098108 ] ], [ [ -118.276260873134333, 34.097945917236252 ], [ -118.276206974217288, 34.097886407030558 ], [ -118.276233923675818, 34.097722753749125 ], [ -118.276692064470723, 34.097172281298249 ], [ -118.276745963387768, 34.097030943199414 ] ], [ [ -118.277455632462207, 34.09778970285705 ], [ -118.27743766615653, 34.097745070124319 ], [ -118.277365800933808, 34.097707876162389 ], [ -118.27708732319573, 34.09767812098108 ] ], [ [ -118.269810969394371, 34.097774825282087 ], [ -118.269873851464268, 34.097581416569575 ], [ -118.269873851464268, 34.097395446236888 ], [ -118.269828935700062, 34.097268986177234 ], [ -118.269694188407442, 34.097068137458834 ], [ -118.269676222101765, 34.097001187780116 ] ], [ [ -118.27708732319573, 34.09767812098108 ], [ -118.277096306348568, 34.097551661343807 ] ], [ [ -118.268265867105669, 34.097477273233615 ], [ -118.268292816564198, 34.097335935644111 ], [ -118.268292816564198, 34.096830093916111 ], [ -118.268265867105669, 34.096644121932499 ] ], [ [ -118.275506288295688, 34.097469834419002 ], [ -118.275524254601379, 34.097402885058045 ], [ -118.275614086129778, 34.097268986177234 ], [ -118.275685951352514, 34.097179720139017 ], [ -118.275766799728075, 34.097142525928625 ] ], [ [ -118.271149459167702, 34.097254108510739 ], [ -118.271302172765999, 34.097261547344317 ], [ -118.271436920058619, 34.097291302672076 ], [ -118.271553701045548, 34.09728386384112 ], [ -118.271607599962593, 34.097231792006077 ], [ -118.271679465185329, 34.097008626635919 ], [ -118.271742347255213, 34.096897043730173 ] ], [ [ -118.275766799728075, 34.097142525928625 ], [ -118.275802732339443, 34.097172281298249 ], [ -118.27584764810365, 34.097179720139017 ], [ -118.275973412243417, 34.097172281298249 ], [ -118.276575283483794, 34.097030943199414 ], [ -118.276745963387768, 34.097030943199414 ] ], [ [ -118.275766799728075, 34.097142525928625 ], [ -118.275793749186604, 34.097016065491076 ], [ -118.275919513326372, 34.096792899552078 ], [ -118.276162058453082, 34.096391199379021 ], [ -118.276251889981495, 34.09633168808012 ] ], [ [ -118.276745963387768, 34.097030943199414 ], [ -118.277141222112775, 34.096963993491272 ], [ -118.277428683003691, 34.096956554631547 ] ], [ [ -118.271742347255213, 34.096897043730173 ], [ -118.271913027159215, 34.096926799186093 ], [ -118.272326252189899, 34.097172281298249 ], [ -118.272523881552402, 34.097172281298249 ], [ -118.272712527762067, 34.097045820905144 ], [ -118.272793376137642, 34.096911921459437 ], [ -118.272793376137642, 34.096792899552078 ], [ -118.272730494067744, 34.096420955012768 ], [ -118.272766426679112, 34.096376321558218 ], [ -118.272820325596157, 34.0963614437348 ], [ -118.272937106583086, 34.096368882646836 ], [ -118.273152702251295, 34.096443271731218 ], [ -118.273565927281993, 34.096539977443193 ], [ -118.274338478426344, 34.096584610811448 ] ], [ [ -118.273215584321193, 34.096830093916111 ], [ -118.273287449543915, 34.096986310066541 ], [ -118.273422196836535, 34.097105331701904 ], [ -118.273619826199038, 34.097172281298249 ], [ -118.273754573491644, 34.097164842456827 ], [ -118.273844405020057, 34.097112770548556 ], [ -118.274194747980886, 34.09678546067731 ], [ -118.274311528967814, 34.096666438592109 ], [ -118.274338478426344, 34.096584610811448 ] ], [ [ -118.27485051813828, 34.096636683044657 ], [ -118.274940349666679, 34.096614366377203 ], [ -118.275937479632063, 34.095751450722972 ], [ -118.276027311160476, 34.095691938974241 ], [ -118.276135108994566, 34.095669622057684 ] ], [ [ -118.27485051813828, 34.096636683044657 ], [ -118.274805602374073, 34.096599488595629 ], [ -118.274742720304175, 34.096592049703865 ], [ -118.274563057247363, 34.096577171918369 ], [ -118.274338478426344, 34.096584610811448 ] ], [ [ -118.270511655315971, 34.096644121932499 ], [ -118.270844031971109, 34.096696194129102 ], [ -118.271005728722258, 34.096703633011721 ], [ -118.271302172765999, 34.096644121932499 ], [ -118.271392004294412, 34.096599488595629 ], [ -118.271535734739871, 34.096599488595629 ], [ -118.271589633656916, 34.096577171918369 ], [ -118.271733364102374, 34.096473027346683 ], [ -118.27185912824217, 34.096168031792388 ], [ -118.271957942923422, 34.096004375188215 ], [ -118.272083707063203, 34.09593742466803 ], [ -118.272254386967177, 34.09589279095848 ], [ -118.272568797316609, 34.095863035139033 ], [ -118.272775409831951, 34.09587047409488 ], [ -118.272973039194454, 34.095915107816197 ], [ -118.273161685404148, 34.096004375188215 ], [ -118.273664741963231, 34.096123398204455 ], [ -118.273808472408689, 34.09611595927084 ], [ -118.273880337631425, 34.096086203529865 ], [ -118.274015084924031, 34.095982058354039 ], [ -118.274122882758149, 34.095929985718065 ], [ -118.274194747980886, 34.095929985718065 ], [ -118.274401360496228, 34.095996936244148 ], [ -118.274545090941686, 34.096011814131636 ], [ -118.27468882138713, 34.095982058354039 ], [ -118.27482356867975, 34.095907668864278 ] ], [ [ -118.270511655315971, 34.096644121932499 ], [ -118.270565554233016, 34.096517660750237 ], [ -118.270790133054064, 34.096279615659263 ], [ -118.270897930888154, 34.096056447778416 ], [ -118.270933863499522, 34.095885352004601 ], [ -118.270933863499522, 34.095401818600003 ] ], [ [ -118.2698379188529, 34.096420955012768 ], [ -118.269775036783017, 34.096130837137409 ], [ -118.269631306337558, 34.095773767617949 ], [ -118.269613340031867, 34.095669622057684 ], [ -118.269631306337558, 34.095305111587592 ] ], [ [ -118.277428683003691, 34.096376321558218 ], [ -118.276494435108233, 34.096383760468939 ], [ -118.276314772051379, 34.096368882646836 ], [ -118.276251889981495, 34.09633168808012 ] ], [ [ -118.276251889981495, 34.09633168808012 ], [ -118.276278839440025, 34.09623498213017 ], [ -118.27633273835707, 34.096168031792388 ], [ -118.276485451955381, 34.096034130957968 ], [ -118.27664714870653, 34.095929985718065 ], [ -118.276692064470723, 34.095840718267596 ] ], [ [ -118.277455632462207, 34.09587047409488 ], [ -118.27732986832244, 34.095758889688618 ] ], [ [ -118.276692064470723, 34.095840718267596 ], [ -118.27732986832244, 34.095758889688618 ] ], [ [ -118.276692064470723, 34.095840718267596 ], [ -118.276611216095162, 34.095773767617949 ], [ -118.276180024758773, 34.095699377945117 ], [ -118.276135108994566, 34.095669622057684 ] ], [ [ -118.27732986832244, 34.095758889688618 ], [ -118.277455632462207, 34.095245599525036 ] ], [ [ -118.276135108994566, 34.095669622057684 ], [ -118.27617104160592, 34.095558037386624 ], [ -118.276215957370127, 34.095505964489782 ], [ -118.276485451955381, 34.09523816051427 ], [ -118.277249019946865, 34.094561207798151 ], [ -118.277401733545162, 34.09439754808708 ], [ -118.277455632462207, 34.094256205354668 ] ], [ [ -118.270933863499522, 34.095401818600003 ], [ -118.271356071683044, 34.095312550592467 ], [ -118.271661498879638, 34.095282794569037 ] ], [ [ -118.270933863499522, 34.095401818600003 ], [ -118.270924880346683, 34.095253038535141 ], [ -118.270987762416567, 34.095096819185592 ], [ -118.271347088530206, 34.094531451510591 ], [ -118.271499802128503, 34.094367791741981 ], [ -118.271607599962593, 34.09421157075856 ], [ -118.271688448338168, 34.094152057927133 ] ], [ [ -118.275533237754217, 34.095379501606942 ], [ -118.27517391164055, 34.095349745607045 ] ], [ [ -118.272865241360364, 34.095349745607045 ], [ -118.273170668556986, 34.095334867603178 ], [ -118.273305415849592, 34.09527535556154 ], [ -118.273503045212095, 34.095089380161753 ], [ -118.273655758810392, 34.094910843393507 ], [ -118.273871354478587, 34.094717428136271 ], [ -118.274194747980886, 34.094501695212557 ], [ -118.274536107788833, 34.094323157204705 ], [ -118.274590006705878, 34.094233888059556 ] ], [ [ -118.269631306337558, 34.095305111587592 ], [ -118.269685205254603, 34.095282794569037 ] ], [ [ -118.269631306337558, 34.095305111587592 ], [ -118.268625193219336, 34.095305111587592 ], [ -118.268535361690923, 34.095290233575874 ] ], [ [ -118.268535361690923, 34.095290233575874 ], [ -118.268319766022714, 34.095297672582063 ], [ -118.268301799717037, 34.095282794569037 ] ], [ [ -118.268535361690923, 34.095290233575874 ], [ -118.268580277455129, 34.094360352654071 ] ], [ [ -118.269685205254603, 34.095282794569037 ], [ -118.269864868311416, 34.095305111587592 ], [ -118.270188261813701, 34.095305111587592 ], [ -118.270430806940396, 34.095267916553397 ] ], [ [ -118.269685205254603, 34.095282794569037 ], [ -118.26970317156028, 34.095178648404655 ], [ -118.269775036783017, 34.095044746004994 ], [ -118.270583520538693, 34.09378754092161 ], [ -118.27110454340351, 34.092909718017474 ], [ -118.272056757604673, 34.091459058520584 ], [ -118.272092690216041, 34.091362347003546 ] ], [ [ -118.275281709474669, 34.094769501518243 ], [ -118.275362557850229, 34.094635598471314 ], [ -118.275461372531481, 34.094531451510591 ], [ -118.275757816575236, 34.094338035386414 ], [ -118.275874597562179, 34.094241327158585 ], [ -118.275937479632063, 34.094159497033345 ], [ -118.275946462784901, 34.094062788601526 ] ], [ [ -118.269137232931271, 34.094479377982175 ], [ -118.269074350861388, 34.094449621665838 ], [ -118.268795873123324, 34.094382669915831 ], [ -118.268580277455129, 34.094360352654071 ] ], [ [ -118.268580277455129, 34.094360352654071 ], [ -118.268562311149452, 34.094338035386414 ] ], [ [ -118.268310782869875, 34.094345474476285 ], [ -118.268562311149452, 34.094338035386414 ] ], [ [ -118.268562311149452, 34.094338035386414 ], [ -118.268571294302291, 34.094241327158585 ], [ -118.268544344843775, 34.0941074232761 ], [ -118.268481462773877, 34.094003275665493 ], [ -118.268301799717037, 34.093802419197452 ], [ -118.268274850258507, 34.093720588647905 ] ], [ [ -118.274590006705878, 34.094233888059556 ], [ -118.274751703457028, 34.094219009859543 ], [ -118.275057130653622, 34.094144618820259 ], [ -118.275236793710434, 34.094137179712739 ], [ -118.275667985046823, 34.094070227715591 ], [ -118.275946462784901, 34.094062788601526 ] ], [ [ -118.274590006705878, 34.094233888059556 ], [ -118.274455259413273, 34.094137179712739 ], [ -118.274437293107582, 34.094092545053861 ] ], [ [ -118.271688448338168, 34.094152057927133 ], [ -118.271724380949536, 34.094174375243824 ], [ -118.271948959770583, 34.094219009859543 ], [ -118.272703544609229, 34.094345474476285 ], [ -118.272784392984789, 34.094330596295883 ], [ -118.272982022347321, 34.094233888059556 ], [ -118.273404230530844, 34.093891688797655 ], [ -118.273529994670625, 34.093847054009316 ], [ -118.273727624033128, 34.093854493142338 ], [ -118.274266613203608, 34.094070227715591 ], [ -118.274437293107582, 34.094092545053861 ] ], [ [ -118.271688448338168, 34.094152057927133 ], [ -118.271706414643845, 34.094077666829001 ], [ -118.272308285884222, 34.093118015801551 ], [ -118.272362184801267, 34.093051062998285 ], [ -118.272407100565474, 34.093028745385432 ] ], [ [ -118.274437293107582, 34.094092545053861 ], [ -118.274482208871788, 34.093966080059225 ], [ -118.274598989858731, 34.09376522350292 ], [ -118.274616956164408, 34.093668514620639 ] ], [ [ -118.275946462784901, 34.094062788601526 ], [ -118.276269856287172, 34.094010714784787 ], [ -118.276431553038336, 34.093943762687616 ], [ -118.276521384566749, 34.093861932274713 ], [ -118.276602232942324, 34.093742906078354 ], [ -118.27664714870653, 34.093668514620639 ], [ -118.276656131859369, 34.093586683941645 ] ], [ [ -118.269137232931271, 34.093973519181787 ], [ -118.268921637263091, 34.093653636321257 ], [ -118.268831805734678, 34.093415583175371 ], [ -118.268822822581839, 34.093341191429978 ] ], [ [ -118.274616956164408, 34.093668514620639 ], [ -118.27468882138713, 34.09362387971462 ], [ -118.274760686609866, 34.093519731509069 ], [ -118.275048147500783, 34.093051062998285 ], [ -118.275075096959299, 34.092969231722371 ] ], [ [ -118.274616956164408, 34.093668514620639 ], [ -118.274527124635995, 34.093646197170578 ], [ -118.273521011517786, 34.093214725312784 ], [ -118.273323382155283, 34.093207286123537 ], [ -118.27309880333425, 34.093259360434551 ], [ -118.273017954958689, 34.093259360434551 ], [ -118.272955072888777, 34.093244482063241 ], [ -118.272919140277409, 34.093199846933636 ] ], [ [ -118.269766053630164, 34.093661075471275 ], [ -118.269631306337558, 34.093586683941645 ], [ -118.269586390573352, 34.093430461516604 ] ], [ [ -118.276656131859369, 34.093586683941645 ], [ -118.276719013929252, 34.093549488152306 ], [ -118.276943592750271, 34.093177529360005 ] ], [ [ -118.276656131859369, 34.093586683941645 ], [ -118.276260873134333, 34.09343790068624 ], [ -118.275335608391714, 34.093028745385432 ], [ -118.275218827404757, 34.092984110142055 ], [ -118.275075096959299, 34.092969231722371 ] ], [ [ -118.277455632462207, 34.093423022346315 ], [ -118.277374784086646, 34.093266799619222 ] ], [ [ -118.268822822581839, 34.093341191429978 ], [ -118.268885704651723, 34.093296556351376 ], [ -118.268921637263091, 34.093222164501384 ], [ -118.269065367708549, 34.092463363897025 ], [ -118.269316895988098, 34.092061643176265 ], [ -118.269370794905143, 34.091927735845694 ] ], [ [ -118.268822822581839, 34.093341191429978 ], [ -118.268750957359117, 34.093303995532771 ], [ -118.268679092136381, 34.093155211780484 ], [ -118.268382648092611, 34.092693980486473 ] ], [ [ -118.269586390573352, 34.093326313073057 ], [ -118.269658255796074, 34.093296556351376 ], [ -118.269945716686991, 34.092835325827515 ], [ -118.270053514521081, 34.092708858954531 ], [ -118.270340975411997, 34.092292260860141 ], [ -118.270367924870513, 34.092195550295003 ] ], [ [ -118.269586390573352, 34.093326313073057 ], [ -118.26952350850344, 34.093289117169313 ], [ -118.269478592739233, 34.093140333390878 ], [ -118.269460626433556, 34.092887400367346 ], [ -118.269469609586395, 34.092619588106906 ], [ -118.269532491656278, 34.092403849836458 ], [ -118.269784019935855, 34.092002128833272 ] ], [ [ -118.277374784086646, 34.093266799619222 ], [ -118.277213087335511, 34.09325192124922 ], [ -118.277069356890053, 34.093192407743075 ], [ -118.276943592750271, 34.093177529360005 ] ], [ [ -118.277374784086646, 34.093266799619222 ], [ -118.277455632462207, 34.092939474875159 ] ], [ [ -118.272919140277409, 34.093199846933636 ], [ -118.27280235929048, 34.093184968551867 ], [ -118.272667611997861, 34.093140333390878 ], [ -118.272407100565474, 34.093028745385432 ] ], [ [ -118.272919140277409, 34.093199846933636 ], [ -118.272937106583086, 34.093140333390878 ], [ -118.273044904417205, 34.092976670932543 ], [ -118.27334134846096, 34.092649345066569 ], [ -118.273655758810392, 34.092403849836458 ], [ -118.273835421867219, 34.092351774999152 ] ], [ [ -118.276943592750271, 34.093177529360005 ], [ -118.276889693833226, 34.093118015801551 ], [ -118.276341721509908, 34.092887400367346 ], [ -118.276287822592863, 34.092827886604923 ] ], [ [ -118.272407100565474, 34.093028745385432 ], [ -118.272425066871151, 34.092939474875159 ], [ -118.272532864705241, 34.092753494343043 ], [ -118.273197618015502, 34.09171943513266 ], [ -118.273305415849592, 34.091592966592543 ] ], [ [ -118.275075096959299, 34.092969231722371 ], [ -118.27506611380646, 34.092939474875159 ], [ -118.274985265430885, 34.092887400367346 ], [ -118.274015084924031, 34.092463363897025 ], [ -118.273871354478587, 34.092388971314783 ], [ -118.273835421867219, 34.092351774999152 ] ], [ [ -118.276287822592863, 34.092827886604923 ], [ -118.27617104160592, 34.092813008157776 ], [ -118.275937479632063, 34.092716298187582 ], [ -118.275299675780346, 34.092433606871971 ], [ -118.275254760016139, 34.092381532052968 ] ], [ [ -118.276287822592863, 34.092827886604923 ], [ -118.276772912846297, 34.092031886009991 ], [ -118.277410716698014, 34.091057333033788 ], [ -118.277455632462207, 34.090841590781842 ] ], [ [ -118.268382648092611, 34.092693980486473 ], [ -118.268418580703965, 34.092604709623153 ], [ -118.268948586721621, 34.091912857240331 ], [ -118.269011468791504, 34.091778949674406 ], [ -118.269110283472756, 34.09142930114249 ], [ -118.269200115001155, 34.091273074735902 ], [ -118.269307912835259, 34.091154044899277 ], [ -118.269379778057981, 34.091124287413976 ], [ -118.269487575892072, 34.091124287413976 ], [ -118.269676222101765, 34.091220999202974 ], [ -118.269793003088694, 34.09123587792994 ], [ -118.269900800922784, 34.091168923638008 ], [ -118.270035548215404, 34.091020136133011 ], [ -118.270206228119378, 34.090930863504497 ], [ -118.270430806940396, 34.090923424114543 ], [ -118.270637419455753, 34.090982939215905 ], [ -118.270781149901225, 34.090982939215905 ], [ -118.270906914041007, 34.090930863504497 ], [ -118.27110454340351, 34.090722560338506 ] ], [ [ -118.275254760016139, 34.092381532052968 ], [ -118.276260873134333, 34.090752317965027 ], [ -118.276341721509908, 34.090722560338506 ] ], [ [ -118.275254760016139, 34.092381532052968 ], [ -118.275120012723505, 34.092359214263588 ], [ -118.274527124635995, 34.092098839619382 ], [ -118.274293562662137, 34.092017007422939 ], [ -118.274266613203608, 34.091987250240983 ] ], [ [ -118.273835421867219, 34.092351774999152 ], [ -118.273889320784264, 34.092247625228424 ], [ -118.274122882758149, 34.092061643176265 ], [ -118.274167798522356, 34.091987250240983 ] ], [ [ -118.268265867105669, 34.092232746679286 ], [ -118.268301799717037, 34.092039325302544 ], [ -118.268921637263091, 34.091094529918209 ] ], [ [ -118.270367924870513, 34.092195550295003 ], [ -118.270430806940396, 34.092158353894376 ], [ -118.270763183595548, 34.091697117168721 ], [ -118.270799116206916, 34.091585527260762 ] ], [ [ -118.270367924870513, 34.092195550295003 ], [ -118.270296059647791, 34.092180671736713 ], [ -118.269936733534152, 34.092024446716799 ], [ -118.269784019935855, 34.092002128833272 ] ], [ [ -118.269784019935855, 34.092002128833272 ], [ -118.26973012101881, 34.091957493048561 ], [ -118.269514525350601, 34.091912857240331 ] ], [ [ -118.274266613203608, 34.091987250240983 ], [ -118.274527124635995, 34.091607845254117 ], [ -118.275048147500783, 34.090759757370023 ], [ -118.275128995876344, 34.090722560338506 ] ], [ [ -118.274266613203608, 34.091987250240983 ], [ -118.274167798522356, 34.091987250240983 ] ], [ [ -118.274167798522356, 34.091987250240983 ], [ -118.274113899605311, 34.091935175147391 ], [ -118.273997118618354, 34.091875660715488 ], [ -118.273431179989373, 34.091630163241597 ], [ -118.273305415849592, 34.091592966592543 ] ], [ [ -118.269119266625594, 34.091786388989178 ], [ -118.26928096337673, 34.091786388989178 ], [ -118.269316895988098, 34.091764071042896 ], [ -118.269334862293775, 34.09171943513266 ] ], [ [ -118.269334862293775, 34.09171943513266 ], [ -118.269891817769945, 34.091570648595251 ], [ -118.269981649298359, 34.091526012583039 ], [ -118.270116396590964, 34.091421861796334 ], [ -118.270242160730746, 34.091392104405173 ], [ -118.270421823787558, 34.091414422449517 ], [ -118.270799116206916, 34.091585527260762 ] ], [ [ -118.273305415849592, 34.091592966592543 ], [ -118.273305415849592, 34.09154833059209 ] ], [ [ -118.270799116206916, 34.091585527260762 ], [ -118.270844031971109, 34.091563209261523 ], [ -118.271176408626232, 34.091087090542629 ], [ -118.271302172765999, 34.090886227154932 ], [ -118.271356071683044, 34.090759757370023 ] ], [ [ -118.273305415849592, 34.09154833059209 ], [ -118.273332365308121, 34.091533451920043 ], [ -118.27379948925585, 34.090774636178054 ], [ -118.27382643871438, 34.090744878559377 ], [ -118.273898303937102, 34.090722560338506 ] ], [ [ -118.273305415849592, 34.09154833059209 ], [ -118.272595746775139, 34.091228438566787 ], [ -118.272299302731383, 34.09113916615793 ] ], [ [ -118.268265867105669, 34.091444179832841 ], [ -118.268337732328405, 34.091168923638008 ], [ -118.268436547009657, 34.091101969293121 ], [ -118.268580277455129, 34.090915984723921 ], [ -118.268670108983542, 34.090759757370023 ], [ -118.268732991053426, 34.090722560338506 ] ], [ [ -118.272092690216041, 34.091362347003546 ], [ -118.272137605980248, 34.09133258959146 ], [ -118.2722364206615, 34.091168923638008 ], [ -118.272299302731383, 34.09113916615793 ] ], [ [ -118.272092690216041, 34.091362347003546 ], [ -118.272011841840467, 34.091302832168914 ], [ -118.271868111395008, 34.091079651166396 ], [ -118.271742347255213, 34.090923424114543 ], [ -118.271661498879638, 34.090856469575485 ], [ -118.271472852669987, 34.090774636178054 ], [ -118.271356071683044, 34.090759757370023 ] ], [ [ -118.272299302731383, 34.09113916615793 ], [ -118.27231726903706, 34.091035014895283 ], [ -118.272478965788196, 34.090759757370023 ], [ -118.27255981416377, 34.090722560338506 ] ] ] } }
]
}
