{
"type": "FeatureCollection",
"name": "gee_batch_9_29.77497_-95.32127",
"crs": { "type": "name", "properties": { "name": "urn:ogc:def:crs:OGC:1.3:CRS84" } },
"features": [
{ "type": "Feature", "properties": { "name": "road_network" }, "geometry": { "type": "MultiLineString", "coordinates": [ [ [ -95.320599140371499, 29.778959070245723 ], [ -95.32110219693061, 29.778920085694896 ], [ -95.32110219693061, 29.778405488201521 ] ], [ [ -95.318200638562899, 29.778959070245723 ], [ -95.317805379837893, 29.778686178071212 ], [ -95.317544868405491, 29.778577020993158 ], [ -95.317437070571401, 29.778569224054461 ] ], [ [ -95.323877991158525, 29.778943476427219 ], [ -95.323869008005687, 29.778366503435162 ] ], [ [ -95.321910680686315, 29.778943476427219 ], [ -95.321928646991992, 29.77882652271099 ], [ -95.321910680686315, 29.778389894296797 ] ], [ [ -95.31741910426571, 29.778935679517051 ], [ -95.317437070571401, 29.778569224054461 ] ], [ [ -95.32484817166538, 29.778920085694896 ], [ -95.324839188512541, 29.77835090952437 ] ], [ [ -95.32288086119317, 29.778920085694896 ], [ -95.322898827498847, 29.77882652271099 ], [ -95.322889844346008, 29.778382097343528 ] ], [ [ -95.317437070571401, 29.778569224054461 ], [ -95.317356222195826, 29.778319721695503 ] ], [ [ -95.32110219693061, 29.778405488201521 ], [ -95.321910680686315, 29.778389894296797 ] ], [ [ -95.32110219693061, 29.778405488201521 ], [ -95.321084230624933, 29.778389894296797 ] ], [ [ -95.321910680686315, 29.778389894296797 ], [ -95.322889844346008, 29.778382097343528 ] ], [ [ -95.321910680686315, 29.778389894296797 ], [ -95.321910680686315, 29.777664775045338 ] ], [ [ -95.322889844346008, 29.778382097343528 ], [ -95.323869008005687, 29.778366503435162 ] ], [ [ -95.322889844346008, 29.778382097343528 ], [ -95.32288086119317, 29.777664775045338 ] ], [ [ -95.321084230624933, 29.778389894296797 ], [ -95.320329645786259, 29.778382097343528 ], [ -95.320293713174905, 29.778343112568066 ], [ -95.320293713174905, 29.778078015692401 ], [ -95.320275746869214, 29.778031233817963 ] ], [ [ -95.321084230624933, 29.778389894296797 ], [ -95.321093213777772, 29.777672572054463 ] ], [ [ -95.316673502579903, 29.778382097343528 ], [ -95.316745367802625, 29.778335315611148 ], [ -95.317356222195826, 29.778319721695503 ] ], [ [ -95.323869008005687, 29.778366503435162 ], [ -95.324839188512541, 29.77835090952437 ] ], [ [ -95.323869008005687, 29.778366503435162 ], [ -95.323860024852848, 29.777649181025261 ] ], [ [ -95.324839188512541, 29.77835090952437 ], [ -95.325836318477926, 29.778296330817479 ] ], [ [ -95.324839188512541, 29.77835090952437 ], [ -95.324839188512541, 29.777649181025261 ] ], [ [ -95.317356222195826, 29.778319721695503 ], [ -95.317392154807195, 29.778124797544987 ], [ -95.31744605372424, 29.778070218714845 ], [ -95.318622846746436, 29.778031233817963 ] ], [ [ -95.320275746869214, 29.778031233817963 ], [ -95.319709808240219, 29.778046827778535 ], [ -95.318622846746436, 29.778031233817963 ] ], [ [ -95.320275746869214, 29.778031233817963 ], [ -95.320284730022053, 29.77732950307858 ], [ -95.320266763716376, 29.777259329734171 ] ], [ [ -95.318622846746436, 29.778031233817963 ], [ -95.318622846746436, 29.777274923814954 ] ], [ [ -95.321093213777772, 29.777672572054463 ], [ -95.321910680686315, 29.777664775045338 ] ], [ [ -95.321093213777772, 29.777672572054463 ], [ -95.32110219693061, 29.776955244673481 ] ], [ [ -95.32288086119317, 29.777664775045338 ], [ -95.323860024852848, 29.777649181025261 ] ], [ [ -95.32288086119317, 29.777664775045338 ], [ -95.321910680686315, 29.777664775045338 ] ], [ [ -95.32288086119317, 29.777664775045338 ], [ -95.32288086119317, 29.776947447608499 ] ], [ [ -95.321910680686315, 29.777664775045338 ], [ -95.321892714380638, 29.776955244673481 ] ], [ [ -95.325863267936441, 29.777656978035601 ], [ -95.325827335325073, 29.77761799297782 ], [ -95.324839188512541, 29.777649181025261 ] ], [ [ -95.323860024852848, 29.777649181025261 ], [ -95.324839188512541, 29.777649181025261 ] ], [ [ -95.324839188512541, 29.777649181025261 ], [ -95.324830205359703, 29.776924056409921 ] ], [ [ -95.323860024852848, 29.777649181025261 ], [ -95.32385104170001, 29.776931853476718 ] ], [ [ -95.318622846746436, 29.777274923814954 ], [ -95.319458279960671, 29.777267126774866 ] ], [ [ -95.318622846746436, 29.777274923814954 ], [ -95.317958093436189, 29.777259329734171 ], [ -95.317832329296422, 29.777243735650956 ], [ -95.317769447226524, 29.777204750432304 ] ], [ [ -95.318622846746436, 29.777274923814954 ], [ -95.318613863593598, 29.776339274669535 ] ], [ [ -95.319458279960671, 29.777267126774866 ], [ -95.320266763716376, 29.777259329734171 ] ], [ [ -95.320266763716376, 29.777259329734171 ], [ -95.320266763716376, 29.776284694866202 ] ], [ [ -95.319458279960671, 29.777267126774866 ], [ -95.319458279960671, 29.776370463115232 ], [ -95.319440313654994, 29.776300289098756 ] ], [ [ -95.317769447226524, 29.777204750432304 ], [ -95.317158592833323, 29.777126779949452 ], [ -95.316709435191271, 29.777134577000464 ] ], [ [ -95.317769447226524, 29.777204750432304 ], [ -95.317787413532216, 29.777134577000464 ], [ -95.317787413532216, 29.776370463115232 ] ], [ [ -95.321892714380638, 29.776955244673481 ], [ -95.32288086119317, 29.776947447608499 ] ], [ [ -95.321892714380638, 29.776955244673481 ], [ -95.32110219693061, 29.776955244673481 ] ], [ [ -95.321892714380638, 29.776955244673481 ], [ -95.321892714380638, 29.776237912153949 ] ], [ [ -95.32110219693061, 29.776955244673481 ], [ -95.321093213777772, 29.776269100631207 ] ], [ [ -95.32288086119317, 29.776947447608499 ], [ -95.32385104170001, 29.776931853476718 ] ], [ [ -95.32288086119317, 29.776947447608499 ], [ -95.322871878040331, 29.776230115033115 ] ], [ [ -95.32385104170001, 29.776931853476718 ], [ -95.324830205359703, 29.776924056409921 ] ], [ [ -95.32385104170001, 29.776931853476718 ], [ -95.32385104170001, 29.776222317911664 ] ], [ [ -95.324830205359703, 29.776924056409921 ], [ -95.325818352172234, 29.776892868136635 ] ], [ [ -95.324830205359703, 29.776924056409921 ], [ -95.324821222206864, 29.776237912153949 ], [ -95.324803255901173, 29.776214520789622 ] ], [ [ -95.316718418344109, 29.776393854443125 ], [ -95.317526902099814, 29.776362666004719 ] ], [ [ -95.317787413532216, 29.776370463115232 ], [ -95.318613863593598, 29.776339274669535 ] ], [ [ -95.317787413532216, 29.776370463115232 ], [ -95.317526902099814, 29.776362666004719 ] ], [ [ -95.317526902099814, 29.776362666004719 ], [ -95.317499952641285, 29.775660923572467 ] ], [ [ -95.318613863593598, 29.776339274669535 ], [ -95.319098953847018, 29.776300289098756 ], [ -95.319440313654994, 29.776300289098756 ] ], [ [ -95.319440313654994, 29.776300289098756 ], [ -95.320266763716376, 29.776284694866202 ] ], [ [ -95.319440313654994, 29.776300289098756 ], [ -95.319440313654994, 29.775614140568802 ] ], [ [ -95.320266763716376, 29.776284694866202 ], [ -95.320599140371499, 29.776261303512801 ], [ -95.321093213777772, 29.776269100631207 ] ], [ [ -95.321093213777772, 29.776269100631207 ], [ -95.321147112694817, 29.776245709274168 ] ], [ [ -95.321147112694817, 29.776245709274168 ], [ -95.321892714380638, 29.776237912153949 ] ], [ [ -95.321892714380638, 29.776237912153949 ], [ -95.322871878040331, 29.776230115033115 ] ], [ [ -95.321892714380638, 29.776237912153949 ], [ -95.3218837312278, 29.775520574495921 ] ], [ [ -95.321147112694817, 29.776245709274168 ], [ -95.321138129541978, 29.775536168847474 ] ], [ [ -95.325854284783603, 29.776237912153949 ], [ -95.325800385866557, 29.776183332295361 ], [ -95.325710554338144, 29.776183332295361 ] ], [ [ -95.32385104170001, 29.776222317911664 ], [ -95.322871878040331, 29.776230115033115 ] ], [ [ -95.322871878040331, 29.776230115033115 ], [ -95.322862894887493, 29.775512777319239 ] ], [ [ -95.324803255901173, 29.776214520789622 ], [ -95.325710554338144, 29.776183332295361 ] ], [ [ -95.32385104170001, 29.776222317911664 ], [ -95.324803255901173, 29.776214520789622 ] ], [ [ -95.324803255901173, 29.776214520789622 ], [ -95.324785289595496, 29.775115120503216 ], [ -95.324758340136981, 29.774803231699494 ] ], [ [ -95.32385104170001, 29.776222317911664 ], [ -95.323842058547172, 29.775575154715732 ], [ -95.32382409224148, 29.775512777319239 ] ], [ [ -95.325710554338144, 29.776183332295361 ], [ -95.325719537490983, 29.774171653896946 ] ], [ [ -95.316700452038418, 29.775715503715784 ], [ -95.316727401496948, 29.775692112229436 ], [ -95.316835199331038, 29.775684315066105 ], [ -95.317499952641285, 29.775660923572467 ] ], [ [ -95.317499952641285, 29.775660923572467 ], [ -95.319440313654994, 29.775614140568802 ] ], [ [ -95.317499952641285, 29.775660923572467 ], [ -95.317490969488446, 29.775029351179022 ] ], [ [ -95.319440313654994, 29.775614140568802 ], [ -95.321138129541978, 29.775536168847474 ] ], [ [ -95.321138129541978, 29.775536168847474 ], [ -95.3218837312278, 29.775520574495921 ] ], [ [ -95.321138129541978, 29.775536168847474 ], [ -95.321084230624933, 29.774647286933373 ] ], [ [ -95.322862894887493, 29.775512777319239 ], [ -95.32382409224148, 29.775512777319239 ] ], [ [ -95.3218837312278, 29.775520574495921 ], [ -95.322826962276125, 29.775520574495921 ], [ -95.322835945428963, 29.775512777319239 ], [ -95.322862894887493, 29.775512777319239 ] ], [ [ -95.322862894887493, 29.775512777319239 ], [ -95.32285391173464, 29.774826623393462 ] ], [ [ -95.3218837312278, 29.775520574495921 ], [ -95.321901697533477, 29.774982567880322 ] ], [ [ -95.32382409224148, 29.775512777319239 ], [ -95.323842058547172, 29.775473791426695 ], [ -95.323833075394333, 29.774811028931421 ] ], [ [ -95.319772690310103, 29.775224281355047 ], [ -95.319772690310103, 29.774982567880322 ] ], [ [ -95.317490969488446, 29.775029351179022 ], [ -95.318721661427688, 29.775005959532407 ], [ -95.318784543497571, 29.774959176222776 ], [ -95.31879352665041, 29.774600503456192 ] ], [ [ -95.317490969488446, 29.775029351179022 ], [ -95.317481986335608, 29.774639489688699 ] ], [ [ -95.321955596450522, 29.77485001508197 ], [ -95.32199152906189, 29.774818826162747 ], [ -95.32285391173464, 29.774826623393462 ] ], [ [ -95.32285391173464, 29.774826623393462 ], [ -95.322871878040331, 29.774803231699494 ] ], [ [ -95.323833075394333, 29.774811028931421 ], [ -95.324758340136981, 29.774803231699494 ] ], [ [ -95.323833075394333, 29.774811028931421 ], [ -95.322871878040331, 29.774803231699494 ] ], [ [ -95.324758340136981, 29.774803231699494 ], [ -95.324776306442658, 29.774779840000061 ], [ -95.324767323289819, 29.774187248458542 ] ], [ [ -95.322871878040331, 29.774803231699494 ], [ -95.322835945428963, 29.774444558374402 ] ], [ [ -95.320320662633421, 29.774662881420916 ], [ -95.321084230624933, 29.774647286933373 ] ], [ [ -95.320320662633421, 29.774662881420916 ], [ -95.319718791393058, 29.774655084177446 ], [ -95.319557094641922, 29.774514733691255 ] ], [ [ -95.321084230624933, 29.774647286933373 ], [ -95.321910680686315, 29.77456931445926 ], [ -95.322620349760768, 29.774452355634249 ], [ -95.322835945428963, 29.774444558374402 ] ], [ [ -95.316736384649786, 29.774647286933373 ], [ -95.317481986335608, 29.774639489688699 ] ], [ [ -95.317481986335608, 29.774639489688699 ], [ -95.31879352665041, 29.774600503456192 ] ], [ [ -95.31879352665041, 29.774600503456192 ], [ -95.318928273943044, 29.774592706207869 ], [ -95.319000139165766, 29.774530328199432 ] ], [ [ -95.319000139165766, 29.774530328199432 ], [ -95.319557094641922, 29.774514733691255 ] ], [ [ -95.319000139165766, 29.774530328199432 ], [ -95.318874375025999, 29.774374383008364 ], [ -95.318838442414631, 29.774358788475897 ] ], [ [ -95.319557094641922, 29.774514733691255 ], [ -95.319637943017497, 29.774444558374402 ], [ -95.320185915340801, 29.774428963852856 ], [ -95.320302696327744, 29.774319802134126 ] ], [ [ -95.322835945428963, 29.774444558374402 ], [ -95.322862894887493, 29.774413369328897 ], [ -95.32298865902726, 29.774389977538398 ], [ -95.323033574791467, 29.774358788475897 ], [ -95.323249170459647, 29.774062491897741 ] ], [ [ -95.318712678274849, 29.774405572066001 ], [ -95.318838442414631, 29.774358788475897 ] ], [ [ -95.318416234231094, 29.774405572066001 ], [ -95.318227588021415, 29.774389977538398 ], [ -95.318101823881648, 29.774280815777171 ] ], [ [ -95.316781300413993, 29.774397774802502 ], [ -95.316916047706613, 29.774374383008364 ], [ -95.316996896082173, 29.774304207593165 ] ], [ [ -95.318838442414631, 29.774358788475897 ], [ -95.318838442414631, 29.774187248458542 ] ], [ [ -95.320302696327744, 29.774319802134126 ], [ -95.321614236642546, 29.774265221230134 ], [ -95.322638316066445, 29.774101478339688 ], [ -95.323186288389763, 29.774046897316712 ], [ -95.323249170459647, 29.774062491897741 ] ], [ [ -95.320302696327744, 29.774319802134126 ], [ -95.320140999576608, 29.774187248458542 ], [ -95.319386414737949, 29.774132667482313 ] ], [ [ -95.316996896082173, 29.774304207593165 ], [ -95.318101823881648, 29.774280815777171 ] ], [ [ -95.316996896082173, 29.774304207593165 ], [ -95.316880115095245, 29.774202843017722 ], [ -95.316736384649786, 29.774187248458542 ], [ -95.316709435191271, 29.774163856615228 ] ], [ [ -95.318101823881648, 29.774280815777171 ], [ -95.318227588021415, 29.774187248458542 ], [ -95.318838442414631, 29.774187248458542 ] ], [ [ -95.324309182494915, 29.774195045738441 ], [ -95.324767323289819, 29.774187248458542 ] ], [ [ -95.324767323289819, 29.774187248458542 ], [ -95.325719537490983, 29.774171653896946 ] ], [ [ -95.324767323289819, 29.774187248458542 ], [ -95.324731390678451, 29.773984518968309 ], [ -95.324677491761406, 29.773922140581064 ] ], [ [ -95.318838442414631, 29.774187248458542 ], [ -95.319314549515198, 29.774171653896946 ], [ -95.319386414737949, 29.774132667482313 ] ], [ [ -95.325719537490983, 29.774171653896946 ], [ -95.325728520643821, 29.774023505440617 ] ], [ [ -95.319386414737949, 29.774132667482313 ], [ -95.319278616903844, 29.77400791085352 ], [ -95.319000139165766, 29.773984518968309 ], [ -95.318955223401559, 29.773968924375144 ], [ -95.318892341331676, 29.77389874867583 ] ], [ [ -95.323249170459647, 29.774062491897741 ], [ -95.323536631350578, 29.773992316263985 ] ], [ [ -95.323536631350578, 29.773992316263985 ], [ -95.323671378643184, 29.774117072912212 ], [ -95.323734260713081, 29.774132667482313 ], [ -95.324003755298321, 29.774101478339688 ], [ -95.324533761315948, 29.773937735181512 ], [ -95.324677491761406, 29.773922140581064 ] ], [ [ -95.323536631350578, 29.773992316263985 ], [ -95.323680361796036, 29.773789586379156 ], [ -95.323940873228437, 29.773711613237257 ], [ -95.324372064564798, 29.773532274780507 ] ], [ [ -95.324677491761406, 29.773922140581064 ], [ -95.32474037383129, 29.773875356765132 ], [ -95.325009868416515, 29.773797383690013 ], [ -95.325674621726776, 29.773547869441668 ], [ -95.325773436408028, 29.773532274780507 ], [ -95.325854284783603, 29.773438706762544 ] ], [ [ -95.318892341331676, 29.77389874867583 ], [ -95.318407251078256, 29.773867559460349 ], [ -95.317464020029917, 29.773851964848962 ] ], [ [ -95.318892341331676, 29.77389874867583 ], [ -95.318955223401559, 29.773851964848962 ], [ -95.319853538685678, 29.773844167542368 ] ], [ [ -95.316727401496948, 29.773867559460349 ], [ -95.317464020029917, 29.773851964848962 ] ], [ [ -95.317464020029917, 29.773851964848962 ], [ -95.317437070571401, 29.772658969879988 ] ], [ [ -95.319853538685678, 29.773844167542368 ], [ -95.320320662633421, 29.773851964848962 ], [ -95.321156095847655, 29.773812978309888 ], [ -95.321254910528907, 29.773789586379156 ], [ -95.322467636162472, 29.773703815919731 ], [ -95.322737130747697, 29.773664829322975 ], [ -95.322808995970448, 29.773610248062031 ] ], [ [ -95.319853538685678, 29.773844167542368 ], [ -95.319853538685678, 29.772939675857035 ] ], [ [ -95.322808995970448, 29.773610248062031 ], [ -95.322970692721583, 29.773618045386844 ], [ -95.323374934599443, 29.773524477449012 ], [ -95.324327148800592, 29.773158002184157 ], [ -95.324515795010271, 29.773142407462291 ] ], [ [ -95.322808995970448, 29.773610248062031 ], [ -95.322808995970448, 29.773524477449012 ] ], [ [ -95.321757967088018, 29.773579058756706 ], [ -95.322808995970448, 29.773524477449012 ] ], [ [ -95.324372064564798, 29.773532274780507 ], [ -95.3246325759972, 29.773493288116985 ], [ -95.325701571185306, 29.773080028550538 ], [ -95.325854284783603, 29.772830512515007 ] ], [ [ -95.324372064564798, 29.773532274780507 ], [ -95.324300199342076, 29.773469896111582 ], [ -95.324309182494915, 29.773399720062592 ], [ -95.324354098259121, 29.77331394926928 ], [ -95.324461896093212, 29.773243773111023 ], [ -95.324515795010271, 29.773142407462291 ] ], [ [ -95.322808995970448, 29.773524477449012 ], [ -95.322782046511918, 29.772853904669741 ] ], [ [ -95.324515795010271, 29.773142407462291 ], [ -95.32474037383129, 29.773041041710957 ], [ -95.324821222206864, 29.772900688962828 ] ], [ [ -95.319853538685678, 29.772939675857035 ], [ -95.322782046511918, 29.772853904669741 ] ], [ [ -95.319853538685678, 29.772939675857035 ], [ -95.319260650598153, 29.772939675857035 ] ], [ [ -95.319260650598153, 29.772939675857035 ], [ -95.318380301619726, 29.772947473234055 ], [ -95.318119790187325, 29.772885094200895 ], [ -95.317778430379363, 29.772721349053988 ], [ -95.317437070571401, 29.772658969879988 ] ], [ [ -95.319260650598153, 29.772939675857035 ], [ -95.319260650598153, 29.772440642465021 ], [ -95.319233701139638, 29.772253504301972 ], [ -95.319233701139638, 29.771809049763348 ], [ -95.319215734833961, 29.771770062429027 ] ], [ [ -95.324821222206864, 29.772900688962828 ], [ -95.325342245071653, 29.77278372818914 ], [ -95.325441059752904, 29.772744741234227 ], [ -95.325503941822788, 29.772690159471843 ] ], [ [ -95.324821222206864, 29.772900688962828 ], [ -95.324758340136981, 29.772838309900525 ], [ -95.324677491761406, 29.772814917742146 ], [ -95.322925776957376, 29.772830512515007 ], [ -95.322782046511918, 29.772853904669741 ] ], [ [ -95.322782046511918, 29.772853904669741 ], [ -95.322791029664756, 29.772206719706571 ] ], [ [ -95.325503941822788, 29.772690159471843 ], [ -95.325593773351201, 29.772674564677128 ], [ -95.325809369019396, 29.772580995857851 ], [ -95.325863267936441, 29.772495224363386 ] ], [ [ -95.325503941822788, 29.772690159471843 ], [ -95.32546800921142, 29.772651172480504 ], [ -95.325450042905743, 29.772144340212048 ] ], [ [ -95.317437070571401, 29.772658969879988 ], [ -95.317410121112871, 29.77262778027842 ] ], [ [ -95.316736384649786, 29.772635577679718 ], [ -95.317410121112871, 29.77262778027842 ] ], [ [ -95.317410121112871, 29.77262778027842 ], [ -95.317401137960033, 29.772191124836585 ] ], [ [ -95.322791029664756, 29.772206719706571 ], [ -95.322737130747697, 29.772191124836585 ], [ -95.32123694422323, 29.772198922271873 ] ], [ [ -95.322791029664756, 29.772206719706571 ], [ -95.322826962276125, 29.772159935089316 ] ], [ [ -95.317401137960033, 29.772191124836585 ], [ -95.316727401496948, 29.772191124836585 ] ], [ [ -95.317401137960033, 29.772191124836585 ], [ -95.31741910426571, 29.772167732527045 ], [ -95.31741910426571, 29.77175446749105 ] ], [ [ -95.322826962276125, 29.772159935089316 ], [ -95.324129519438088, 29.772136542772493 ], [ -95.325450042905743, 29.772144340212048 ] ], [ [ -95.322826962276125, 29.772159935089316 ], [ -95.32285391173464, 29.771972796401776 ], [ -95.322979675874421, 29.771582923013025 ], [ -95.32298865902726, 29.771481555683369 ] ], [ [ -95.325450042905743, 29.772144340212048 ], [ -95.325836318477926, 29.772128745332346 ] ], [ [ -95.325450042905743, 29.772144340212048 ], [ -95.325459026058581, 29.771637505378813 ] ], [ [ -95.319215734833961, 29.771770062429027 ], [ -95.31741910426571, 29.77175446749105 ] ], [ [ -95.319215734833961, 29.771770062429027 ], [ -95.319233701139638, 29.771582923013025 ], [ -95.319215734833961, 29.771037097719212 ] ], [ [ -95.31741910426571, 29.77175446749105 ], [ -95.317410121112871, 29.771637505378813 ] ], [ [ -95.325459026058581, 29.771637505378813 ], [ -95.325764453255189, 29.771637505378813 ], [ -95.325827335325073, 29.771629707899805 ], [ -95.325845301630764, 29.771606315459152 ] ], [ [ -95.325459026058581, 29.771637505378813 ], [ -95.325135632556311, 29.771621910420194 ], [ -95.324911053735278, 29.771536138104395 ], [ -95.324749356984128, 29.771442568221566 ] ], [ [ -95.317410121112871, 29.771637505378813 ], [ -95.316718418344109, 29.771621910420194 ] ], [ [ -95.317410121112871, 29.771637505378813 ], [ -95.31741910426571, 29.771044895244351 ] ], [ [ -95.32298865902726, 29.771481555683369 ], [ -95.323069507402835, 29.771458163208109 ] ], [ [ -95.32298865902726, 29.771481555683369 ], [ -95.32271916444202, 29.771473758192226 ], [ -95.321183045306185, 29.771512745641886 ], [ -95.321147112694817, 29.771489353173909 ], [ -95.321147112694817, 29.771434770727385 ] ], [ [ -95.323069507402835, 29.771458163208109 ], [ -95.324749356984128, 29.771442568221566 ] ], [ [ -95.323069507402835, 29.771458163208109 ], [ -95.323087473708512, 29.771348998251327 ], [ -95.32320425469544, 29.771021502667111 ], [ -95.323249170459647, 29.770998110084406 ] ], [ [ -95.324749356984128, 29.771442568221566 ], [ -95.324776306442658, 29.771317808241829 ], [ -95.324785289595496, 29.771013705140152 ] ], [ [ -95.31741910426571, 29.771044895244351 ], [ -95.319215734833961, 29.771037097719212 ] ], [ [ -95.31741910426571, 29.771044895244351 ], [ -95.316727401496948, 29.771029300193469 ] ] ] } }
]
}
