{
"type": "FeatureCollection",
"name": "gee_batch_8_32.81722_-96.83011",
"crs": { "type": "name", "properties": { "name": "urn:ogc:def:crs:OGC:1.3:CRS84" } },
"features": [
{ "type": "Feature", "properties": { "name": "road_network" }, "geometry": { "type": "MultiLineString", "coordinates": [ [ [ -96.831099226170579, 32.821084269992035 ], [ -96.830973462030812, 32.821046524248864 ], [ -96.830272776109183, 32.820472786977987 ] ], [ [ -96.828053937357424, 32.821084269992035 ], [ -96.827964105828997, 32.821061622548058 ], [ -96.826841211723846, 32.820125523145492 ] ], [ [ -96.826580700291458, 32.821084269992035 ], [ -96.826490868763045, 32.821061622548058 ], [ -96.826077643732347, 32.820752106901672 ] ], [ [ -96.82568238500734, 32.821084269992035 ], [ -96.825745267077238, 32.821069171696692 ], [ -96.826077643732347, 32.820752106901672 ] ], [ [ -96.832662294764958, 32.821061622548058 ], [ -96.832617379000752, 32.821008778489656 ], [ -96.832608395847913, 32.820865344458369 ], [ -96.832635345306429, 32.819951890720198 ] ], [ [ -96.833030604031435, 32.820993680181473 ], [ -96.832958738808699, 32.820789852769941 ], [ -96.832904839891654, 32.820487885374696 ] ], [ [ -96.826077643732347, 32.820752106901672 ], [ -96.82681426226533, 32.820125523145492 ] ], [ [ -96.826077643732347, 32.820752106901672 ], [ -96.825763233382915, 32.820510532964946 ], [ -96.825583570326089, 32.820404844161054 ], [ -96.825529671409043, 32.820359548920891 ], [ -96.825520688256191, 32.820314253657642 ] ], [ [ -96.830272776109183, 32.820472786977987 ], [ -96.830147011969416, 32.82054827893586 ], [ -96.829545140729053, 32.821046524248864 ], [ -96.829446326047801, 32.821046524248864 ], [ -96.827586813409681, 32.819506484251306 ] ], [ [ -96.830272776109183, 32.820472786977987 ], [ -96.830272776109183, 32.820442590176874 ] ], [ [ -96.830272776109183, 32.820442590176874 ], [ -96.830928546266605, 32.819899046001666 ], [ -96.831009394642166, 32.819823553492093 ], [ -96.831036344100696, 32.819763159438239 ] ], [ [ -96.830272776109183, 32.820442590176874 ], [ -96.828341398248327, 32.818872342374888 ] ], [ [ -96.832904839891654, 32.820367098129189 ], [ -96.832922806197345, 32.820306704444853 ], [ -96.833003654572906, 32.820216113841362 ], [ -96.83338094699225, 32.819921693742032 ], [ -96.834018750843967, 32.819355498500826 ] ], [ [ -96.826841211723846, 32.820125523145492 ], [ -96.82681426226533, 32.820125523145492 ] ], [ [ -96.82681426226533, 32.820125523145492 ], [ -96.82554763771472, 32.819038427589547 ], [ -96.825511705103352, 32.818947835692768 ] ], [ [ -96.826841211723846, 32.820125523145492 ], [ -96.827586813409681, 32.819506484251306 ] ], [ [ -96.834701470459891, 32.820012284645756 ], [ -96.834638588390007, 32.819831102745937 ], [ -96.83410858237238, 32.819378146379762 ], [ -96.834018750843967, 32.819355498500826 ] ], [ [ -96.832635345306429, 32.819951890720198 ], [ -96.832581446389383, 32.819921693742032 ], [ -96.832437715943911, 32.819899046001666 ] ], [ [ -96.832635345306429, 32.819951890720198 ], [ -96.832671277917797, 32.819853750503619 ], [ -96.832698227376312, 32.819498934969879 ] ], [ [ -96.831036344100696, 32.819763159438239 ], [ -96.831126175629109, 32.81974051165745 ], [ -96.831189057698992, 32.819695216078571 ], [ -96.83259941269506, 32.818547720376969 ], [ -96.832850940974609, 32.818479776087763 ] ], [ [ -96.831036344100696, 32.819763159438239 ], [ -96.829230730379621, 32.81822309719292 ], [ -96.829158865156884, 32.81820799841131 ] ], [ [ -96.827586813409681, 32.819506484251306 ], [ -96.828341398248327, 32.818872342374888 ] ], [ [ -96.827586813409681, 32.819506484251306 ], [ -96.827254436754544, 32.819227160411153 ], [ -96.827227487296028, 32.81917431526152 ] ], [ [ -96.832698227376312, 32.819498934969879 ], [ -96.83273415998768, 32.819423442120296 ], [ -96.832770092599048, 32.819113920766313 ], [ -96.832806025210402, 32.819053526230036 ], [ -96.832850940974609, 32.818479776087763 ] ], [ [ -96.832698227376312, 32.819498934969879 ], [ -96.832527547472324, 32.819438540695351 ], [ -96.832231103428569, 32.819181864570538 ], [ -96.832159238205847, 32.819159216641566 ] ], [ [ -96.834018750843967, 32.819355498500826 ], [ -96.833991801385451, 32.819280005529357 ], [ -96.833946885621245, 32.819234709715673 ], [ -96.833461795367811, 32.818819497014189 ], [ -96.833443829062134, 32.818751552932824 ] ], [ [ -96.827227487296028, 32.81917431526152 ], [ -96.827011891627834, 32.819030878268343 ], [ -96.825583570326089, 32.817830528036993 ] ], [ [ -96.828341398248327, 32.818872342374888 ], [ -96.829158865156884, 32.81820799841131 ] ], [ [ -96.828341398248327, 32.818872342374888 ], [ -96.826904093793743, 32.817664440564236 ], [ -96.82670646443124, 32.817490803328923 ], [ -96.82667951497271, 32.817415308772937 ] ], [ [ -96.833443829062134, 32.818751552932824 ], [ -96.834665537848537, 32.817702187744402 ], [ -96.834701470459891, 32.817611594485065 ] ], [ [ -96.833443829062134, 32.818751552932824 ], [ -96.833336031228043, 32.818721355546657 ], [ -96.833174334476908, 32.818608115257092 ], [ -96.833030604031435, 32.818434479866085 ] ], [ [ -96.831332788144451, 32.818721355546657 ], [ -96.831045327253534, 32.818472226719088 ], [ -96.830173961427931, 32.817815429188663 ], [ -96.829302595602343, 32.817052934011251 ] ], [ [ -96.832850940974609, 32.818479776087763 ], [ -96.832859924127447, 32.818434479866085 ] ], [ [ -96.833030604031435, 32.818434479866085 ], [ -96.833084502948481, 32.818358986111974 ], [ -96.833129418712701, 32.817973966968154 ], [ -96.833255182852469, 32.817279418410507 ] ], [ [ -96.833030604031435, 32.818434479866085 ], [ -96.832859924127447, 32.818434479866085 ] ], [ [ -96.832859924127447, 32.818434479866085 ], [ -96.832815008363255, 32.81838163424495 ], [ -96.832779075751887, 32.818275942908357 ], [ -96.831260922921714, 32.81700008756836 ], [ -96.831063293559211, 32.816818899525501 ], [ -96.831045327253534, 32.8167660529434 ] ], [ [ -96.829158865156884, 32.81820799841131 ], [ -96.829140898851193, 32.818140053862287 ], [ -96.828251566719928, 32.817370012008546 ], [ -96.827766476466493, 32.81697743908321 ], [ -96.827622746021035, 32.816901944091008 ] ], [ [ -96.825583570326089, 32.817830528036993 ], [ -96.825637469243134, 32.817762583199304 ], [ -96.826050694273832, 32.817588946155787 ], [ -96.826526801374413, 32.817430407689265 ], [ -96.82667951497271, 32.817415308772937 ] ], [ [ -96.82667951497271, 32.817415308772937 ], [ -96.827245453601705, 32.817256769996568 ], [ -96.827452066117061, 32.817120879391652 ] ], [ [ -96.833255182852469, 32.817279418410507 ], [ -96.833255182852469, 32.816962340089901 ] ], [ [ -96.834674521001375, 32.81719637419782 ], [ -96.833901969857038, 32.816547116768412 ], [ -96.833677391035991, 32.816320630502425 ], [ -96.833641458424637, 32.816207387152936 ], [ -96.833677391035991, 32.815633618630621 ] ], [ [ -96.826347138317587, 32.817188824720091 ], [ -96.826176458413599, 32.81700008756836 ] ], [ [ -96.829302595602343, 32.817052934011251 ], [ -96.829221747226782, 32.817083131964516 ], [ -96.829033101017103, 32.817234121576845 ], [ -96.828988185252896, 32.817249220523969 ], [ -96.828934286335851, 32.817234121576845 ], [ -96.828467162388108, 32.816833998543188 ], [ -96.828422246623902, 32.816735854882374 ], [ -96.82932056190802, 32.815980900020953 ], [ -96.829509208117685, 32.815845007464652 ], [ -96.829643955410305, 32.815814809090575 ] ], [ [ -96.829302595602343, 32.817052934011251 ], [ -96.829356494519388, 32.816962340089901 ], [ -96.829958365759751, 32.816494270024648 ], [ -96.83018294458077, 32.816282882735301 ] ], [ [ -96.827487998728429, 32.817052934011251 ], [ -96.827622746021035, 32.816901944091008 ] ], [ [ -96.831988558301859, 32.816901944091008 ], [ -96.833147385018378, 32.815897854594574 ] ], [ [ -96.827622746021035, 32.816901944091008 ], [ -96.827685628090933, 32.816532017701974 ], [ -96.827739527007978, 32.816426324165072 ], [ -96.827856307994907, 32.816282882735301 ], [ -96.828341398248327, 32.815912953768787 ], [ -96.829113949392664, 32.815256137318968 ] ], [ [ -96.831045327253534, 32.8167660529434 ], [ -96.83131482183876, 32.816569765363255 ] ], [ [ -96.831045327253534, 32.8167660529434 ], [ -96.830973462030812, 32.816743404398586 ], [ -96.830272776109183, 32.816162089772725 ], [ -96.830209894039299, 32.816041296645935 ] ], [ [ -96.831602282729691, 32.816396125988561 ], [ -96.832338901262659, 32.815807259495458 ], [ -96.832518564319486, 32.815610969797142 ], [ -96.83273415998768, 32.815444878175242 ] ], [ [ -96.825511705103352, 32.816381026896472 ], [ -96.825520688256191, 32.816350828704579 ], [ -96.82568238500734, 32.816230035834387 ], [ -96.825772216535754, 32.816124341938249 ] ], [ [ -96.826077643732347, 32.816177188902024 ], [ -96.826149508955083, 32.815792160303289 ], [ -96.826131542649392, 32.815543023262073 ] ], [ [ -96.829895483689867, 32.816086594087722 ], [ -96.829679888021673, 32.815890305006512 ], [ -96.829643955410305, 32.815814809090575 ] ], [ [ -96.830209894039299, 32.816041296645935 ], [ -96.831036344100696, 32.815361832247881 ], [ -96.831054310406373, 32.815308984799138 ] ], [ [ -96.830209894039299, 32.816041296645935 ], [ -96.830048197288164, 32.815980900020953 ], [ -96.829805652161454, 32.815784610706238 ], [ -96.829688871174511, 32.815754412311648 ] ], [ [ -96.829643955410305, 32.815814809090575 ], [ -96.829688871174511, 32.815754412311648 ] ], [ [ -96.829688871174511, 32.815754412311648 ], [ -96.829661921715982, 32.815671366673577 ], [ -96.829617005951775, 32.815626069020091 ], [ -96.829230730379621, 32.815301435161039 ], [ -96.829113949392664, 32.815256137318968 ] ], [ [ -96.825862048064167, 32.815580771343527 ], [ -96.825942896439742, 32.81559587057162 ], [ -96.826023744815302, 32.815543023262073 ] ], [ [ -96.826131542649392, 32.815543023262073 ], [ -96.826023744815302, 32.815543023262073 ] ], [ [ -96.826131542649392, 32.815543023262073 ], [ -96.826176458413599, 32.815452427801155 ], [ -96.826284256247689, 32.81533163370959 ], [ -96.826661548667033, 32.815014548437894 ] ], [ [ -96.826023744815302, 32.815543023262073 ], [ -96.82554763771472, 32.815173091215186 ], [ -96.825520688256191, 32.81509759468986 ] ], [ [ -96.831054310406373, 32.815308984799138 ], [ -96.831907709926284, 32.814569117216415 ], [ -96.832285002345614, 32.814282228128818 ], [ -96.83235686756835, 32.814199181114802 ], [ -96.832437715943911, 32.8140557360896 ], [ -96.832563480083707, 32.813580100928064 ], [ -96.83262636215359, 32.813444204700005 ] ], [ [ -96.829113949392664, 32.815256137318968 ], [ -96.829113949392664, 32.815150442264326 ] ], [ [ -96.829113949392664, 32.815150442264326 ], [ -96.829158865156884, 32.815067396061764 ], [ -96.829688871174511, 32.814448321924004 ], [ -96.830120062510886, 32.813995338114964 ], [ -96.830218877192138, 32.813934940099287 ], [ -96.830847697891016, 32.813398905911136 ], [ -96.83098244518365, 32.813368706705731 ] ], [ [ -96.829113949392664, 32.815150442264326 ], [ -96.828395297165372, 32.814969250449572 ], [ -96.82732630197728, 32.814939051777856 ], [ -96.826769346501123, 32.814840906023903 ] ], [ [ -96.826661548667033, 32.815014548437894 ], [ -96.826769346501123, 32.814840906023903 ] ], [ [ -96.826769346501123, 32.814840906023903 ], [ -96.826733413889755, 32.81478050858297 ], [ -96.826383070928955, 32.81458421661641 ], [ -96.825601536631765, 32.81395003960705 ], [ -96.825511705103352, 32.81378394488047 ] ], [ [ -96.834701470459891, 32.814168982181371 ], [ -96.834611638931491, 32.81395003960705 ] ], [ [ -96.834611638931491, 32.81395003960705 ], [ -96.834701470459891, 32.813799044413898 ] ], [ [ -96.834611638931491, 32.81395003960705 ], [ -96.834449942180342, 32.813904741076044 ], [ -96.834324178040575, 32.813799044413898 ], [ -96.834153498136587, 32.813557451571157 ] ], [ [ -96.827101723156247, 32.813844342998784 ], [ -96.826652565514181, 32.81343665490347 ], [ -96.826517818221575, 32.813361156902779 ] ], [ [ -96.833093486101319, 32.813693347626021 ], [ -96.832985688267229, 32.81348195367309 ], [ -96.832877890433139, 32.813376256508043 ], [ -96.832788058904725, 32.813361156902779 ] ] ] } }
]
}
