{
"type": "FeatureCollection",
"name": "gee_batch_1_41.87430_-87.62379",
"crs": { "type": "name", "properties": { "name": "urn:ogc:def:crs:OGC:1.3:CRS84" } },
"features": [
{ "type": "Feature", "properties": { "weight": 78.313708498984766, "nodes": "0-7" }, "geometry": { "type": "LineString", "coordinates": [ [ -87.626026268358203, 41.8774507641524 ], [ -87.626008302052512, 41.877343746064142 ], [ -87.626026268358203, 41.877223350500643 ], [ -87.626017285205364, 41.87706282272984 ], [ -87.62604423466388, 41.876949115314886 ] ] } },
{ "type": "Feature", "properties": { "weight": 40.242640687119284, "nodes": "2-4" }, "geometry": { "type": "LineString", "coordinates": [ [ -87.622980979545034, 41.877029379393498 ], [ -87.622711484959794, 41.877036068062168 ], [ -87.622630636584233, 41.877022690724132 ] ] } },
{ "type": "Feature", "properties": { "weight": 30.892922226992169, "nodes": "3-4" }, "geometry": { "type": "LineString", "coordinates": [ [ -87.622370125151846, 41.877029379393498 ], [ -87.622567754514336, 41.877036068062168 ], [ -87.622630636584233, 41.877022690724132 ] ] } },
{ "type": "Feature", "properties": { "weight": 49.242640687119284, "nodes": "4-11" }, "geometry": { "type": "LineString", "coordinates": [ [ -87.622630636584233, 41.877022690724132 ], [ -87.622621653431381, 41.876701633771241 ] ] } },
{ "type": "Feature", "properties": { "weight": 221.07668841106573, "nodes": "5-10" }, "geometry": { "type": "LineString", "coordinates": [ [ -87.625774740078654, 41.877009313383297 ], [ -87.625298632978073, 41.876989247366801 ], [ -87.625181851991115, 41.876969181343988 ], [ -87.624562014445075, 41.876929049279482 ], [ -87.624202688331437, 41.876922360599615 ], [ -87.62404997473314, 41.876822030317591 ], [ -87.624005058968919, 41.876721699878054 ] ] } },
{ "type": "Feature", "properties": { "weight": 266.45584412271569, "nodes": "7-8" }, "geometry": { "type": "LineString", "coordinates": [ [ -87.62604423466388, 41.876949115314886 ], [ -87.627553404341214, 41.8768822285057 ], [ -87.627903747302, 41.876888917189774 ], [ -87.628334938638389, 41.876862162449299 ], [ -87.628361888096904, 41.876835407697619 ] ] } },
{ "type": "Feature", "properties": { "weight": 198.69191210021552, "nodes": "7-26" }, "geometry": { "type": "LineString", "coordinates": [ [ -87.62604423466388, 41.876949115314886 ], [ -87.625990335746835, 41.876908983237769 ], [ -87.625972369441158, 41.876674878952365 ], [ -87.625945419982628, 41.876594614428534 ], [ -87.625927453676951, 41.876099647637368 ], [ -87.625891521065583, 41.875892295545007 ], [ -87.625891521065583, 41.875731764430846 ], [ -87.625864571607067, 41.875678253969845 ] ] } },
{ "type": "Feature", "properties": { "weight": 122.79241716360382, "nodes": "9-17" }, "geometry": { "type": "LineString", "coordinates": [ [ -87.620842989168835, 41.876735077279086 ], [ -87.620807056557467, 41.876079581335247 ], [ -87.620825022863144, 41.875999316063776 ], [ -87.620878921780189, 41.875945805826795 ] ] } },
{ "type": "Feature", "properties": { "weight": 145.4492714130962, "nodes": "10-22" }, "geometry": { "type": "LineString", "coordinates": [ [ -87.624005058968919, 41.876721699878054 ], [ -87.62404997473314, 41.876688256363202 ], [ -87.624076924191669, 41.87655448212881 ], [ -87.624076924191669, 41.876052826255957 ], [ -87.624121839955876, 41.875965872170916 ], [ -87.624121839955876, 41.875825407629776 ], [ -87.624103873650185, 41.875798652444089 ] ] } },
{ "type": "Feature", "properties": { "weight": 162.33809511662426, "nodes": "10-19" }, "geometry": { "type": "LineString", "coordinates": [ [ -87.624005058968919, 41.876721699878054 ], [ -87.623789463300739, 41.876661501538727 ], [ -87.623555901326881, 41.876440773809414 ], [ -87.623349288811525, 41.876153157745549 ], [ -87.623277423588789, 41.875919050691508 ] ] } },
{ "type": "Feature", "properties": { "weight": 38.313708498984752, "nodes": "11-13" }, "geometry": { "type": "LineString", "coordinates": [ [ -87.622621653431381, 41.876701633771241 ], [ -87.622567754514336, 41.876668190245901 ], [ -87.62254080505582, 41.876474217453762 ] ] } },
{ "type": "Feature", "properties": { "weight": 19.242640687119284, "nodes": "14-15" }, "geometry": { "type": "LineString", "coordinates": [ [ -87.622576737667188, 41.876327065287711 ], [ -87.622558771361497, 41.87628693281998 ], [ -87.622567754514336, 41.876206667808923 ] ] } },
{ "type": "Feature", "properties": { "weight": 184.72792206135784, "nodes": "17-18" }, "geometry": { "type": "LineString", "coordinates": [ [ -87.620878921780189, 41.875945805826795 ], [ -87.62130112996374, 41.875925739476379 ], [ -87.622370125151846, 41.875912361905939 ], [ -87.622504872444452, 41.875939117044027 ] ] } },
{ "type": "Feature", "properties": { "weight": 88.899494936611674, "nodes": "18-19" }, "geometry": { "type": "LineString", "coordinates": [ [ -87.622504872444452, 41.875939117044027 ], [ -87.622855215405252, 41.875945805826795 ], [ -87.62291809747515, 41.875925739476379 ], [ -87.623196575213228, 41.875932428260555 ], [ -87.623277423588789, 41.875919050691508 ] ] } },
{ "type": "Feature", "properties": { "weight": 7.0, "nodes": "19-21" }, "geometry": { "type": "LineString", "coordinates": [ [ -87.623277423588789, 41.875919050691508 ], [ -87.623277423588789, 41.875872229177794 ] ] } },
{ "type": "Feature", "properties": { "weight": 96.556349186104043, "nodes": "21-22" }, "geometry": { "type": "LineString", "coordinates": [ [ -87.623277423588789, 41.875872229177794 ], [ -87.623897261134829, 41.875805341241559 ], [ -87.624103873650185, 41.875798652444089 ] ] } },
{ "type": "Feature", "properties": { "weight": 41.828427124746192, "nodes": "21-30" }, "geometry": { "type": "LineString", "coordinates": [ [ -87.623277423588789, 41.875872229177794 ], [ -87.623277423588789, 41.875597988194365 ] ] } },
{ "type": "Feature", "properties": { "weight": 18.064495102245981, "nodes": "22-25" }, "geometry": { "type": "LineString", "coordinates": [ [ -87.624103873650185, 41.875798652444089 ], [ -87.624103873650185, 41.875731764430846 ], [ -87.624130823108715, 41.875684942779927 ] ] } },
{ "type": "Feature", "properties": { "weight": 64.656854249492383, "nodes": "23-24" }, "geometry": { "type": "LineString", "coordinates": [ [ -87.628379854402596, 41.875705009205952 ], [ -87.627912730454852, 41.875705009205952 ], [ -87.627813915773601, 41.875691631589298 ] ] } },
{ "type": "Feature", "properties": { "weight": 198.38477631085024, "nodes": "25-26" }, "geometry": { "type": "LineString", "coordinates": [ [ -87.624130823108715, 41.875684942779927 ], [ -87.624588963903605, 41.875684942779927 ], [ -87.625002188934303, 41.875658187535429 ], [ -87.625864571607067, 41.875678253969845 ] ] } },
{ "type": "Feature", "properties": { "weight": 100.38477631085024, "nodes": "25-30" }, "geometry": { "type": "LineString", "coordinates": [ [ -87.624130823108715, 41.875684942779927 ], [ -87.624067941038831, 41.875651498722554 ], [ -87.623277423588789, 41.875597988194365 ] ] } },
{ "type": "Feature", "properties": { "weight": 4.6502815398728847, "nodes": "26-28" }, "geometry": { "type": "LineString", "coordinates": [ [ -87.625864571607067, 41.875678253969845 ], [ -87.625900504218421, 41.875664876347606 ] ] } },
{ "type": "Feature", "properties": { "weight": 21.727922061357855, "nodes": "27-29" }, "geometry": { "type": "LineString", "coordinates": [ [ -87.627679168480981, 41.875678253969845 ], [ -87.627580353799729, 41.875664876347606 ], [ -87.627517471729846, 41.875618054647681 ] ] } },
{ "type": "Feature", "properties": { "weight": 183.72792206135784, "nodes": "28-29" }, "geometry": { "type": "LineString", "coordinates": [ [ -87.625900504218421, 41.875664876347606 ], [ -87.626169998803661, 41.875671565159074 ], [ -87.626223897720706, 41.875658187535429 ], [ -87.627059330934941, 41.875638121094703 ], [ -87.627221027686076, 41.875618054647681 ], [ -87.627517471729846, 41.875618054647681 ] ] } },
{ "type": "Feature", "properties": { "weight": 194.87005768508882, "nodes": "28-48" }, "geometry": { "type": "LineString", "coordinates": [ [ -87.625900504218421, 41.875664876347606 ], [ -87.625936436829789, 41.87522341324253 ], [ -87.625999318899673, 41.874995991665017 ], [ -87.625999318899673, 41.87471505801085 ], [ -87.626035251511041, 41.874574590720691 ], [ -87.626017285205364, 41.874414056296786 ] ] } },
{ "type": "Feature", "properties": { "weight": 98.142135623730951, "nodes": "29-35" }, "geometry": { "type": "LineString", "coordinates": [ [ -87.627517471729846, 41.875618054647681 ], [ -87.627562387494052, 41.875564544091482 ], [ -87.627607303258259, 41.875544477621361 ], [ -87.628334938638389, 41.875544477621361 ] ] } },
{ "type": "Feature", "properties": { "weight": 13.656854249492381, "nodes": "30-37" }, "geometry": { "type": "LineString", "coordinates": [ [ -87.623277423588789, 41.875597988194365 ], [ -87.62326844043595, 41.875544477621361 ], [ -87.623241490977435, 41.875517722318065 ] ] } },
{ "type": "Feature", "properties": { "weight": 72.656854249492383, "nodes": "31-32" }, "geometry": { "type": "LineString", "coordinates": [ [ -87.621507742479082, 41.875604677012831 ], [ -87.621678422383056, 41.875611365830608 ], [ -87.621732321300101, 41.875597988194365 ], [ -87.622145546330799, 41.875591299375181 ] ] } },
{ "type": "Feature", "properties": { "weight": 33.89949493661166, "nodes": "31-34" }, "geometry": { "type": "LineString", "coordinates": [ [ -87.621507742479082, 41.875604677012831 ], [ -87.621319096269417, 41.875597988194365 ], [ -87.621229264741004, 41.875557855268809 ] ] } },
{ "type": "Feature", "properties": { "weight": 42.727922061357845, "nodes": "32-36" }, "geometry": { "type": "LineString", "coordinates": [ [ -87.622145546330799, 41.875591299375181 ], [ -87.62243300722173, 41.875591299375181 ], [ -87.622495889291613, 41.875544477621361 ] ] } },
{ "type": "Feature", "properties": { "weight": 83.313708498984766, "nodes": "32-42" }, "geometry": { "type": "LineString", "coordinates": [ [ -87.622145546330799, 41.875591299375181 ], [ -87.622109613719431, 41.875056191573115 ] ] } },
{ "type": "Feature", "properties": { "weight": 84.656854249492383, "nodes": "36-37" }, "geometry": { "type": "LineString", "coordinates": [ [ -87.622495889291613, 41.875544477621361 ], [ -87.62316064260186, 41.875537788796592 ], [ -87.623241490977435, 41.875517722318065 ] ] } },
{ "type": "Feature", "properties": { "weight": 25.970562748477143, "nodes": "36-39" }, "geometry": { "type": "LineString", "coordinates": [ [ -87.622495889291613, 41.875544477621361 ], [ -87.6224060577632, 41.875477589342111 ], [ -87.622307243081934, 41.875464211677858 ] ] } },
{ "type": "Feature", "properties": { "weight": 46.071067811865476, "nodes": "37-41" }, "geometry": { "type": "LineString", "coordinates": [ [ -87.623241490977435, 41.875517722318065 ], [ -87.623286406741627, 41.87522341324253 ] ] } },
{ "type": "Feature", "properties": { "weight": 104.89949493661167, "nodes": "40-43" }, "geometry": { "type": "LineString", "coordinates": [ [ -87.621175365823945, 41.875256857523915 ], [ -87.621148416365429, 41.875089635942004 ], [ -87.621130450059738, 41.874574590720691 ] ] } },
{ "type": "Feature", "properties": { "weight": 176.45079348883235, "nodes": "41-52" }, "geometry": { "type": "LineString", "coordinates": [ [ -87.623286406741627, 41.87522341324253 ], [ -87.623385221422879, 41.875176591219201 ], [ -87.623510985562675, 41.874982613899967 ], [ -87.623681665466648, 41.874835458299557 ], [ -87.623726581230855, 41.874775258183554 ], [ -87.623897261134829, 41.874641479944984 ], [ -87.624005058968919, 41.874487634624472 ], [ -87.624103873650185, 41.874407367353712 ], [ -87.624211671484275, 41.874387300520269 ] ] } },
{ "type": "Feature", "properties": { "weight": 120.21320343559641, "nodes": "41-46" }, "geometry": { "type": "LineString", "coordinates": [ [ -87.623286406741627, 41.87522341324253 ], [ -87.623178608907537, 41.87512976916156 ], [ -87.623151659449022, 41.87446087887875 ] ] } },
{ "type": "Feature", "properties": { "weight": 84.656854249492383, "nodes": "43-44" }, "geometry": { "type": "LineString", "coordinates": [ [ -87.621130450059738, 41.874574590720691 ], [ -87.621453843562037, 41.874574590720691 ], [ -87.621876051745573, 41.874547835011377 ] ] } },
{ "type": "Feature", "properties": { "weight": 244.09955295296913, "nodes": "43-54" }, "geometry": { "type": "LineString", "coordinates": [ [ -87.621130450059738, 41.874574590720691 ], [ -87.620825022863144, 41.874567901794421 ], [ -87.620798073404629, 41.874521079290858 ], [ -87.620780107098952, 41.873357194607763 ], [ -87.620798073404629, 41.873276925917352 ], [ -87.620869938627351, 41.873210035265018 ] ] } },
{ "type": "Feature", "properties": { "weight": 112.59797974644667, "nodes": "45-53" }, "geometry": { "type": "LineString", "coordinates": [ [ -87.628361888096904, 41.874521079290858 ], [ -87.628299006027021, 41.874567901794421 ], [ -87.627760016856556, 41.874547835011377 ], [ -87.627661202175304, 41.874514390358982 ], [ -87.627616286411097, 41.874480945689086 ], [ -87.627571370646891, 41.874407367353712 ], [ -87.627517471729846, 41.874380611574388 ] ] } },
{ "type": "Feature", "properties": { "weight": 121.89949493661166, "nodes": "46-47" }, "geometry": { "type": "LineString", "coordinates": [ [ -87.623151659449022, 41.87446087887875 ], [ -87.622289276776257, 41.874480945689086 ], [ -87.622136563177961, 41.874474256753011 ], [ -87.622082664260915, 41.874454189940572 ] ] } },
{ "type": "Feature", "properties": { "weight": 195.37820360123072, "nodes": "46-56" }, "geometry": { "type": "LineString", "coordinates": [ [ -87.623151659449022, 41.87446087887875 ], [ -87.62313369314333, 41.873270236855269 ], [ -87.623124709990492, 41.873223413401078 ], [ -87.623070811073447, 41.873183278984477 ] ] } },
{ "type": "Feature", "properties": { "weight": 21.242640687119284, "nodes": "48-50" }, "geometry": { "type": "LineString", "coordinates": [ [ -87.626017285205364, 41.874414056296786 ], [ -87.626089150428086, 41.874393989465446 ], [ -87.626196948262177, 41.874393989465446 ] ] } },
{ "type": "Feature", "properties": { "weight": 207.62741699796953, "nodes": "48-52" }, "geometry": { "type": "LineString", "coordinates": [ [ -87.626017285205364, 41.874414056296786 ], [ -87.624337435624057, 41.87444750100169 ], [ -87.62426557040132, 41.874427434180852 ], [ -87.624211671484275, 41.874387300520269 ] ] } },
{ "type": "Feature", "properties": { "weight": 47.828427124746192, "nodes": "49-51" }, "geometry": { "type": "LineString", "coordinates": [ [ -87.621049601684177, 41.874407367353712 ], [ -87.621471809867714, 41.874393989465446 ] ] } },
{ "type": "Feature", "properties": { "weight": 148.65685424949237, "nodes": "50-53" }, "geometry": { "type": "LineString", "coordinates": [ [ -87.626196948262177, 41.874393989465446 ], [ -87.626708987974126, 41.874393989465446 ], [ -87.627167128769031, 41.874373922627811 ], [ -87.627517471729846, 41.874380611574388 ] ] } },
{ "type": "Feature", "properties": { "weight": 194.69848480983501, "nodes": "50-58" }, "geometry": { "type": "LineString", "coordinates": [ [ -87.626196948262177, 41.874393989465446 ], [ -87.626196948262177, 41.874012718472962 ], [ -87.626134066192293, 41.873892316634389 ], [ -87.626098133580925, 41.873705024434685 ], [ -87.626080167275248, 41.873470908413282 ], [ -87.62604423466388, 41.873363883660751 ], [ -87.62604423466388, 41.873149833618058 ] ] } },
{ "type": "Feature", "properties": { "weight": 183.06177259678006, "nodes": "52-55" }, "geometry": { "type": "LineString", "coordinates": [ [ -87.624211671484275, 41.874387300520269 ], [ -87.624229637789966, 41.874353855783866 ], [ -87.624229637789966, 41.874113053165175 ], [ -87.624211671484275, 41.874079608285271 ], [ -87.624211671484275, 41.873223413401078 ], [ -87.624193705178598, 41.873183278984477 ] ] } },
{ "type": "Feature", "properties": { "weight": 190.97056274847716, "nodes": "53-59" }, "geometry": { "type": "LineString", "coordinates": [ [ -87.627517471729846, 41.874380611574388 ], [ -87.627526454882684, 41.873912383623235 ], [ -87.627508488577007, 41.873698335417409 ], [ -87.627553404341214, 41.873584622016502 ], [ -87.627544421188361, 41.873283614978739 ], [ -87.627517471729846, 41.873136455466579 ] ] } },
{ "type": "Feature", "properties": { "weight": 200.31370849898477, "nodes": "54-57" }, "geometry": { "type": "LineString", "coordinates": [ [ -87.620869938627351, 41.873210035265018 ], [ -87.622639619737072, 41.873183278984477 ] ] } },
{ "type": "Feature", "properties": { "weight": 136.4492714130962, "nodes": "54-72" }, "geometry": { "type": "LineString", "coordinates": [ [ -87.620869938627351, 41.873210035265018 ], [ -87.620780107098952, 41.873116388234131 ], [ -87.620780107098952, 41.872340450414356 ] ] } },
{ "type": "Feature", "properties": { "weight": 211.13284040864551, "nodes": "55-58" }, "geometry": { "type": "LineString", "coordinates": [ [ -87.624193705178598, 41.873183278984477 ], [ -87.624499132375192, 41.873156522692739 ], [ -87.62604423466388, 41.873149833618058 ] ] } },
{ "type": "Feature", "properties": { "weight": 127.30713578936526, "nodes": "55-56" }, "geometry": { "type": "LineString", "coordinates": [ [ -87.623070811073447, 41.873183278984477 ], [ -87.624193705178598, 41.873183278984477 ] ] } },
{ "type": "Feature", "properties": { "weight": 116.24264068711929, "nodes": "55-69" }, "geometry": { "type": "LineString", "coordinates": [ [ -87.624193705178598, 41.873183278984477 ], [ -87.624202688331437, 41.872414031129111 ] ] } },
{ "type": "Feature", "properties": { "weight": 48.828427124746185, "nodes": "56-57" }, "geometry": { "type": "LineString", "coordinates": [ [ -87.623070811073447, 41.873183278984477 ], [ -87.622639619737072, 41.873183278984477 ] ] } },
{ "type": "Feature", "properties": { "weight": 99.213203435596427, "nodes": "57-66" }, "geometry": { "type": "LineString", "coordinates": [ [ -87.622639619737072, 41.873183278984477 ], [ -87.62267555234844, 41.872641461893757 ], [ -87.622774367029677, 41.872561192304524 ] ] } },
{ "type": "Feature", "properties": { "weight": 168.97056274847714, "nodes": "58-59" }, "geometry": { "type": "LineString", "coordinates": [ [ -87.62604423466388, 41.873149833618058 ], [ -87.626071184122409, 41.873136455466579 ], [ -87.626682038515611, 41.873136455466579 ], [ -87.627185095074708, 41.873109699155243 ], [ -87.62741865704858, 41.873109699155243 ], [ -87.627517471729846, 41.873136455466579 ] ] } },
{ "type": "Feature", "properties": { "weight": 22.242640687119284, "nodes": "59-60" }, "geometry": { "type": "LineString", "coordinates": [ [ -87.627517471729846, 41.873136455466579 ], [ -87.627544421188361, 41.873103010075653 ], [ -87.627544421188361, 41.872995984707103 ] ] } },
{ "type": "Feature", "properties": { "weight": 67.035057850723121, "nodes": "60-65" }, "geometry": { "type": "LineString", "coordinates": [ [ -87.627544421188361, 41.872995984707103 ], [ -87.627625269563936, 41.872935782858534 ], [ -87.627661202175304, 41.872661529275312 ], [ -87.627697134786658, 41.872601327111745 ] ] } },
{ "type": "Feature", "properties": { "weight": 117.11269837220809, "nodes": "60-77" }, "geometry": { "type": "LineString", "coordinates": [ [ -87.627544421188361, 41.872995984707103 ], [ -87.627481539118477, 41.872949161052006 ], [ -87.627490522271316, 41.87250767918902 ], [ -87.627553404341214, 41.872333761254268 ], [ -87.627634252716774, 41.872300315443326 ] ] } },
{ "type": "Feature", "properties": { "weight": 78.284271247461902, "nodes": "61-68" }, "geometry": { "type": "LineString", "coordinates": [ [ -87.622477922985937, 41.872949161052006 ], [ -87.622486906138775, 41.872634772765174 ], [ -87.62251385559729, 41.872581259711275 ], [ -87.62264860288991, 41.872500990046433 ] ] } },
{ "type": "Feature", "properties": { "weight": 30.549776476484549, "nodes": "64-66" }, "geometry": { "type": "LineString", "coordinates": [ [ -87.622864198558091, 41.872735109620464 ], [ -87.622855215405252, 41.872621394505899 ], [ -87.622774367029677, 41.872561192304524 ] ] } },
{ "type": "Feature", "properties": { "weight": 7.0, "nodes": "66-67" }, "geometry": { "type": "LineString", "coordinates": [ [ -87.622774367029677, 41.872561192304524 ], [ -87.622774367029677, 41.872514368330918 ] ] } },
{ "type": "Feature", "properties": { "weight": 29.135562914111453, "nodes": "67-70" }, "geometry": { "type": "LineString", "coordinates": [ [ -87.622774367029677, 41.872514368330918 ], [ -87.622864198558091, 41.872454166028731 ], [ -87.622864198558091, 41.872353828732429 ] ] } },
{ "type": "Feature", "properties": { "weight": 14.82842712474619, "nodes": "67-68" }, "geometry": { "type": "LineString", "coordinates": [ [ -87.622774367029677, 41.872514368330918 ], [ -87.62264860288991, 41.872500990046433 ] ] } },
{ "type": "Feature", "properties": { "weight": 32.970562748477143, "nodes": "68-76" }, "geometry": { "type": "LineString", "coordinates": [ [ -87.62264860288991, 41.872500990046433 ], [ -87.622612670278542, 41.872440787731655 ], [ -87.622612670278542, 41.872380585360176 ], [ -87.622531821902982, 41.872320382931989 ] ] } },
{ "type": "Feature", "properties": { "weight": 17.378203601230744, "nodes": "69-73" }, "geometry": { "type": "LineString", "coordinates": [ [ -87.624202688331437, 41.872414031129111 ], [ -87.624103873650185, 41.872347139573741 ], [ -87.624112856803023, 41.872333761254268 ] ] } },
{ "type": "Feature", "properties": { "weight": 64.071067811865476, "nodes": "74-75" }, "geometry": { "type": "LineString", "coordinates": [ [ -87.627786966315071, 41.872327072093483 ], [ -87.628343921791227, 41.872320382931989 ] ] } }
]
}
