{
"type": "FeatureCollection",
"name": "gee_batch_2_34.08954_-118.24943",
"crs": { "type": "name", "properties": { "name": "urn:ogc:def:crs:OGC:1.3:CRS84" } },
"features": [
{ "type": "Feature", "properties": { "weight": 35.870057685088803, "nodes": "0-10" }, "geometry": { "type": "LineString", "coordinates": [ [ -118.25181374077701, 34.093342741705357 ], [ -118.251750858707112, 34.093312984989439 ], [ -118.251616111414506, 34.093156762059266 ] ] } },
{ "type": "Feature", "properties": { "weight": 84.355339059327378, "nodes": "1-10" }, "geometry": { "type": "LineString", "coordinates": [ [ -118.250951358104246, 34.093342741705357 ], [ -118.251211869536633, 34.093312984989439 ], [ -118.251544246191742, 34.093164201252961 ], [ -118.251616111414506, 34.093156762059266 ] ] } },
{ "type": "Feature", "properties": { "weight": 75.355339059327378, "nodes": "4-11" }, "geometry": { "type": "LineString", "coordinates": [ [ -118.250178806959894, 34.093342741705357 ], [ -118.249972194444553, 34.093312984989439 ], [ -118.249729649317842, 34.093193958021175 ], [ -118.249594902025223, 34.093156762059266 ] ] } },
{ "type": "Feature", "properties": { "weight": 32.798989873223327, "nodes": "5-11" }, "geometry": { "type": "LineString", "coordinates": [ [ -118.249451171579764, 34.093342741705357 ], [ -118.249496087343971, 34.093320424169399 ], [ -118.249594902025223, 34.093156762059266 ] ] } },
{ "type": "Feature", "properties": { "weight": 36.970562748477136, "nodes": "6-8" }, "geometry": { "type": "LineString", "coordinates": [ [ -118.247663524164366, 34.093342741705357 ], [ -118.247474877954701, 34.093312984989439 ], [ -118.247394029579127, 34.093238593153892 ] ] } },
{ "type": "Feature", "properties": { "weight": 461.52900397563428, "nodes": "7-31" }, "geometry": { "type": "LineString", "coordinates": [ [ -118.250852543422994, 34.093312984989439 ], [ -118.250852543422994, 34.093268349895951 ], [ -118.2508974591872, 34.093186518830102 ], [ -118.251265768453678, 34.092576502937192 ], [ -118.251849673388364, 34.091654031529487 ], [ -118.252523409851435, 34.090515806987113 ], [ -118.252577308768494, 34.090471170418688 ] ] } },
{ "type": "Feature", "properties": { "weight": 78.526911934581179, "nodes": "9-13" }, "geometry": { "type": "LineString", "coordinates": [ [ -118.248247429099052, 34.093179079638368 ], [ -118.248382176391672, 34.092851754555099 ], [ -118.248418109003026, 34.09270297000792 ], [ -118.248454041614394, 34.092665773830262 ] ] } },
{ "type": "Feature", "properties": { "weight": 142.33809511662432, "nodes": "10-14" }, "geometry": { "type": "LineString", "coordinates": [ [ -118.251616111414506, 34.093156762059266 ], [ -118.251670010331551, 34.093104687685141 ], [ -118.252415612017344, 34.092777362314195 ], [ -118.252568325615641, 34.092695530773696 ], [ -118.252622224532686, 34.092643456115823 ] ] } },
{ "type": "Feature", "properties": { "weight": 5.0, "nodes": "11-12" }, "geometry": { "type": "LineString", "coordinates": [ [ -118.249594902025223, 34.093156762059266 ], [ -118.249594902025223, 34.093119566081015 ] ] } },
{ "type": "Feature", "properties": { "weight": 199.71629871785501, "nodes": "12-19" }, "geometry": { "type": "LineString", "coordinates": [ [ -118.249594902025223, 34.093119566081015 ], [ -118.249927278680346, 34.092524428206097 ], [ -118.250268638488308, 34.091988800541159 ], [ -118.250295587946823, 34.091877211017696 ] ] } },
{ "type": "Feature", "properties": { "weight": 151.91073613501223, "nodes": "12-13" }, "geometry": { "type": "LineString", "coordinates": [ [ -118.249594902025223, 34.093119566081015 ], [ -118.249487104191132, 34.093097248486224 ], [ -118.248678620435413, 34.092740166169229 ], [ -118.248454041614394, 34.092665773830262 ] ] } },
{ "type": "Feature", "properties": { "weight": 6.0, "nodes": "13-15" }, "geometry": { "type": "LineString", "coordinates": [ [ -118.248454041614394, 34.092665773830262 ], [ -118.248454041614394, 34.092621138395486 ] ] } },
{ "type": "Feature", "properties": { "weight": 136.36753236814715, "nodes": "14-16" }, "geometry": { "type": "LineString", "coordinates": [ [ -118.252622224532686, 34.092643456115823 ], [ -118.252774938131012, 34.092621138395486 ], [ -118.253197146314548, 34.09244259642108 ], [ -118.253574438733864, 34.092271493342217 ], [ -118.253610371345232, 34.092211979146761 ] ] } },
{ "type": "Feature", "properties": { "weight": 134.95331880577407, "nodes": "14-21" }, "geometry": { "type": "LineString", "coordinates": [ [ -118.252622224532686, 34.092643456115823 ], [ -118.252640190838378, 34.092516988956177 ], [ -118.252667140296893, 34.092464914188476 ], [ -118.253017483257722, 34.091892089629326 ], [ -118.253098331633296, 34.091802817920339 ] ] } },
{ "type": "Feature", "properties": { "weight": 134.78174593052029, "nodes": "15-17" }, "geometry": { "type": "LineString", "coordinates": [ [ -118.248454041614394, 34.092621138395486 ], [ -118.248319294321774, 34.092591381425912 ], [ -118.24772640623425, 34.092345886027694 ], [ -118.247510810566069, 34.092249175523825 ], [ -118.247465894801863, 34.092197100591363 ] ] } },
{ "type": "Feature", "properties": { "weight": 193.7228714274745, "nodes": "15-22" }, "geometry": { "type": "LineString", "coordinates": [ [ -118.248454041614394, 34.092621138395486 ], [ -118.248516923684278, 34.0924797926968 ], [ -118.249118794924627, 34.091497805537649 ], [ -118.249145744383156, 34.091468048173176 ], [ -118.249199643300202, 34.091453169487018 ] ] } },
{ "type": "Feature", "properties": { "weight": 69.740115370177605, "nodes": "16-20" }, "geometry": { "type": "LineString", "coordinates": [ [ -118.253610371345232, 34.092211979146761 ], [ -118.253709186026484, 34.092189661312688 ], [ -118.253996646917415, 34.091936725448519 ], [ -118.254023596375944, 34.091869771710904 ] ] } },
{ "type": "Feature", "properties": { "weight": 88.568542494923804, "nodes": "16-21" }, "geometry": { "type": "LineString", "coordinates": [ [ -118.253610371345232, 34.092211979146761 ], [ -118.253475624052612, 34.092003679133164 ], [ -118.253394775677037, 34.091921846844734 ], [ -118.253098331633296, 34.091802817920339 ] ] } },
{ "type": "Feature", "properties": { "weight": 354.95388877109099, "nodes": "17-35" }, "geometry": { "type": "LineString", "coordinates": [ [ -118.247465894801863, 34.092197100591363 ], [ -118.247708439928573, 34.091802817920339 ], [ -118.247780305151295, 34.091646592203084 ], [ -118.248813367728033, 34.090017363970532 ] ] } },
{ "type": "Feature", "properties": { "weight": 151.08888171988551, "nodes": "19-26" }, "geometry": { "type": "LineString", "coordinates": [ [ -118.250295587946823, 34.091877211017696 ], [ -118.250367453169545, 34.091840014477192 ], [ -118.250529149920709, 34.09160195623091 ], [ -118.250852543422994, 34.091066322729041 ], [ -118.250870509728671, 34.090962171376766 ] ] } },
{ "type": "Feature", "properties": { "weight": 145.25388188551983, "nodes": "19-22" }, "geometry": { "type": "LineString", "coordinates": [ [ -118.250295587946823, 34.091877211017696 ], [ -118.250196773265571, 34.091854893095352 ], [ -118.249487104191132, 34.091542441564734 ], [ -118.249199643300202, 34.091453169487018 ] ] } },
{ "type": "Feature", "properties": { "weight": 136.64523090598959, "nodes": "21-24" }, "geometry": { "type": "LineString", "coordinates": [ [ -118.253098331633296, 34.091802817920339 ], [ -118.25313426424465, 34.091706106796039 ], [ -118.253331893607154, 34.091401094064871 ], [ -118.253691219720793, 34.091088640859283 ], [ -118.253745118637838, 34.091006807686291 ] ] } },
{ "type": "Feature", "properties": { "weight": 157.08888171988551, "nodes": "22-30" }, "geometry": { "type": "LineString", "coordinates": [ [ -118.249199643300202, 34.091453169487018 ], [ -118.249226592758717, 34.091311821838104 ], [ -118.249487104191132, 34.090872898687124 ], [ -118.249702699859313, 34.090530685838011 ], [ -118.249774565082049, 34.090493488705839 ] ] } },
{ "type": "Feature", "properties": { "weight": 25.549776476484549, "nodes": "23-25" }, "geometry": { "type": "LineString", "coordinates": [ [ -118.254023596375944, 34.091163034584262 ], [ -118.25394274800037, 34.090999368303009 ] ] } },
{ "type": "Feature", "properties": { "weight": 22.414213562373096, "nodes": "24-25" }, "geometry": { "type": "LineString", "coordinates": [ [ -118.253745118637838, 34.091006807686291 ], [ -118.25394274800037, 34.090999368303009 ] ] } },
{ "type": "Feature", "properties": { "weight": 160.23101734361646, "nodes": "24-31" }, "geometry": { "type": "LineString", "coordinates": [ [ -118.253745118637838, 34.091006807686291 ], [ -118.253664270262277, 34.090939853213179 ], [ -118.252613241379848, 34.090500928133579 ], [ -118.252577308768494, 34.090471170418688 ] ] } },
{ "type": "Feature", "properties": { "weight": 35.727922061357852, "nodes": "25-27" }, "geometry": { "type": "LineString", "coordinates": [ [ -118.25394274800037, 34.090999368303009 ], [ -118.254023596375944, 34.090761307692674 ] ] } },
{ "type": "Feature", "properties": { "weight": 158.74573596937785, "nodes": "26-34" }, "geometry": { "type": "LineString", "coordinates": [ [ -118.250870509728671, 34.090962171376766 ], [ -118.250960341257084, 34.090924974434188 ], [ -118.251454414663343, 34.090062000778225 ], [ -118.251499330427549, 34.090017363970532 ] ] } },
{ "type": "Feature", "properties": { "weight": 88.561969785304314, "nodes": "26-28" }, "geometry": { "type": "LineString", "coordinates": [ [ -118.250870509728671, 34.090962171376766 ], [ -118.250268638488308, 34.090709231844926 ], [ -118.250223722724101, 34.090672034791204 ] ] } },
{ "type": "Feature", "properties": { "weight": 46.455844122715703, "nodes": "28-32" }, "geometry": { "type": "LineString", "coordinates": [ [ -118.250223722724101, 34.090672034791204 ], [ -118.250385419475236, 34.090381897211259 ] ] } },
{ "type": "Feature", "properties": { "weight": 59.762979912080979, "nodes": "28-30" }, "geometry": { "type": "LineString", "coordinates": [ [ -118.250223722724101, 34.090672034791204 ], [ -118.250169823807056, 34.090664595378499 ], [ -118.249774565082049, 34.090493488705839 ] ] } },
{ "type": "Feature", "properties": { "weight": 231.52186130069788, "nodes": "29-48" }, "geometry": { "type": "LineString", "coordinates": [ [ -118.247340130662081, 34.090567882953842 ], [ -118.24737606327345, 34.090411654957528 ], [ -118.247555726330276, 34.090143834864527 ], [ -118.247762338845618, 34.0897793005987 ], [ -118.247933018749592, 34.089541236557416 ], [ -118.248040816583682, 34.089332929972137 ], [ -118.248148614417772, 34.089169260152708 ], [ -118.248193530182007, 34.089146941516454 ] ] } },
{ "type": "Feature", "properties": { "weight": 141.94112549695427, "nodes": "30-41" }, "geometry": { "type": "LineString", "coordinates": [ [ -118.249774565082049, 34.090493488705839 ], [ -118.249792531387726, 34.090381897211259 ], [ -118.249918295527507, 34.090076879708889 ], [ -118.249981177597391, 34.089667708162708 ], [ -118.249972194444553, 34.08951147850518 ] ] } },
{ "type": "Feature", "properties": { "weight": 383.2031021678298, "nodes": "31-56" }, "geometry": { "type": "LineString", "coordinates": [ [ -118.252577308768494, 34.090471170418688 ], [ -118.252640190838378, 34.090381897211259 ], [ -118.252792904436703, 34.090233108323005 ], [ -118.252828837048057, 34.090158713780809 ], [ -118.252927651729308, 34.090047121844947 ], [ -118.252954601187838, 34.089838816504418 ], [ -118.253044432716251, 34.089771861107536 ], [ -118.253125281091812, 34.089548676068837 ], [ -118.253179180008857, 34.08948915995915 ], [ -118.253385792524199, 34.089087425124333 ], [ -118.253493590358289, 34.088946073525378 ], [ -118.253736135484999, 34.088774963379301 ], [ -118.253816983860574, 34.088670809208011 ], [ -118.253987663764576, 34.088395543995659 ], [ -118.254023596375944, 34.088142596795237 ] ] } },
{ "type": "Feature", "properties": { "weight": 145.26702730475884, "nodes": "31-34" }, "geometry": { "type": "LineString", "coordinates": [ [ -118.252577308768494, 34.090471170418688 ], [ -118.252541376157126, 34.090441412693345 ], [ -118.25246951093439, 34.090426533826751 ], [ -118.251499330427549, 34.090017363970532 ] ] } },
{ "type": "Feature", "properties": { "weight": 60.597979746446654, "nodes": "33-36" }, "geometry": { "type": "LineString", "coordinates": [ [ -118.250457284697987, 34.090062000778225 ], [ -118.250556099379239, 34.089868574441596 ], [ -118.250708812977535, 34.089697466160018 ] ] } },
{ "type": "Feature", "properties": { "weight": 563.39810955030396, "nodes": "34-65" }, "geometry": { "type": "LineString", "coordinates": [ [ -118.251499330427549, 34.090017363970532 ], [ -118.251526279886065, 34.090002485029402 ], [ -118.251544246191742, 34.089942969238749 ], [ -118.251912555458247, 34.08931805091072 ], [ -118.252020353292352, 34.089169260152708 ], [ -118.252945618035, 34.08762182076768 ], [ -118.253358843065683, 34.08697456609729 ], [ -118.253367826218522, 34.086900168691685 ], [ -118.253349859912845, 34.086870409711132 ], [ -118.253277994690109, 34.086818331470006 ], [ -118.253008500104883, 34.086691855608173 ], [ -118.252981550646354, 34.086662096554413 ] ] } },
{ "type": "Feature", "properties": { "weight": 105.63303759716977, "nodes": "34-36" }, "geometry": { "type": "LineString", "coordinates": [ [ -118.251499330427549, 34.090017363970532 ], [ -118.250771695047419, 34.089704905657712 ], [ -118.250708812977535, 34.089697466160018 ] ] } },
{ "type": "Feature", "properties": { "weight": 96.969610638057901, "nodes": "36-43" }, "geometry": { "type": "LineString", "coordinates": [ [ -118.250708812977535, 34.089697466160018 ], [ -118.250663897213329, 34.089645389657854 ], [ -118.250484234156517, 34.089570994599192 ], [ -118.250169823807056, 34.089444522849419 ], [ -118.24999016075023, 34.089407325240003 ] ] } },
{ "type": "Feature", "properties": { "weight": 43.89949493661166, "nodes": "37-44" }, "geometry": { "type": "LineString", "coordinates": [ [ -118.251184920078103, 34.089667708162708 ], [ -118.251220852689471, 34.089608192136694 ], [ -118.251220852689471, 34.089526357532606 ], [ -118.251202886383794, 34.089504038990491 ], [ -118.251211869536633, 34.089362688087128 ] ] } },
{ "type": "Feature", "properties": { "weight": 23.727922061357855, "nodes": "38-39" }, "geometry": { "type": "LineString", "coordinates": [ [ -118.249424222121249, 34.089645389657854 ], [ -118.249388289509881, 34.089585873616151 ], [ -118.249280491675762, 34.089548676068837 ] ] } },
{ "type": "Feature", "properties": { "weight": 14.828427124746192, "nodes": "41-43" }, "geometry": { "type": "LineString", "coordinates": [ [ -118.249972194444553, 34.08951147850518 ], [ -118.24999016075023, 34.089407325240003 ] ] } },
{ "type": "Feature", "properties": { "weight": 50.520339224961688, "nodes": "42-47" }, "geometry": { "type": "LineString", "coordinates": [ [ -118.249190660147363, 34.089451962369345 ], [ -118.249190660147363, 34.08939244619166 ], [ -118.249361340051365, 34.089139501969726 ] ] } },
{ "type": "Feature", "properties": { "weight": 7.0, "nodes": "43-45" }, "geometry": { "type": "LineString", "coordinates": [ [ -118.24999016075023, 34.089407325240003 ], [ -118.24999016075023, 34.089355248559357 ] ] } },
{ "type": "Feature", "properties": { "weight": 153.61017305526644, "nodes": "44-49" }, "geometry": { "type": "LineString", "coordinates": [ [ -118.251211869536633, 34.089362688087128 ], [ -118.251131021161058, 34.089355248559357 ], [ -118.251014240174129, 34.089310611379027 ], [ -118.250178806959894, 34.088953513089102 ], [ -118.250044059667275, 34.088938633961007 ] ] } },
{ "type": "Feature", "properties": { "weight": 172.14213562373095, "nodes": "44-57" }, "geometry": { "type": "LineString", "coordinates": [ [ -118.251211869536633, 34.089362688087128 ], [ -118.251238818995148, 34.089288292780033 ], [ -118.251247802148001, 34.088626171666803 ], [ -118.251301701065046, 34.088112838251391 ] ] } },
{ "type": "Feature", "properties": { "weight": 58.485281374238568, "nodes": "45-49" }, "geometry": { "type": "LineString", "coordinates": [ [ -118.24999016075023, 34.089355248559357 ], [ -118.250026093361598, 34.088968392214589 ], [ -118.250044059667275, 34.088938633961007 ] ] } },
{ "type": "Feature", "properties": { "weight": 82.012193308819761, "nodes": "45-47" }, "geometry": { "type": "LineString", "coordinates": [ [ -118.24999016075023, 34.089355248559357 ], [ -118.249819480846256, 34.089325490441752 ], [ -118.249460154732617, 34.089154381062521 ], [ -118.249361340051365, 34.089139501969726 ] ] } },
{ "type": "Feature", "properties": { "weight": 56.355339059327363, "nodes": "46-48" }, "geometry": { "type": "LineString", "coordinates": [ [ -118.248606755212691, 34.089332929972137 ], [ -118.248193530182007, 34.089146941516454 ] ] } },
{ "type": "Feature", "properties": { "weight": 108.29646455628165, "nodes": "47-52" }, "geometry": { "type": "LineString", "coordinates": [ [ -118.249361340051365, 34.089139501969726 ], [ -118.249316424287159, 34.089087425124333 ], [ -118.248696586741104, 34.088819600842051 ], [ -118.24861573836553, 34.088737765475692 ] ] } },
{ "type": "Feature", "properties": { "weight": 66.005620599200256, "nodes": "48-51" }, "geometry": { "type": "LineString", "coordinates": [ [ -118.248193530182007, 34.089146941516454 ], [ -118.248193530182007, 34.089109743776284 ], [ -118.248436075308717, 34.088737765475692 ] ] } },
{ "type": "Feature", "properties": { "weight": 173.45584412271572, "nodes": "49-58" }, "geometry": { "type": "LineString", "coordinates": [ [ -118.250044059667275, 34.088938633961007 ], [ -118.250035076514436, 34.088834479991071 ], [ -118.250088975431481, 34.088202113851565 ], [ -118.250151857501365, 34.087778053912302 ], [ -118.250187790112733, 34.087703657212728 ] ] } },
{ "type": "Feature", "properties": { "weight": 46.798989873223327, "nodes": "50-53" }, "geometry": { "type": "LineString", "coordinates": [ [ -118.247313181203566, 34.088789842536158 ], [ -118.247340130662081, 34.088670809208011 ], [ -118.247438945343333, 34.088484819297733 ] ] } },
{ "type": "Feature", "properties": { "weight": 20.0, "nodes": "51-52" }, "geometry": { "type": "LineString", "coordinates": [ [ -118.24861573836553, 34.088737765475692 ], [ -118.248436075308717, 34.088737765475692 ] ] } },
{ "type": "Feature", "properties": { "weight": 128.49747468305833, "nodes": "51-53" }, "geometry": { "type": "LineString", "coordinates": [ [ -118.248436075308717, 34.088737765475692 ], [ -118.24837319323882, 34.088670809208011 ], [ -118.248157597570611, 34.088596413292926 ], [ -118.247681490470043, 34.088477379692819 ], [ -118.247438945343333, 34.088484819297733 ] ] } },
{ "type": "Feature", "properties": { "weight": 213.10107502870525, "nodes": "52-61" }, "geometry": { "type": "LineString", "coordinates": [ [ -118.24861573836553, 34.088737765475692 ], [ -118.248660654129736, 34.088633611258643 ], [ -118.248813367728033, 34.088417862830006 ], [ -118.249424222121249, 34.087428388855862 ] ] } },
{ "type": "Feature", "properties": { "weight": 45.035057850723121, "nodes": "53-54" }, "geometry": { "type": "LineString", "coordinates": [ [ -118.247438945343333, 34.088484819297733 ], [ -118.247331147509243, 34.088358345925343 ], [ -118.247322164356405, 34.088216993109107 ], [ -118.247340130662081, 34.08819467422181 ] ] } },
{ "type": "Feature", "properties": { "weight": 116.98275605729691, "nodes": "54-60" }, "geometry": { "type": "LineString", "coordinates": [ [ -118.247340130662081, 34.08819467422181 ], [ -118.247528776871746, 34.088216993109107 ], [ -118.247600642094469, 34.088172355328631 ], [ -118.247744372539927, 34.087911967806797 ], [ -118.24786115352687, 34.08776317457761 ], [ -118.247888102985385, 34.087644139805995 ] ] } },
{ "type": "Feature", "properties": { "weight": 146.78174593052026, "nodes": "57-58" }, "geometry": { "type": "LineString", "coordinates": [ [ -118.251301701065046, 34.088112838251391 ], [ -118.251175936925264, 34.088097958975538 ], [ -118.250708812977535, 34.087897088495644 ], [ -118.250187790112733, 34.087703657212728 ] ] } },
{ "type": "Feature", "properties": { "weight": 273.99551933143368, "nodes": "57-66" }, "geometry": { "type": "LineString", "coordinates": [ [ -118.251301701065046, 34.088112838251391 ], [ -118.251319667370723, 34.087993803971386 ], [ -118.251409498899136, 34.087852450546499 ], [ -118.25278392128385, 34.086781132706719 ], [ -118.252891719117954, 34.086662096554413 ] ] } },
{ "type": "Feature", "properties": { "weight": 3.0, "nodes": "58-59" }, "geometry": { "type": "LineString", "coordinates": [ [ -118.250187790112733, 34.087703657212728 ], [ -118.250187790112733, 34.087681338190102 ] ] } },
{ "type": "Feature", "properties": { "weight": 98.90511553581193, "nodes": "59-61" }, "geometry": { "type": "LineString", "coordinates": [ [ -118.250187790112733, 34.087681338190102 ], [ -118.250044059667275, 34.087644139805995 ], [ -118.249549986261016, 34.087443268249388 ], [ -118.249424222121249, 34.087428388855862 ] ] } },
{ "type": "Feature", "properties": { "weight": 133.75230867899739, "nodes": "59-62" }, "geometry": { "type": "LineString", "coordinates": [ [ -118.250187790112733, 34.087681338190102 ], [ -118.250250672182617, 34.087532544555607 ], [ -118.250358470016707, 34.087361431552651 ], [ -118.250574065684916, 34.087123360712404 ], [ -118.250762711894581, 34.086967126359667 ], [ -118.250798644505949, 34.086900168691685 ] ] } },
{ "type": "Feature", "properties": { "weight": 183.96551211459382, "nodes": "61-63" }, "geometry": { "type": "LineString", "coordinates": [ [ -118.249424222121249, 34.087428388855862 ], [ -118.249379306357042, 34.087368871255627 ], [ -118.248714553046781, 34.087078722355322 ], [ -118.248427092155865, 34.086922487920226 ], [ -118.248103698653566, 34.086796012214002 ] ] } },
{ "type": "Feature", "properties": { "weight": 148.10107502870534, "nodes": "62-71" }, "geometry": { "type": "LineString", "coordinates": [ [ -118.250798644505949, 34.086900168691685 ], [ -118.250915425492877, 34.086855530216937 ], [ -118.251562212497433, 34.086371945232024 ], [ -118.251687976637228, 34.086260348304805 ], [ -118.251732892401435, 34.086178510464698 ] ] } },
{ "type": "Feature", "properties": { "weight": 80.154328932550712, "nodes": "62-68" }, "geometry": { "type": "LineString", "coordinates": [ [ -118.250798644505949, 34.086900168691685 ], [ -118.250690846671858, 34.086825771220695 ], [ -118.250529149920709, 34.086766253196835 ], [ -118.250223722724101, 34.086610018185148 ] ] } },
{ "type": "Feature", "properties": { "weight": 75.80461047242359, "nodes": "64-69" }, "geometry": { "type": "LineString", "coordinates": [ [ -118.247286231745036, 34.086729054410682 ], [ -118.247313181203566, 34.086647217023604 ], [ -118.247358096967773, 34.086595138645194 ], [ -118.247546743177423, 34.086409144175072 ], [ -118.247636574705837, 34.086334746272627 ], [ -118.247690473622882, 34.086319866684299 ] ] } },
{ "type": "Feature", "properties": { "weight": 136.20815280171314, "nodes": "65-73" }, "geometry": { "type": "LineString", "coordinates": [ [ -118.252981550646354, 34.086662096554413 ], [ -118.253035449563399, 34.08657281933035 ], [ -118.253691219720793, 34.086066913282529 ], [ -118.253763084943529, 34.086007394725222 ], [ -118.253790034402044, 34.085947876126085 ] ] } },
{ "type": "Feature", "properties": { "weight": 10.0, "nodes": "65-66" }, "geometry": { "type": "LineString", "coordinates": [ [ -118.252981550646354, 34.086662096554413 ], [ -118.252891719117954, 34.086662096554413 ] ] } },
{ "type": "Feature", "properties": { "weight": 144.33152240700483, "nodes": "66-70" }, "geometry": { "type": "LineString", "coordinates": [ [ -118.252891719117954, 34.086662096554413 ], [ -118.252667140296893, 34.086550500009629 ], [ -118.251939504916777, 34.086252908504427 ], [ -118.251840690235525, 34.086178510464698 ] ] } },
{ "type": "Feature", "properties": { "weight": 50.455844122715703, "nodes": "67-69" }, "geometry": { "type": "LineString", "coordinates": [ [ -118.247852170374017, 34.086639777257218 ], [ -118.247798271456972, 34.086535620459209 ], [ -118.247771321998457, 34.086424023747718 ], [ -118.247735389387088, 34.086357065650226 ], [ -118.247690473622882, 34.086319866684299 ] ] } },
{ "type": "Feature", "properties": { "weight": 77.468037431535478, "nodes": "69-74" }, "geometry": { "type": "LineString", "coordinates": [ [ -118.247690473622882, 34.086319866684299 ], [ -118.24769945677572, 34.086290107499778 ], [ -118.247870136679708, 34.086118991985842 ], [ -118.248103698653566, 34.085918116810831 ], [ -118.248139631264934, 34.085910676980376 ] ] } },
{ "type": "Feature", "properties": { "weight": 98.781745930520245, "nodes": "70-78" }, "geometry": { "type": "LineString", "coordinates": [ [ -118.251840690235525, 34.086178510464698 ], [ -118.251867639694055, 34.086126431797993 ], [ -118.252307814183254, 34.085776759920506 ], [ -118.252478494087242, 34.085732120853486 ] ] } },
{ "type": "Feature", "properties": { "weight": 12.0, "nodes": "70-71" }, "geometry": { "type": "LineString", "coordinates": [ [ -118.251840690235525, 34.086178510464698 ], [ -118.251732892401435, 34.086178510464698 ] ] } },
{ "type": "Feature", "properties": { "weight": 141.85281374238576, "nodes": "71-79" }, "geometry": { "type": "LineString", "coordinates": [ [ -118.251732892401435, 34.086178510464698 ], [ -118.250852543422994, 34.085769320077638 ], [ -118.250681863519006, 34.085732120853486 ] ] } },
{ "type": "Feature", "properties": { "weight": 110.52033922496169, "nodes": "72-74" }, "geometry": { "type": "LineString", "coordinates": [ [ -118.249055912854743, 34.086066913282529 ], [ -118.248687603588266, 34.086029714189117 ], [ -118.248454041614394, 34.085955315953271 ], [ -118.248184547029169, 34.085932996469765 ], [ -118.248139631264934, 34.085910676980376 ] ] } },
{ "type": "Feature", "properties": { "weight": 39.455844122715703, "nodes": "73-75" }, "geometry": { "type": "LineString", "coordinates": [ [ -118.253790034402044, 34.085947876126085 ], [ -118.253879865930486, 34.085925556640625 ], [ -118.253978680611738, 34.085851158313261 ], [ -118.254023596375944, 34.085769320077638 ] ] } },
{ "type": "Feature", "properties": { "weight": 43.769552621700477, "nodes": "73-76" }, "geometry": { "type": "LineString", "coordinates": [ [ -118.253790034402044, 34.085947876126085 ], [ -118.253574438733864, 34.085754440389941 ], [ -118.25351155666398, 34.085739560699622 ] ] } },
{ "type": "Feature", "properties": { "weight": 36.620844288350021, "nodes": "74-77" }, "geometry": { "type": "LineString", "coordinates": [ [ -118.248139631264934, 34.085910676980376 ], [ -118.248220479640523, 34.085776759920506 ], [ -118.248274378557568, 34.085747000545112 ], [ -118.248337260627466, 34.085739560699622 ] ] } }
]
}
