{
"type": "FeatureCollection",
"name": "gee_batch_9_30.30919_-97.71885",
"crs": { "type": "name", "properties": { "name": "urn:ogc:def:crs:OGC:1.3:CRS84" } },
"features": [
{ "type": "Feature", "properties": { "name": "road_network" }, "geometry": { "type": "MultiLineString", "coordinates": [ [ [ -97.7229389287765, 30.313158440613101 ], [ -97.722974861387868, 30.313142930665641 ], [ -97.723100625527636, 30.312918036151473 ], [ -97.723109608680474, 30.312863751191422 ] ], [ [ -97.721825017824187, 30.313158440613101 ], [ -97.721887899894071, 30.313127420715709 ], [ -97.722085529256574, 30.312716406148269 ], [ -97.722256209160562, 30.312460490546794 ] ], [ [ -97.721708236837259, 30.313158440613101 ], [ -97.721663321073038, 30.313158440613101 ], [ -97.721420775946328, 30.313034360964608 ] ], [ [ -97.719372617098529, 30.313158440613101 ], [ -97.719435499168441, 30.31311966573983 ], [ -97.719489398085486, 30.313042115947244 ], [ -97.71966007798946, 30.312724161156066 ] ], [ [ -97.7182317566877, 30.313158440613101 ], [ -97.718312605063289, 30.31311966573983 ], [ -97.718842611080902, 30.312313144897335 ] ], [ [ -97.717872430574062, 30.313158440613101 ], [ -97.717629885447337, 30.31311966573983 ], [ -97.717486155001893, 30.313042115947244 ], [ -97.717270559333699, 30.312964566093296 ], [ -97.717243609875183, 30.312933546134538 ] ], [ [ -97.71701903105415, 30.313158440613101 ], [ -97.717117845735402, 30.313111910763329 ], [ -97.717243609875183, 30.312933546134538 ] ], [ [ -97.715932069560353, 30.313158440613101 ], [ -97.716012917935927, 30.31311966573983 ], [ -97.716309361979697, 30.312584570921874 ], [ -97.716318345132535, 30.312530285777108 ], [ -97.716363260896742, 30.312491510655292 ] ], [ [ -97.71553681083536, 30.313158440613101 ], [ -97.715662574975127, 30.31307313587164 ], [ -97.715725457045011, 30.312258859602217 ] ], [ [ -97.717243609875183, 30.312933546134538 ], [ -97.717522087613247, 30.31253804079963 ], [ -97.717944295796798, 30.311871106619762 ] ], [ [ -97.717243609875183, 30.312933546134538 ], [ -97.716363260896742, 30.312491510655292 ] ], [ [ -97.720136185090041, 30.312894771172271 ], [ -97.720217033465616, 30.312956811104527 ], [ -97.72056737642643, 30.31311966573983 ], [ -97.720666191107682, 30.313111910763329 ], [ -97.721043483526998, 30.312514775730222 ], [ -97.721223146583824, 30.312266614646219 ], [ -97.721268062348031, 30.3121890641786 ], [ -97.721286028653722, 30.312096003536443 ] ], [ [ -97.720136185090041, 30.312894771172271 ], [ -97.720333814452545, 30.312569060883586 ] ], [ [ -97.720136185090041, 30.312894771172271 ], [ -97.720037370408789, 30.312871506187548 ], [ -97.71976787582355, 30.312739671169808 ], [ -97.71966007798946, 30.312724161156066 ] ], [ [ -97.723109608680474, 30.312863751191422 ], [ -97.723145541291842, 30.312855996194671 ], [ -97.723226389667417, 30.312778446193441 ] ], [ [ -97.723109608680474, 30.312863751191422 ], [ -97.72304672661059, 30.312817221201723 ], [ -97.722804181483866, 30.312724161156066 ], [ -97.722714349955467, 30.312662121076531 ], [ -97.722256209160562, 30.312460490546794 ] ], [ [ -97.71966007798946, 30.312724161156066 ], [ -97.719606179072414, 30.312654366063825 ], [ -97.719471431779795, 30.312584570921874 ], [ -97.718941425762168, 30.312328654976135 ], [ -97.718842611080902, 30.312313144897335 ] ], [ [ -97.717980228408152, 30.312724161156066 ], [ -97.718384470286011, 30.312080493420826 ] ], [ [ -97.714422899883047, 30.31266987608862 ], [ -97.714458832494415, 30.312724161156066 ], [ -97.714566630328505, 30.312778446193441 ], [ -97.715105619498971, 30.31302660598136 ], [ -97.715267316250106, 30.31307313587164 ], [ -97.715321215167151, 30.312747426175761 ], [ -97.715348164625681, 30.3121890641786 ], [ -97.71537511408421, 30.312119268705274 ] ], [ [ -97.714422899883047, 30.31266987608862 ], [ -97.714683411315434, 30.312220084373006 ], [ -97.714845108066569, 30.311894371841969 ] ], [ [ -97.714422899883047, 30.31266987608862 ], [ -97.714306118896104, 30.312654366063825 ], [ -97.714261203131898, 30.312584570921874 ] ], [ [ -97.716363260896742, 30.312491510655292 ], [ -97.717028014206988, 30.311483352103139 ], [ -97.717108862582549, 30.311444576567094 ] ], [ [ -97.716363260896742, 30.312491510655292 ], [ -97.716327328285374, 30.312452735518136 ], [ -97.715985968477398, 30.312305389857013 ], [ -97.715725457045011, 30.312258859602217 ] ], [ [ -97.722256209160562, 30.312460490546794 ], [ -97.722283158619092, 30.312444980488863 ], [ -97.722372990147505, 30.312274369689604 ], [ -97.723010793999222, 30.311328249866921 ] ], [ [ -97.722256209160562, 30.312460490546794 ], [ -97.721851967282717, 30.312251104557603 ], [ -97.721384843334974, 30.3120572282428 ] ], [ [ -97.718842611080902, 30.312313144897335 ], [ -97.718806678469534, 30.312258859602217 ], [ -97.718474301814425, 30.312096003536443 ], [ -97.718384470286011, 30.312080493420826 ] ], [ [ -97.715725457045011, 30.312258859602217 ], [ -97.715734440197863, 30.312204574277033 ] ], [ [ -97.715734440197863, 30.312204574277033 ], [ -97.715653591822289, 30.312158043974367 ], [ -97.715482911918315, 30.312150288921771 ], [ -97.71537511408421, 30.312119268705274 ] ], [ [ -97.715734440197863, 30.312204574277033 ], [ -97.71575240650354, 30.31217355407771 ], [ -97.715770372809217, 30.311933147200048 ] ], [ [ -97.71537511408421, 30.312119268705274 ], [ -97.71537511408421, 30.312018452933817 ] ], [ [ -97.721286028653722, 30.312096003536443 ], [ -97.721384843334974, 30.3120572282428 ] ], [ [ -97.721286028653722, 30.312096003536443 ], [ -97.721070432985528, 30.312026207996837 ], [ -97.720073303020158, 30.311529882726134 ], [ -97.719435499168441, 30.311242943532378 ], [ -97.718941425762168, 30.310994779227872 ], [ -97.718797695316695, 30.310893962299673 ], [ -97.71863599856556, 30.310831921061531 ], [ -97.71801616101952, 30.310521714281773 ], [ -97.717818531657016, 30.31044416243342 ], [ -97.717782599045648, 30.310413141676893 ] ], [ [ -97.718384470286011, 30.312080493420826 ], [ -97.718348537674643, 30.312033963059257 ], [ -97.718097009395095, 30.311909881987045 ], [ -97.717944295796798, 30.311871106619762 ] ], [ [ -97.723433002182773, 30.312072738362097 ], [ -97.723262322278771, 30.311933147200048 ], [ -97.723271305431609, 30.311894371841969 ] ], [ [ -97.721384843334974, 30.3120572282428 ], [ -97.721393826487812, 30.311979677609489 ], [ -97.721771118907142, 30.311398045903594 ], [ -97.721825017824187, 30.311250698656764 ] ], [ [ -97.71537511408421, 30.312018452933817 ], [ -97.715141552110339, 30.311987432675583 ], [ -97.714970872206365, 30.311917637058659 ], [ -97.714845108066569, 30.311894371841969 ] ], [ [ -97.71537511408421, 30.312018452933817 ], [ -97.715437996154094, 30.311483352103139 ], [ -97.715455962459771, 30.311142126859455 ], [ -97.715455962459771, 30.310994779227872 ], [ -97.715437996154094, 30.310963758645624 ] ], [ [ -97.715770372809217, 30.311933147200048 ], [ -97.715833254879101, 30.311894371841969 ], [ -97.715842238031954, 30.31186335154446 ], [ -97.715914103254676, 30.310769879784132 ], [ -97.715950035866044, 30.310661307454168 ] ], [ [ -97.715770372809217, 30.311933147200048 ], [ -97.715680541280804, 30.311855596468543 ], [ -97.715707490739334, 30.311421311238107 ], [ -97.71575240650354, 30.31119641277315 ] ], [ [ -97.714845108066569, 30.311894371841969 ], [ -97.714791209149524, 30.311840086314881 ], [ -97.714333068354634, 30.311630699000176 ], [ -97.714252219979059, 30.311522127623832 ] ], [ [ -97.717944295796798, 30.311871106619762 ], [ -97.717926329491107, 30.311832331237127 ], [ -97.717863447421223, 30.311793555839163 ], [ -97.717108862582549, 30.311444576567094 ] ], [ [ -97.723441985335612, 30.311560903129191 ], [ -97.723415035877082, 30.311514372520918 ], [ -97.723010793999222, 30.311328249866921 ] ], [ [ -97.717108862582549, 30.311444576567094 ], [ -97.717135812041079, 30.311343760101586 ], [ -97.717216660416653, 30.311219678155524 ], [ -97.71763886860019, 30.310614776418792 ], [ -97.717728700128603, 30.310451917621016 ], [ -97.717782599045648, 30.310413141676893 ] ], [ [ -97.723010793999222, 30.311328249866921 ], [ -97.723010793999222, 30.311304984510315 ] ], [ [ -97.723010793999222, 30.311304984510315 ], [ -97.723441985335612, 30.310661307454168 ] ], [ [ -97.723010793999222, 30.311304984510315 ], [ -97.722121461867943, 30.310909472603065 ] ], [ [ -97.721825017824187, 30.311250698656764 ], [ -97.721896883046924, 30.31120416790122 ], [ -97.722067562950897, 30.310948248350819 ], [ -97.722121461867943, 30.310909472603065 ] ], [ [ -97.721825017824187, 30.311250698656764 ], [ -97.721366877029283, 30.311056820362907 ], [ -97.721160264513941, 30.310917227753844 ] ], [ [ -97.715437996154094, 30.310963758645624 ], [ -97.715464945612624, 30.310948248350819 ], [ -97.715482911918315, 30.310878451993812 ], [ -97.715527827682507, 30.310118444000224 ], [ -97.71553681083536, 30.310048647052284 ], [ -97.715572743446714, 30.310025381391927 ] ], [ [ -97.715437996154094, 30.310963758645624 ], [ -97.715402063542726, 30.310963758645624 ], [ -97.715384097237049, 30.310971513792104 ], [ -97.715105619498971, 30.310917227753844 ], [ -97.714845108066569, 30.310831921061531 ], [ -97.714306118896104, 30.310583755716266 ], [ -97.714261203131898, 30.310513959099698 ] ], [ [ -97.722121461867943, 30.310909472603065 ], [ -97.722121461867943, 30.310878451993812 ] ], [ [ -97.722121461867943, 30.310878451993812 ], [ -97.722004680881014, 30.310816410745865 ] ], [ [ -97.722121461867943, 30.310878451993812 ], [ -97.72256163635717, 30.310141709638497 ], [ -97.722606552121363, 30.310071912707123 ], [ -97.722660451038422, 30.310040891832784 ] ], [ [ -97.715985968477398, 30.310544979824307 ], [ -97.716291395674006, 30.310009870948619 ], [ -97.716354277743903, 30.309971094829617 ] ], [ [ -97.721259079195192, 30.310459672807998 ], [ -97.721070432985528, 30.310622531592887 ], [ -97.721025517221321, 30.310723348800302 ], [ -97.720971618304276, 30.310769879784132 ], [ -97.720881786775863, 30.310762124621689 ], [ -97.720747039483243, 30.310723348800302 ], [ -97.720612292190637, 30.310638041939246 ], [ -97.719857707351963, 30.310296813752483 ], [ -97.719570246461046, 30.310133954426352 ] ], [ [ -97.721259079195192, 30.310459672807998 ], [ -97.721286028653722, 30.310351100134387 ], [ -97.721420775946328, 30.310079667924171 ], [ -97.721465691710534, 30.310040891832784 ], [ -97.72151959062758, 30.310025381391927 ] ], [ [ -97.717782599045648, 30.310413141676893 ], [ -97.718025144172358, 30.310017626170577 ], [ -97.718097009395095, 30.309986605279057 ] ], [ [ -97.717782599045648, 30.310413141676893 ], [ -97.717737683281456, 30.310374365717429 ], [ -97.717656834905867, 30.310351100134387 ], [ -97.717036997359827, 30.310048647052284 ], [ -97.716902250067207, 30.309994360502859 ], [ -97.716758519621749, 30.309971094829617 ] ], [ [ -97.714979855359203, 30.310351100134387 ], [ -97.714584596634182, 30.310211506520169 ], [ -97.714279169437575, 30.310040891832784 ], [ -97.714261203131898, 30.310009870948619 ] ], [ [ -97.719570246461046, 30.310133954426352 ], [ -97.719408549709897, 30.310126199213595 ], [ -97.719264819264438, 30.310025381391927 ], [ -97.719228886653084, 30.31003313661266 ] ] ] } }
]
}
