{
"type": "FeatureCollection",
"name": "gee_batch_5_32.74304_-117.16500",
"crs": { "type": "name", "properties": { "name": "urn:ogc:def:crs:OGC:1.3:CRS84" } },
"features": [
{ "type": "Feature", "properties": { "weight": 354.96399003885762, "nodes": "2-41" }, "geometry": { "type": "LineString", "coordinates": [ [ -117.169547915835579, 32.74687783038231 ], [ -117.169565882141271, 32.74662094482072 ], [ -117.169547915835579, 32.745736950610279 ], [ -117.169565882141271, 32.744293830103111 ], [ -117.169529949529903, 32.744225829083689 ] ] } },
{ "type": "Feature", "properties": { "weight": 68.242640687119277, "nodes": "3-6" }, "geometry": { "type": "LineString", "coordinates": [ [ -117.166116351450256, 32.746870274935191 ], [ -117.166673306926384, 32.74687783038231 ], [ -117.166718222690591, 32.746862719487432 ] ] } },
{ "type": "Feature", "properties": { "weight": 127.07106781186548, "nodes": "3-7" }, "geometry": { "type": "LineString", "coordinates": [ [ -117.166116351450256, 32.746870274935191 ], [ -117.165092272026357, 32.74687783038231 ], [ -117.164993457345105, 32.746862719487432 ] ] } },
{ "type": "Feature", "properties": { "weight": 233.89292222699214, "nodes": "3-33" }, "geometry": { "type": "LineString", "coordinates": [ [ -117.166116351450256, 32.746870274935191 ], [ -117.166107368297403, 32.745117393884357 ] ] } },
{ "type": "Feature", "properties": { "weight": 68.13556291411146, "nodes": "4-11" }, "geometry": { "type": "LineString", "coordinates": [ [ -117.163313607763783, 32.746870274935191 ], [ -117.16335852352799, 32.746885385828783 ], [ -117.163834630628585, 32.74687783038231 ], [ -117.163897512698469, 32.746840053140296 ] ] } },
{ "type": "Feature", "properties": { "weight": 65.307135789365262, "nodes": "4-9" }, "geometry": { "type": "LineString", "coordinates": [ [ -117.163313607763783, 32.746870274935191 ], [ -117.162801568051847, 32.746885385828783 ], [ -117.162747669134802, 32.746855164039019 ] ] } },
{ "type": "Feature", "properties": { "weight": 66.071067811865476, "nodes": "4-15" }, "geometry": { "type": "LineString", "coordinates": [ [ -117.163313607763783, 32.746870274935191 ], [ -117.163340557222313, 32.746658722155644 ], [ -117.163340557222313, 32.746386724986628 ] ] } },
{ "type": "Feature", "properties": { "weight": 120.31370849898475, "nodes": "6-12" }, "geometry": { "type": "LineString", "coordinates": [ [ -117.166718222690591, 32.746862719487432 ], [ -117.166763138454797, 32.74687783038231 ], [ -117.167652470586091, 32.746870274935191 ], [ -117.167724335808813, 32.746855164039019 ], [ -117.167751285267329, 32.746817386787406 ] ] } },
{ "type": "Feature", "properties": { "weight": 94.656854249492383, "nodes": "6-16" }, "geometry": { "type": "LineString", "coordinates": [ [ -117.166718222690591, 32.746862719487432 ], [ -117.166700256384914, 32.746160060044751 ] ] } },
{ "type": "Feature", "properties": { "weight": 124.89949493661167, "nodes": "7-11" }, "geometry": { "type": "LineString", "coordinates": [ [ -117.164993457345105, 32.746862719487432 ], [ -117.163969377921205, 32.74687783038231 ], [ -117.163897512698469, 32.746840053140296 ] ] } },
{ "type": "Feature", "properties": { "weight": 58.307135789365262, "nodes": "7-14" }, "geometry": { "type": "LineString", "coordinates": [ [ -117.164993457345105, 32.746862719487432 ], [ -117.164993457345105, 32.746439613390088 ] ] } },
{ "type": "Feature", "properties": { "weight": 209.74011537017765, "nodes": "8-26" }, "geometry": { "type": "LineString", "coordinates": [ [ -117.168604684787255, 32.746855164039019 ], [ -117.168577735328739, 32.746613389351808 ], [ -117.168496886953164, 32.746492501762148 ], [ -117.168326207049191, 32.746348947536362 ], [ -117.168272308132146, 32.746258281590364 ], [ -117.168263324979293, 32.745389394928729 ] ] } },
{ "type": "Feature", "properties": { "weight": 133.20005801635747, "nodes": "9-10" }, "geometry": { "type": "LineString", "coordinates": [ [ -117.162747669134802, 32.746855164039019 ], [ -117.162657837606389, 32.746892941274631 ], [ -117.162217663117161, 32.746892941274631 ], [ -117.161651724488166, 32.746885385828783 ], [ -117.161588842418283, 32.746847608589981 ] ] } },
{ "type": "Feature", "properties": { "weight": 229.24264068711929, "nodes": "9-32" }, "geometry": { "type": "LineString", "coordinates": [ [ -117.162747669134802, 32.746855164039019 ], [ -117.162738685981964, 32.745132505075276 ] ] } },
{ "type": "Feature", "properties": { "weight": 362.69191210021552, "nodes": "10-29" }, "geometry": { "type": "LineString", "coordinates": [ [ -117.161588842418283, 32.746847608589981 ], [ -117.161507994042722, 32.746892941274631 ], [ -117.160519847230177, 32.746900496719825 ], [ -117.160447982007454, 32.746870274935191 ], [ -117.160438998854616, 32.745192949813315 ], [ -117.160465948313131, 32.745147616263637 ] ] } },
{ "type": "Feature", "properties": { "weight": 190.65685424949237, "nodes": "10-25" }, "geometry": { "type": "LineString", "coordinates": [ [ -117.161588842418283, 32.746847608589981 ], [ -117.161588842418283, 32.745419617215724 ] ] } },
{ "type": "Feature", "properties": { "weight": 228.82842712474618, "nodes": "11-35" }, "geometry": { "type": "LineString", "coordinates": [ [ -117.163897512698469, 32.746840053140296 ], [ -117.163879546392792, 32.745117393884357 ] ] } },
{ "type": "Feature", "properties": { "weight": 156.52691193458119, "nodes": "12-20" }, "geometry": { "type": "LineString", "coordinates": [ [ -117.167751285267329, 32.746817386787406 ], [ -117.167733318961652, 32.746598278412073 ], [ -117.167607554821885, 32.746084504935972 ], [ -117.167544672751987, 32.745706728430925 ] ] } },
{ "type": "Feature", "properties": { "weight": 157.65685424949237, "nodes": "13-23" }, "geometry": { "type": "LineString", "coordinates": [ [ -117.165568379126924, 32.746749387694102 ], [ -117.165568379126924, 32.745570728496951 ] ] } },
{ "type": "Feature", "properties": { "weight": 134.55634918610406, "nodes": "17-34" }, "geometry": { "type": "LineString", "coordinates": [ [ -117.164472434480302, 32.746099615962855 ], [ -117.16446345132745, 32.745933394526176 ], [ -117.164436501868934, 32.745842728157278 ], [ -117.164454468174611, 32.745495172888376 ], [ -117.164427518716096, 32.745374283781381 ], [ -117.164427518716096, 32.745117393884357 ] ] } },
{ "type": "Feature", "properties": { "weight": 52.727922061357852, "nodes": "18-24" }, "geometry": { "type": "LineString", "coordinates": [ [ -117.160995954330758, 32.745820061550639 ], [ -117.161004937483597, 32.745510284015218 ], [ -117.161040870094965, 32.74544983949248 ] ] } },
{ "type": "Feature", "properties": { "weight": 108.53253253378143, "nodes": "19-27" }, "geometry": { "type": "LineString", "coordinates": [ [ -117.169422151695812, 32.745729395066398 ], [ -117.169278421250326, 32.745706728430925 ], [ -117.16914367395772, 32.745653839592386 ], [ -117.168811297302597, 32.74546495062701 ], [ -117.168676550009977, 32.74536672820674 ], [ -117.1686585837043, 32.745328950323959 ] ] } },
{ "type": "Feature", "properties": { "weight": 74.242640687119277, "nodes": "20-21" }, "geometry": { "type": "LineString", "coordinates": [ [ -117.167544672751987, 32.745706728430925 ], [ -117.166888902594579, 32.745699172884486 ] ] } },
{ "type": "Feature", "properties": { "weight": 11.242640687119286, "nodes": "20-22" }, "geometry": { "type": "LineString", "coordinates": [ [ -117.167544672751987, 32.745706728430925 ], [ -117.167571622210517, 32.745631172937685 ] ] } },
{ "type": "Feature", "properties": { "weight": 90.254833995939038, "nodes": "22-26" }, "geometry": { "type": "LineString", "coordinates": [ [ -117.167571622210517, 32.745631172937685 ], [ -117.167760268420182, 32.745578284054289 ], [ -117.168047729311084, 32.745412061644942 ], [ -117.168263324979293, 32.745389394928729 ] ] } },
{ "type": "Feature", "properties": { "weight": 246.27769853784241, "nodes": "22-46" }, "geometry": { "type": "LineString", "coordinates": [ [ -117.167571622210517, 32.745631172937685 ], [ -117.167544672751987, 32.745600950722441 ], [ -117.167535689599148, 32.745434728355384 ], [ -117.167544672751987, 32.744301385768736 ], [ -117.167517723293471, 32.74405960415104 ], [ -117.167463824376426, 32.743825377583207 ] ] } },
{ "type": "Feature", "properties": { "weight": 63.485281374238568, "nodes": "24-25" }, "geometry": { "type": "LineString", "coordinates": [ [ -117.161040870094965, 32.74544983949248 ], [ -117.161229516304616, 32.745457395060065 ], [ -117.161400196208604, 32.745442283924255 ], [ -117.161454095125677, 32.745419617215724 ], [ -117.161588842418283, 32.745419617215724 ] ] } },
{ "type": "Feature", "properties": { "weight": 42.892922226992169, "nodes": "24-31" }, "geometry": { "type": "LineString", "coordinates": [ [ -117.161040870094965, 32.74544983949248 ], [ -117.161022903789274, 32.745412061644942 ], [ -117.161049853247803, 32.745140060669776 ] ] } },
{ "type": "Feature", "properties": { "weight": 38.57649122254147, "nodes": "25-30" }, "geometry": { "type": "LineString", "coordinates": [ [ -117.161588842418283, 32.745419617215724 ], [ -117.161588842418283, 32.745132505075276 ] ] } },
{ "type": "Feature", "properties": { "weight": 47.135562914111453, "nodes": "26-27" }, "geometry": { "type": "LineString", "coordinates": [ [ -117.168263324979293, 32.745389394928729 ], [ -117.168425021730442, 32.745336505901797 ], [ -117.1686585837043, 32.745328950323959 ] ] } },
{ "type": "Feature", "properties": { "weight": 36.627416997969519, "nodes": "27-28" }, "geometry": { "type": "LineString", "coordinates": [ [ -117.1686585837043, 32.745328950323959 ], [ -117.168694516315668, 32.745276061261158 ], [ -117.16890112883101, 32.745185394223299 ] ] } },
{ "type": "Feature", "properties": { "weight": 65.414213562373092, "nodes": "29-31" }, "geometry": { "type": "LineString", "coordinates": [ [ -117.160465948313131, 32.745147616263637 ], [ -117.161049853247803, 32.745140060669776 ] ] } },
{ "type": "Feature", "properties": { "weight": 242.30713578936528, "nodes": "29-47" }, "geometry": { "type": "LineString", "coordinates": [ [ -117.160465948313131, 32.745147616263637 ], [ -117.160438998854616, 32.745094727093175 ], [ -117.160447982007454, 32.743356922600292 ], [ -117.160465948313131, 32.743334255361219 ] ] } },
{ "type": "Feature", "properties": { "weight": 60.162277660168378, "nodes": "30-31" }, "geometry": { "type": "LineString", "coordinates": [ [ -117.161588842418283, 32.745132505075276 ], [ -117.161049853247803, 32.745140060669776 ] ] } },
{ "type": "Feature", "properties": { "weight": 129.47870866461906, "nodes": "30-32" }, "geometry": { "type": "LineString", "coordinates": [ [ -117.162738685981964, 32.745132505075276 ], [ -117.161588842418283, 32.745132505075276 ] ] } },
{ "type": "Feature", "properties": { "weight": 241.89292222699214, "nodes": "30-49" }, "geometry": { "type": "LineString", "coordinates": [ [ -117.161588842418283, 32.745132505075276 ], [ -117.161579859265444, 32.743576038947282 ], [ -117.161561892959767, 32.743319143865314 ] ] } },
{ "type": "Feature", "properties": { "weight": 127.82842712474618, "nodes": "32-35" }, "geometry": { "type": "LineString", "coordinates": [ [ -117.162738685981964, 32.745132505075276 ], [ -117.163628018113215, 32.745132505075276 ], [ -117.163879546392792, 32.745117393884357 ] ] } },
{ "type": "Feature", "properties": { "weight": 242.07106781186548, "nodes": "32-48" }, "geometry": { "type": "LineString", "coordinates": [ [ -117.162738685981964, 32.745132505075276 ], [ -117.162711736523434, 32.743319143865314 ] ] } },
{ "type": "Feature", "properties": { "weight": 65.242640687119291, "nodes": "33-38" }, "geometry": { "type": "LineString", "coordinates": [ [ -117.166107368297403, 32.745117393884357 ], [ -117.166682290079237, 32.745094727093175 ] ] } },
{ "type": "Feature", "properties": { "weight": 60.656854249492383, "nodes": "34-39" }, "geometry": { "type": "LineString", "coordinates": [ [ -117.164427518716096, 32.745117393884357 ], [ -117.164957524733737, 32.745087171494824 ] ] } },
{ "type": "Feature", "properties": { "weight": 61.0, "nodes": "34-35" }, "geometry": { "type": "LineString", "coordinates": [ [ -117.164427518716096, 32.745117393884357 ], [ -117.163879546392792, 32.745117393884357 ] ] } },
{ "type": "Feature", "properties": { "weight": 241.72134935173835, "nodes": "35-51" }, "geometry": { "type": "LineString", "coordinates": [ [ -117.163879546392792, 32.745117393884357 ], [ -117.163852596934262, 32.743311588116391 ] ] } },
{ "type": "Feature", "properties": { "weight": 129.07106781186548, "nodes": "38-44" }, "geometry": { "type": "LineString", "coordinates": [ [ -117.166682290079237, 32.745094727093175 ], [ -117.166673306926384, 32.744361831070627 ], [ -117.166691273232075, 32.744135160977045 ] ] } },
{ "type": "Feature", "properties": { "weight": 57.414213562373092, "nodes": "41-42" }, "geometry": { "type": "LineString", "coordinates": [ [ -117.169017909817939, 32.744233384755077 ], [ -117.169529949529903, 32.744225829083689 ] ] } },
{ "type": "Feature", "properties": { "weight": 131.07106781186548, "nodes": "42-54" }, "geometry": { "type": "LineString", "coordinates": [ [ -117.169017909817939, 32.744233384755077 ], [ -117.168990960359423, 32.743885823208046 ], [ -117.168990960359423, 32.743258697856021 ] ] } },
{ "type": "Feature", "properties": { "weight": 100.24264068711929, "nodes": "45-50" }, "geometry": { "type": "LineString", "coordinates": [ [ -117.164993457345105, 32.744052048464916 ], [ -117.164966507886575, 32.743304032366829 ] ] } },
{ "type": "Feature", "properties": { "weight": 251.18938678327385, "nodes": "46-60" }, "geometry": { "type": "LineString", "coordinates": [ [ -117.167463824376426, 32.743825377583207 ], [ -117.16752670644631, 32.743810266170598 ], [ -117.167778234725859, 32.743810266170598 ], [ -117.167823150490065, 32.743795154755418 ], [ -117.167859083101433, 32.743749820494493 ], [ -117.167912982018478, 32.743236030591973 ], [ -117.167948914629832, 32.743062248042641 ], [ -117.167993830394039, 32.742979134529662 ], [ -117.168029763005407, 32.742684458722572 ], [ -117.168110611380982, 32.742540898360957 ], [ -117.168209426062219, 32.742435116893851 ], [ -117.168290274437823, 32.742382226113214 ] ] } },
{ "type": "Feature", "properties": { "weight": 83.455844122715703, "nodes": "46-55" }, "geometry": { "type": "LineString", "coordinates": [ [ -117.167463824376426, 32.743825377583207 ], [ -117.16739195915369, 32.743598706124835 ], [ -117.167347043389498, 32.743523148843899 ], [ -117.167302127625291, 32.743251142101975 ] ] } },
{ "type": "Feature", "properties": { "weight": 123.47870866461908, "nodes": "47-49" }, "geometry": { "type": "LineString", "coordinates": [ [ -117.160465948313131, 32.743334255361219 ], [ -117.161561892959767, 32.743319143865314 ] ] } },
{ "type": "Feature", "properties": { "weight": 247.02848514110366, "nodes": "47-65" }, "geometry": { "type": "LineString", "coordinates": [ [ -117.160465948313131, 32.743334255361219 ], [ -117.160430015701778, 32.742578677425911 ], [ -117.160430015701778, 32.74155863704965 ], [ -117.160474931465984, 32.741505745748732 ] ] } },
{ "type": "Feature", "properties": { "weight": 68.0, "nodes": "48-52" }, "geometry": { "type": "LineString", "coordinates": [ [ -117.163322590916621, 32.743319143865314 ], [ -117.162711736523434, 32.743319143865314 ] ] } },
{ "type": "Feature", "properties": { "weight": 128.82842712474618, "nodes": "48-49" }, "geometry": { "type": "LineString", "coordinates": [ [ -117.162711736523434, 32.743319143865314 ], [ -117.161561892959767, 32.743319143865314 ] ] } },
{ "type": "Feature", "properties": { "weight": 245.48528137423858, "nodes": "48-68" }, "geometry": { "type": "LineString", "coordinates": [ [ -117.162711736523434, 32.743319143865314 ], [ -117.162720719676273, 32.742601344857199 ], [ -117.162693770217757, 32.741483078038733 ] ] } },
{ "type": "Feature", "properties": { "weight": 242.72134935173838, "nodes": "49-64" }, "geometry": { "type": "LineString", "coordinates": [ [ -117.161561892959767, 32.743319143865314 ], [ -117.161561892959767, 32.741792869576308 ], [ -117.16149901088987, 32.741505745748732 ] ] } },
{ "type": "Feature", "properties": { "weight": 125.06449510224597, "nodes": "50-51" }, "geometry": { "type": "LineString", "coordinates": [ [ -117.163852596934262, 32.743311588116391 ], [ -117.164966507886575, 32.743304032366829 ] ] } },
{ "type": "Feature", "properties": { "weight": 142.40491834728766, "nodes": "50-53" }, "geometry": { "type": "LineString", "coordinates": [ [ -117.164966507886575, 32.743304032366829 ], [ -117.166233132437185, 32.743288920865794 ] ] } },
{ "type": "Feature", "properties": { "weight": 247.71862684627243, "nodes": "50-70" }, "geometry": { "type": "LineString", "coordinates": [ [ -117.164966507886575, 32.743304032366829 ], [ -117.164984474192252, 32.743137805714426 ], [ -117.164975491039414, 32.741770201939339 ], [ -117.164957524733737, 32.741739978414422 ], [ -117.164948541580898, 32.741467966228861 ] ] } },
{ "type": "Feature", "properties": { "weight": 59.414213562373092, "nodes": "51-52" }, "geometry": { "type": "LineString", "coordinates": [ [ -117.163322590916621, 32.743319143865314 ], [ -117.163852596934262, 32.743311588116391 ] ] } },
{ "type": "Feature", "properties": { "weight": 244.07106781186548, "nodes": "51-66" }, "geometry": { "type": "LineString", "coordinates": [ [ -117.163852596934262, 32.743311588116391 ], [ -117.163843613781424, 32.741921319410153 ], [ -117.163879546392792, 32.741483078038733 ] ] } },
{ "type": "Feature", "properties": { "weight": 35.828427124746185, "nodes": "52-58" }, "geometry": { "type": "LineString", "coordinates": [ [ -117.163322590916621, 32.743319143865314 ], [ -117.163340557222313, 32.74305469227194 ] ] } },
{ "type": "Feature", "properties": { "weight": 121.07106781186548, "nodes": "53-55" }, "geometry": { "type": "LineString", "coordinates": [ [ -117.166233132437185, 32.743288920865794 ], [ -117.166664323773546, 32.743258697856021 ], [ -117.167302127625291, 32.743251142101975 ] ] } },
{ "type": "Feature", "properties": { "weight": 298.0365799264593, "nodes": "54-61" }, "geometry": { "type": "LineString", "coordinates": [ [ -117.168990960359423, 32.743258697856021 ], [ -117.168829263608274, 32.743251142101975 ], [ -117.168694516315668, 32.743220919079398 ], [ -117.16855078587021, 32.743145361478085 ], [ -117.168442988036119, 32.743047136500593 ], [ -117.16841603857759, 32.742994246083249 ], [ -117.16841603857759, 32.742782684099893 ], [ -117.168460954341796, 32.742525786730489 ], [ -117.168514853258841, 32.742397337768026 ], [ -117.168622651092932, 32.742246221104537 ], [ -117.168730448927036, 32.742163106830368 ], [ -117.168883162525333, 32.742079992478672 ], [ -117.168964010900893, 32.742064880770037 ], [ -117.169242488638972, 32.742072436624674 ], [ -117.169287404403164, 32.742125327589214 ], [ -117.169296387556017, 32.742215997741077 ], [ -117.169323337014532, 32.742261332782412 ] ] } },
{ "type": "Feature", "properties": { "weight": 78.97056274847715, "nodes": "54-59" }, "geometry": { "type": "LineString", "coordinates": [ [ -117.168990960359423, 32.743258697856021 ], [ -117.168999943512262, 32.742926244071946 ], [ -117.168972994053732, 32.742805351479277 ], [ -117.16890112883101, 32.742699570326131 ] ] } },
{ "type": "Feature", "properties": { "weight": 453.43354954612926, "nodes": "55-86" }, "geometry": { "type": "LineString", "coordinates": [ [ -117.167302127625291, 32.743251142101975 ], [ -117.167293144472438, 32.742465340182981 ], [ -117.167329077083807, 32.742117771739053 ], [ -117.167356026542336, 32.742027101487231 ], [ -117.16739195915369, 32.741996878049449 ], [ -117.167679420044607, 32.741490633942703 ], [ -117.168110611380982, 32.740984386959759 ], [ -117.168380105966236, 32.740803044057245 ], [ -117.168478920647487, 32.740765264239435 ], [ -117.168685533162829, 32.740735040373657 ], [ -117.168955027748055, 32.740735040373657 ], [ -117.1690089266651, 32.740750152307832 ] ] } },
{ "type": "Feature", "properties": { "weight": 221.69848480983501, "nodes": "57-75" }, "geometry": { "type": "LineString", "coordinates": [ [ -117.166215166131494, 32.743062248042641 ], [ -117.166188216672978, 32.742744905121434 ], [ -117.166098385144565, 32.742435116893851 ], [ -117.166080418838888, 32.741498189846034 ], [ -117.166035503074681, 32.741460410322958 ] ] } },
{ "type": "Feature", "properties": { "weight": 43.414213562373092, "nodes": "62-67" }, "geometry": { "type": "LineString", "coordinates": [ [ -117.163295641458106, 32.741800425454009 ], [ -117.163304624610944, 32.74147552213411 ] ] } },
{ "type": "Feature", "properties": { "weight": 135.7457359693779, "nodes": "63-86" }, "geometry": { "type": "LineString", "coordinates": [ [ -117.169592831599786, 32.741573748844139 ], [ -117.169520966377064, 32.741362183487993 ], [ -117.169098758193513, 32.740931495317987 ], [ -117.169044859276468, 32.740863491732426 ], [ -117.1690089266651, 32.740750152307832 ] ] } },
{ "type": "Feature", "properties": { "weight": 82.478708664619077, "nodes": "64-71" }, "geometry": { "type": "LineString", "coordinates": [ [ -117.16149901088987, 32.741505745748732 ], [ -117.161543926654076, 32.741490633942703 ], [ -117.16222664627, 32.74147552213411 ] ] } },
{ "type": "Feature", "properties": { "weight": 21.064495102245981, "nodes": "64-69" }, "geometry": { "type": "LineString", "coordinates": [ [ -117.16149901088987, 32.741505745748732 ], [ -117.161319347833029, 32.741483078038733 ] ] } },
{ "type": "Feature", "properties": { "weight": 96.071067811865476, "nodes": "65-69" }, "geometry": { "type": "LineString", "coordinates": [ [ -117.160474931465984, 32.741505745748732 ], [ -117.160969004872229, 32.741513301650777 ], [ -117.161211549998939, 32.741505745748732 ], [ -117.161319347833029, 32.741483078038733 ] ] } },
{ "type": "Feature", "properties": { "weight": 99.449271413096199, "nodes": "65-81" }, "geometry": { "type": "LineString", "coordinates": [ [ -117.160474931465984, 32.741505745748732 ], [ -117.160438998854616, 32.741460410322958 ], [ -117.160438998854616, 32.741120393894448 ], [ -117.160412049396086, 32.740908827461901 ], [ -117.160430015701778, 32.740863491732426 ], [ -117.160492897771661, 32.740803044057245 ] ] } },
{ "type": "Feature", "properties": { "weight": 19.650281539872886, "nodes": "66-73" }, "geometry": { "type": "LineString", "coordinates": [ [ -117.163879546392792, 32.741483078038733 ], [ -117.164050226296766, 32.741467966228861 ] ] } },
{ "type": "Feature", "properties": { "weight": 64.414213562373092, "nodes": "66-67" }, "geometry": { "type": "LineString", "coordinates": [ [ -117.163879546392792, 32.741483078038733 ], [ -117.163304624610944, 32.74147552213411 ] ] } },
{ "type": "Feature", "properties": { "weight": 21.23606797749979, "nodes": "67-74" }, "geometry": { "type": "LineString", "coordinates": [ [ -117.163304624610944, 32.74147552213411 ], [ -117.163115978401279, 32.741467966228861 ] ] } },
{ "type": "Feature", "properties": { "weight": 47.650281539872879, "nodes": "68-74" }, "geometry": { "type": "LineString", "coordinates": [ [ -117.162693770217757, 32.741483078038733 ], [ -117.163115978401279, 32.741467966228861 ] ] } },
{ "type": "Feature", "properties": { "weight": 52.414213562373092, "nodes": "68-71" }, "geometry": { "type": "LineString", "coordinates": [ [ -117.162693770217757, 32.741483078038733 ], [ -117.16222664627, 32.74147552213411 ] ] } },
{ "type": "Feature", "properties": { "weight": 90.828427124746185, "nodes": "69-80" }, "geometry": { "type": "LineString", "coordinates": [ [ -117.161319347833029, 32.741483078038733 ], [ -117.161301381527352, 32.740803044057245 ] ] } },
{ "type": "Feature", "properties": { "weight": 100.47870866461908, "nodes": "70-76" }, "geometry": { "type": "LineString", "coordinates": [ [ -117.164948541580898, 32.741467966228861 ], [ -117.16583787371215, 32.741452854416423 ] ] } },
{ "type": "Feature", "properties": { "weight": 4.0, "nodes": "70-72" }, "geometry": { "type": "LineString", "coordinates": [ [ -117.164948541580898, 32.741467966228861 ], [ -117.16491260896953, 32.741467966228861 ] ] } },
{ "type": "Feature", "properties": { "weight": 43.236067977499786, "nodes": "71-78" }, "geometry": { "type": "LineString", "coordinates": [ [ -117.16222664627, 32.74147552213411 ], [ -117.162217663117161, 32.741150617629529 ] ] } },
{ "type": "Feature", "properties": { "weight": 96.0, "nodes": "72-73" }, "geometry": { "type": "LineString", "coordinates": [ [ -117.16491260896953, 32.741467966228861 ], [ -117.164050226296766, 32.741467966228861 ] ] } },
{ "type": "Feature", "properties": { "weight": 92.071067811865476, "nodes": "72-84" }, "geometry": { "type": "LineString", "coordinates": [ [ -117.16491260896953, 32.741467966228861 ], [ -117.164903625816692, 32.740833267899959 ], [ -117.164885659511, 32.740787932132051 ] ] } },
{ "type": "Feature", "properties": { "weight": 90.414213562373092, "nodes": "73-85" }, "geometry": { "type": "LineString", "coordinates": [ [ -117.164050226296766, 32.741467966228861 ], [ -117.164041243143927, 32.740787932132051 ] ] } },
{ "type": "Feature", "properties": { "weight": 90.242640687119291, "nodes": "74-82" }, "geometry": { "type": "LineString", "coordinates": [ [ -117.163115978401279, 32.741467966228861 ], [ -117.163106995248441, 32.740795488094967 ] ] } },
{ "type": "Feature", "properties": { "weight": 22.23606797749979, "nodes": "75-76" }, "geometry": { "type": "LineString", "coordinates": [ [ -117.166035503074681, 32.741460410322958 ], [ -117.16583787371215, 32.741452854416423 ] ] } },
{ "type": "Feature", "properties": { "weight": 329.10612566258862, "nodes": "76-92" }, "geometry": { "type": "LineString", "coordinates": [ [ -117.16583787371215, 32.741452854416423 ], [ -117.16583787371215, 32.740878603644809 ], [ -117.165873806323518, 32.740795488094967 ], [ -117.166134317755933, 32.740772820204285 ], [ -117.166727205843443, 32.740780376168487 ], [ -117.166781104760489, 32.740735040373657 ], [ -117.166772121607636, 32.739737647051939 ] ] } },
{ "type": "Feature", "properties": { "weight": 47.828427124746192, "nodes": "78-83" }, "geometry": { "type": "LineString", "coordinates": [ [ -117.162217663117161, 32.741150617629529 ], [ -117.16219969681147, 32.740795488094967 ] ] } },
{ "type": "Feature", "properties": { "weight": 101.24264068711929, "nodes": "80-83" }, "geometry": { "type": "LineString", "coordinates": [ [ -117.161301381527352, 32.740803044057245 ], [ -117.16219969681147, 32.740795488094967 ] ] } },
{ "type": "Feature", "properties": { "weight": 90.0, "nodes": "80-81" }, "geometry": { "type": "LineString", "coordinates": [ [ -117.161301381527352, 32.740803044057245 ], [ -117.160492897771661, 32.740803044057245 ] ] } },
{ "type": "Feature", "properties": { "weight": 138.24264068711926, "nodes": "80-88" }, "geometry": { "type": "LineString", "coordinates": [ [ -117.161301381527352, 32.740803044057245 ], [ -117.161292398374513, 32.739767871256014 ] ] } },
{ "type": "Feature", "properties": { "weight": 141.0284851411036, "nodes": "81-89" }, "geometry": { "type": "LineString", "coordinates": [ [ -117.160492897771661, 32.740803044057245 ], [ -117.160447982007454, 32.740750152307832 ], [ -117.160447982007454, 32.740032332604365 ], [ -117.160430015701778, 32.739941660230492 ], [ -117.160438998854616, 32.739835875677691 ], [ -117.160483914618823, 32.739775427305425 ] ] } },
{ "type": "Feature", "properties": { "weight": 104.41421356237309, "nodes": "82-85" }, "geometry": { "type": "LineString", "coordinates": [ [ -117.163106995248441, 32.740795488094967 ], [ -117.164041243143927, 32.740787932132051 ] ] } },
{ "type": "Feature", "properties": { "weight": 101.0, "nodes": "82-83" }, "geometry": { "type": "LineString", "coordinates": [ [ -117.163106995248441, 32.740795488094967 ], [ -117.16219969681147, 32.740795488094967 ] ] } },
{ "type": "Feature", "properties": { "weight": 139.65028153987288, "nodes": "82-91" }, "geometry": { "type": "LineString", "coordinates": [ [ -117.163106995248441, 32.740795488094967 ], [ -117.163106995248441, 32.739745203103922 ] ] } },
{ "type": "Feature", "properties": { "weight": 138.82842712474618, "nodes": "83-90" }, "geometry": { "type": "LineString", "coordinates": [ [ -117.16219969681147, 32.740795488094967 ], [ -117.162181730505793, 32.739752759155259 ] ] } },
{ "type": "Feature", "properties": { "weight": 94.0, "nodes": "84-85" }, "geometry": { "type": "LineString", "coordinates": [ [ -117.164885659511, 32.740787932132051 ], [ -117.164041243143927, 32.740787932132051 ] ] } },
{ "type": "Feature", "properties": { "weight": 140.71477664211886, "nodes": "84-93" }, "geometry": { "type": "LineString", "coordinates": [ [ -117.164885659511, 32.740787932132051 ], [ -117.164903625816692, 32.740704816497633 ], [ -117.164894642663853, 32.739767871256014 ], [ -117.164876676358162, 32.739737647051939 ] ] } },
{ "type": "Feature", "properties": { "weight": 139.65028153987288, "nodes": "85-94" }, "geometry": { "type": "LineString", "coordinates": [ [ -117.164041243143927, 32.740787932132051 ], [ -117.16402327683825, 32.740667036638179 ], [ -117.16402327683825, 32.739737647051939 ] ] } },
{ "type": "Feature", "properties": { "weight": 225.02438661763955, "nodes": "86-102" }, "geometry": { "type": "LineString", "coordinates": [ [ -117.1690089266651, 32.740750152307832 ], [ -117.169197572874765, 32.739782983354203 ], [ -117.169323337014532, 32.73953363340631 ], [ -117.169529949529903, 32.739231390109801 ] ] } },
{ "type": "Feature", "properties": { "weight": 61.727922061357845, "nodes": "87-96" }, "geometry": { "type": "LineString", "coordinates": [ [ -117.167670436891768, 32.740160784976098 ], [ -117.167688403197445, 32.739828319633396 ], [ -117.167625521127562, 32.739722534946054 ] ] } },
{ "type": "Feature", "properties": { "weight": 90.236067977499786, "nodes": "88-89" }, "geometry": { "type": "LineString", "coordinates": [ [ -117.161292398374513, 32.739767871256014 ], [ -117.160483914618823, 32.739775427305425 ] ] } },
{ "type": "Feature", "properties": { "weight": 99.828427124746185, "nodes": "88-90" }, "geometry": { "type": "LineString", "coordinates": [ [ -117.161292398374513, 32.739767871256014 ], [ -117.162181730505793, 32.739752759155259 ] ] } },
{ "type": "Feature", "properties": { "weight": 74.064495102245985, "nodes": "88-105" }, "geometry": { "type": "LineString", "coordinates": [ [ -117.161292398374513, 32.739767871256014 ], [ -117.161301381527352, 32.739216277918075 ] ] } },
{ "type": "Feature", "properties": { "weight": 74.727922061357859, "nodes": "89-101" }, "geometry": { "type": "LineString", "coordinates": [ [ -117.160483914618823, 32.739775427305425 ], [ -117.160447982007454, 32.739745203103922 ], [ -117.160421032548925, 32.739669642555292 ], [ -117.160403066243248, 32.739238946204708 ] ] } },
{ "type": "Feature", "properties": { "weight": 103.41421356237309, "nodes": "90-91" }, "geometry": { "type": "LineString", "coordinates": [ [ -117.162181730505793, 32.739752759155259 ], [ -117.163106995248441, 32.739745203103922 ] ] } },
{ "type": "Feature", "properties": { "weight": 80.313708498984752, "nodes": "90-107" }, "geometry": { "type": "LineString", "coordinates": [ [ -117.162181730505793, 32.739752759155259 ], [ -117.162181730505793, 32.739223834014254 ], [ -117.16211884843591, 32.739178497427524 ] ] } },
{ "type": "Feature", "properties": { "weight": 102.99070478491457, "nodes": "91-94" }, "geometry": { "type": "LineString", "coordinates": [ [ -117.163106995248441, 32.739745203103922 ], [ -117.16402327683825, 32.739737647051939 ] ] } },
{ "type": "Feature", "properties": { "weight": 68.414213562373092, "nodes": "91-104" }, "geometry": { "type": "LineString", "coordinates": [ [ -117.163106995248441, 32.739745203103922 ], [ -117.163115978401279, 32.739231390109801 ] ] } },
{ "type": "Feature", "properties": { "weight": 95.828427124746185, "nodes": "92-96" }, "geometry": { "type": "LineString", "coordinates": [ [ -117.166772121607636, 32.739737647051939 ], [ -117.167625521127562, 32.739722534946054 ] ] } },
{ "type": "Feature", "properties": { "weight": 69.071067811865476, "nodes": "92-95" }, "geometry": { "type": "LineString", "coordinates": [ [ -117.166772121607636, 32.739737647051939 ], [ -117.166170250367301, 32.739730090999323 ] ] } },
{ "type": "Feature", "properties": { "weight": 67.656854249492383, "nodes": "92-100" }, "geometry": { "type": "LineString", "coordinates": [ [ -117.166772121607636, 32.739737647051939 ], [ -117.166772121607636, 32.739238946204708 ] ] } },
{ "type": "Feature", "properties": { "weight": 69.485281374238568, "nodes": "93-103" }, "geometry": { "type": "LineString", "coordinates": [ [ -117.164876676358162, 32.739737647051939 ], [ -117.16491260896953, 32.73969231072661 ], [ -117.16491260896953, 32.739322063206387 ], [ -117.164930575275207, 32.739231390109801 ] ] } },
{ "type": "Feature", "properties": { "weight": 95.0, "nodes": "93-94" }, "geometry": { "type": "LineString", "coordinates": [ [ -117.164876676358162, 32.739737647051939 ], [ -117.16402327683825, 32.739737647051939 ] ] } },
{ "type": "Feature", "properties": { "weight": 66.478708664619077, "nodes": "94-99" }, "geometry": { "type": "LineString", "coordinates": [ [ -117.16402327683825, 32.739737647051939 ], [ -117.16402327683825, 32.739246502298975 ] ] } },
{ "type": "Feature", "properties": { "weight": 66.313708498984752, "nodes": "96-98" }, "geometry": { "type": "LineString", "coordinates": [ [ -117.167625521127562, 32.739722534946054 ], [ -117.167679420044607, 32.739654530437882 ], [ -117.167679420044607, 32.739246502298975 ] ] } },
{ "type": "Feature", "properties": { "weight": 47.828427124746185, "nodes": "97-106" }, "geometry": { "type": "LineString", "coordinates": [ [ -117.168541802717371, 32.739548745544226 ], [ -117.168559769023048, 32.739193609625666 ] ] } }
]
}
