{
"type": "FeatureCollection",
"name": "gee_batch_5_33.42124_-112.05284",
"crs": { "type": "name", "properties": { "name": "urn:ogc:def:crs:OGC:1.3:CRS84" } },
"features": [
{ "type": "Feature", "properties": { "name": "road_network" }, "geometry": { "type": "MultiLineString", "coordinates": [ [ [ -112.054816416192594, 33.425060308847819 ], [ -112.054843365651124, 33.424745417378169 ], [ -112.054834382498271, 33.42432556030856 ] ], [ [ -112.048887535317405, 33.425045314041839 ], [ -112.048905501623082, 33.424108133528023 ] ], [ [ -112.052157402951607, 33.425007827015534 ], [ -112.04999246311688, 33.425000329608331 ] ], [ [ -112.052157402951607, 33.425007827015534 ], [ -112.052175369257284, 33.424895365839504 ], [ -112.052166386104446, 33.424318062842431 ], [ -112.052148419798769, 33.424198103296362 ], [ -112.052085537728871, 33.424130625978847 ], [ -112.049983479964027, 33.424108133528023 ] ], [ [ -112.04999246311688, 33.425000329608331 ], [ -112.049983479964027, 33.424108133528023 ] ], [ [ -112.052876055178899, 33.424168113383935 ], [ -112.054241494410746, 33.424175610863017 ], [ -112.054457090078955, 33.424153118423845 ], [ -112.055121843389202, 33.424145620942831 ] ], [ [ -112.049983479964027, 33.424108133528023 ], [ -112.048905501623082, 33.424108133528023 ] ], [ [ -112.048905501623082, 33.424108133528023 ], [ -112.048285664077042, 33.424093138557573 ] ], [ [ -112.057439496822226, 33.42329840141722 ], [ -112.057349665293813, 33.423208430716493 ], [ -112.057053221250044, 33.423140952629758 ], [ -112.05674779405345, 33.423013493878379 ], [ -112.056595080455153, 33.422916025295194 ], [ -112.056307619564237, 33.422668604554097 ], [ -112.056253720647192, 33.422653609335008 ] ], [ [ -112.053406061196526, 33.422908527707335 ], [ -112.055678798865344, 33.422908527707335 ], [ -112.055903377686377, 33.422841049387493 ], [ -112.056253720647192, 33.422653609335008 ] ], [ [ -112.056253720647192, 33.422653609335008 ], [ -112.056208804882985, 33.422511154624452 ], [ -112.055876428227847, 33.422001314797768 ], [ -112.055705748323874, 33.42179137988127 ], [ -112.055391337974427, 33.421543955935128 ], [ -112.055067944472157, 33.421394001685215 ], [ -112.054807433039741, 33.421326522188259 ], [ -112.052435880689671, 33.420899150822976 ], [ -112.050495519675977, 33.420486772949978 ], [ -112.049417541335032, 33.42028433218649 ] ], [ [ -112.050145176715176, 33.421843863657983 ], [ -112.049705002225949, 33.421768886824388 ], [ -112.049264827736735, 33.421738896072824 ], [ -112.048303630382733, 33.421738896072824 ], [ -112.048249731465688, 33.421783882196287 ] ], [ [ -112.057421530516535, 33.421641426058684 ], [ -112.056056091284688, 33.421423992555916 ], [ -112.055157776000556, 33.421221553977645 ], [ -112.054394208009057, 33.421116585640121 ] ], [ [ -112.051690279003864, 33.421236549444075 ], [ -112.051690279003864, 33.42104160817847 ] ], [ [ -112.053666572628913, 33.420944137381539 ], [ -112.053450976960733, 33.420906648584356 ] ], [ [ -112.049354659265148, 33.420726702132541 ], [ -112.049354659265148, 33.420441786154441 ], [ -112.049417541335032, 33.42028433218649 ] ], [ [ -112.051869942060677, 33.420606737624141 ], [ -112.051537565405567, 33.420516764134064 ], [ -112.050486536523138, 33.420344314684144 ], [ -112.049749917990169, 33.420141873588506 ], [ -112.04921092881969, 33.420044401781524 ] ], [ [ -112.049417541335032, 33.42028433218649 ], [ -112.048680922802063, 33.420141873588506 ], [ -112.048339562994087, 33.420134375761087 ], [ -112.048294647229881, 33.420171864891721 ] ], [ [ -112.057439496822226, 33.419429577092551 ], [ -112.056954406568792, 33.419339602382664 ], [ -112.056864575040393, 33.419302112892687 ] ], [ [ -112.055633883101152, 33.418702278851782 ], [ -112.055148792847717, 33.418417356230776 ], [ -112.054816416192594, 33.418259898591749 ] ], [ [ -112.054654719441444, 33.418117436672318 ], [ -112.054663702594297, 33.418057452636319 ], [ -112.054582854218722, 33.418049954628906 ] ], [ [ -112.054582854218722, 33.418049954628906 ], [ -112.054421157467587, 33.418034958612139 ], [ -112.054079797659611, 33.417892496323667 ], [ -112.053531825336307, 33.417810018049828 ] ], [ [ -112.05513082654204, 33.417997468558887 ], [ -112.055894394533539, 33.417959978489442 ], [ -112.056307619564237, 33.417907492365046 ], [ -112.056837625581863, 33.417735037732903 ], [ -112.057412547363697, 33.417615069091148 ], [ -112.057430513669388, 33.41759257495238 ] ], [ [ -112.050522469134506, 33.417862504233149 ], [ -112.050145176715176, 33.417832512132279 ], [ -112.049722968531626, 33.417757531834781 ], [ -112.049121097291277, 33.417427617756616 ], [ -112.049031265762864, 33.417405123569267 ] ], [ [ -112.0531365666113, 33.417802520021048 ], [ -112.052911987790267, 33.417802520021048 ] ] ] } }
]
}
