{
"type": "FeatureCollection",
"name": "gee_batch_7_32.75175_-117.20553",
"crs": { "type": "name", "properties": { "name": "urn:ogc:def:crs:OGC:1.3:CRS84" } },
"features": [
{ "type": "Feature", "properties": { "weight": 191.17214284057076, "nodes": "0-18" }, "geometry": { "type": "LineString", "coordinates": [ [ -117.209411444433101, 32.755618542673048 ], [ -117.209231781376289, 32.755580769137964 ], [ -117.208225668258066, 32.754961280876628 ], [ -117.208153803035344, 32.75492350706277 ], [ -117.20804600520124, 32.754900842766766 ] ] } },
{ "type": "Feature", "properties": { "weight": 90.289891846662158, "nodes": "1-12" }, "geometry": { "type": "LineString", "coordinates": [ [ -117.208414314467731, 32.755618542673048 ], [ -117.20831549978648, 32.755595878553919 ], [ -117.208054988354093, 32.755444784279 ], [ -117.207785493768853, 32.755255916074866 ] ] } },
{ "type": "Feature", "properties": { "weight": 81.568542494923804, "nodes": "2-11" }, "geometry": { "type": "LineString", "coordinates": [ [ -117.20626734093868, 32.755618542673048 ], [ -117.206123610493222, 32.755588323846261 ], [ -117.205683436004009, 32.755316353943776 ] ] } },
{ "type": "Feature", "properties": { "weight": 101.18938678327382, "nodes": "3-17" }, "geometry": { "type": "LineString", "coordinates": [ [ -117.203877822282919, 32.755618542673048 ], [ -117.204003586422701, 32.755565659719444 ], [ -117.204425794606252, 32.755074602222081 ] ] } },
{ "type": "Feature", "properties": { "weight": 95.289891846662172, "nodes": "4-14" }, "geometry": { "type": "LineString", "coordinates": [ [ -117.203536462474972, 32.755618542673048 ], [ -117.203383748876675, 32.755588323846261 ], [ -117.202952557540272, 32.755308799212408 ], [ -117.202916624928918, 32.755278580280518 ], [ -117.202898658623226, 32.755225697125042 ] ] } },
{ "type": "Feature", "properties": { "weight": 171.35028842544406, "nodes": "5-20" }, "geometry": { "type": "LineString", "coordinates": [ [ -117.202710012413561, 32.755618542673048 ], [ -117.202548315662426, 32.755565659719444 ], [ -117.202512383051072, 32.755535440874716 ], [ -117.202260854771524, 32.755255916074866 ], [ -117.201811697129443, 32.754847959386993 ], [ -117.201757798212398, 32.754704418626453 ] ] } },
{ "type": "Feature", "properties": { "weight": 111.61017305526643, "nodes": "6-16" }, "geometry": { "type": "LineString", "coordinates": [ [ -117.202323736841407, 32.755618542673048 ], [ -117.202233905312994, 32.755573214429027 ], [ -117.201820680282282, 32.755150149705599 ], [ -117.201623050919778, 32.755112375971848 ] ] } },
{ "type": "Feature", "properties": { "weight": 85.325901807804513, "nodes": "7-16" }, "geometry": { "type": "LineString", "coordinates": [ [ -117.201982377033417, 32.755618542673048 ], [ -117.201901528657856, 32.755573214429027 ], [ -117.201676949836823, 32.755286135014444 ], [ -117.201623050919778, 32.755112375971848 ] ] } },
{ "type": "Feature", "properties": { "weight": 62.556349186104043, "nodes": "8-15" }, "geometry": { "type": "LineString", "coordinates": [ [ -117.204668339732962, 32.755610987967309 ], [ -117.204731221802845, 32.755573214429027 ], [ -117.204740204955684, 32.755542995586858 ], [ -117.204767154414213, 32.755187923423328 ] ] } },
{ "type": "Feature", "properties": { "weight": 15.727922061357859, "nodes": "9-10" }, "geometry": { "type": "LineString", "coordinates": [ [ -117.204892918553981, 32.755603433260937 ], [ -117.205000716388071, 32.755535440874716 ] ] } },
{ "type": "Feature", "properties": { "weight": 94.141183513311717, "nodes": "10-11" }, "geometry": { "type": "LineString", "coordinates": [ [ -117.205000716388071, 32.755535440874716 ], [ -117.205216312056251, 32.755573214429027 ], [ -117.205351059348871, 32.755573214429027 ], [ -117.205503772947196, 32.755475003154494 ], [ -117.205593604475609, 32.755369237045414 ], [ -117.205683436004009, 32.755316353943776 ] ] } },
{ "type": "Feature", "properties": { "weight": 165.5203392249617, "nodes": "10-25" }, "geometry": { "type": "LineString", "coordinates": [ [ -117.205000716388071, 32.755535440874716 ], [ -117.204973766929555, 32.755475003154494 ], [ -117.204991733235232, 32.755278580280518 ], [ -117.205072581610807, 32.754795075975814 ], [ -117.205090547916484, 32.754470220046798 ], [ -117.205108514222161, 32.754379562366758 ], [ -117.205135463680691, 32.754349343119571 ] ] } },
{ "type": "Feature", "properties": { "weight": 79.740115370177605, "nodes": "11-19" }, "geometry": { "type": "LineString", "coordinates": [ [ -117.205683436004009, 32.755316353943776 ], [ -117.205710385462538, 32.755233251863459 ], [ -117.20602479581197, 32.754832849844149 ] ] } },
{ "type": "Feature", "properties": { "weight": 8.2360679774997898, "nodes": "12-13" }, "geometry": { "type": "LineString", "coordinates": [ [ -117.207713628546102, 32.755263470810732 ], [ -117.207785493768853, 32.755255916074866 ] ] } },
{ "type": "Feature", "properties": { "weight": 58.834047723946441, "nodes": "12-18" }, "geometry": { "type": "LineString", "coordinates": [ [ -117.207785493768853, 32.755255916074866 ], [ -117.207821426380221, 32.755172813938167 ], [ -117.20804600520124, 32.754900842766766 ] ] } },
{ "type": "Feature", "properties": { "weight": 257.25540396125604, "nodes": "13-19" }, "geometry": { "type": "LineString", "coordinates": [ [ -117.207713628546102, 32.755263470810732 ], [ -117.207686679087587, 32.755323908674498 ], [ -117.207471083419392, 32.755588323846261 ], [ -117.207300403515418, 32.755588323846261 ], [ -117.20602479581197, 32.754832849844149 ] ] } },
{ "type": "Feature", "properties": { "weight": 192.3208511739212, "nodes": "13-23" }, "geometry": { "type": "LineString", "coordinates": [ [ -117.207713628546102, 32.755263470810732 ], [ -117.207165656222799, 32.754931061826824 ], [ -117.206842262720528, 32.754711973409094 ], [ -117.206384121925609, 32.754455110439871 ] ] } },
{ "type": "Feature", "properties": { "weight": 141.4802307403553, "nodes": "14-21" }, "geometry": { "type": "LineString", "coordinates": [ [ -117.202898658623226, 32.755225697125042 ], [ -117.202754928177768, 32.755187923423328 ], [ -117.202054242256153, 32.754749747312665 ], [ -117.20193746126921, 32.754628870764819 ] ] } },
{ "type": "Feature", "properties": { "weight": 128.81680378124338, "nodes": "14-22" }, "geometry": { "type": "LineString", "coordinates": [ [ -117.202898658623226, 32.755225697125042 ], [ -117.202934591234595, 32.755157704450426 ], [ -117.203527479322119, 32.754470220046798 ] ] } },
{ "type": "Feature", "properties": { "weight": 152.17719347445404, "nodes": "15-26" }, "geometry": { "type": "LineString", "coordinates": [ [ -117.204767154414213, 32.755187923423328 ], [ -117.204812070178406, 32.755142594960134 ], [ -117.204830036484097, 32.755067047470199 ], [ -117.204883935401142, 32.75456087763456 ], [ -117.204892918553981, 32.754228466028273 ], [ -117.205000716388071, 32.75412269843882 ] ] } },
{ "type": "Feature", "properties": { "weight": 44.035057850723113, "nodes": "15-17" }, "geometry": { "type": "LineString", "coordinates": [ [ -117.204767154414213, 32.755187923423328 ], [ -117.204659356580109, 32.755165259194619 ], [ -117.204533592440342, 32.755097266473868 ], [ -117.204425794606252, 32.755074602222081 ] ] } },
{ "type": "Feature", "properties": { "weight": 131.40916292848976, "nodes": "16-24" }, "geometry": { "type": "LineString", "coordinates": [ [ -117.201623050919778, 32.755112375971848 ], [ -117.201281691111831, 32.754810185525074 ], [ -117.201272707958978, 32.754779966423989 ], [ -117.201012196526591, 32.75459865160223 ], [ -117.200931348151002, 32.754387117176947 ] ] } },
{ "type": "Feature", "properties": { "weight": 136.06601717798216, "nodes": "17-22" }, "geometry": { "type": "LineString", "coordinates": [ [ -117.204425794606252, 32.755074602222081 ], [ -117.20440782830056, 32.755021718945486 ], [ -117.204353929383501, 32.754976390397687 ], [ -117.203527479322119, 32.754470220046798 ] ] } },
{ "type": "Feature", "properties": { "weight": 198.72849202667481, "nodes": "18-29" }, "geometry": { "type": "LineString", "coordinates": [ [ -117.20804600520124, 32.754900842766766 ], [ -117.208028038895563, 32.754855514157455 ], [ -117.207974139978518, 32.754810185525074 ], [ -117.207722611698941, 32.754651535130044 ], [ -117.206797346956321, 32.754092479104472 ], [ -117.206689549122231, 32.754069814596996 ] ] } },
{ "type": "Feature", "properties": { "weight": 68.911688245431421, "nodes": "19-23" }, "geometry": { "type": "LineString", "coordinates": [ [ -117.20602479581197, 32.754832849844149 ], [ -117.206294290397196, 32.754500439252972 ], [ -117.206339206161402, 32.754462665243658 ], [ -117.206384121925609, 32.754455110439871 ] ] } },
{ "type": "Feature", "properties": { "weight": 125.7391632597584, "nodes": "19-25" }, "geometry": { "type": "LineString", "coordinates": [ [ -117.20602479581197, 32.754832849844149 ], [ -117.205988863200602, 32.754795075975814 ], [ -117.205512756100035, 32.754523103650875 ], [ -117.205360042501709, 32.754417336411322 ], [ -117.205279194126149, 32.754379562366758 ], [ -117.205135463680691, 32.754349343119571 ] ] } },
{ "type": "Feature", "properties": { "weight": 23.963990038857645, "nodes": "20-21" }, "geometry": { "type": "LineString", "coordinates": [ [ -117.201757798212398, 32.754704418626453 ], [ -117.20193746126921, 32.754628870764819 ] ] } },
{ "type": "Feature", "properties": { "weight": 135.40916292848979, "nodes": "20-30" }, "geometry": { "type": "LineString", "coordinates": [ [ -117.201757798212398, 32.754704418626453 ], [ -117.201641017225469, 32.754681754274692 ], [ -117.201344573181714, 32.754455110439871 ], [ -117.201057112290798, 32.754273794956738 ], [ -117.201003213373752, 32.754228466028273 ], [ -117.200931348151002, 32.754062259759877 ] ] } },
{ "type": "Feature", "properties": { "weight": 129.33809511662429, "nodes": "21-31" }, "geometry": { "type": "LineString", "coordinates": [ [ -117.20193746126921, 32.754628870764819 ], [ -117.201982377033417, 32.754523103650875 ], [ -117.202323736841407, 32.754107588772925 ], [ -117.202476450439704, 32.753933827430942 ], [ -117.202566281968117, 32.753888498329459 ] ] } },
{ "type": "Feature", "properties": { "weight": 67.90511553581193, "nodes": "22-28" }, "geometry": { "type": "LineString", "coordinates": [ [ -117.203527479322119, 32.754470220046798 ], [ -117.203572395086326, 32.754440000830371 ], [ -117.203590361392017, 32.754394671986503 ], [ -117.203823923365874, 32.754137808102151 ], [ -117.203841889671565, 32.754069814596996 ] ] } },
{ "type": "Feature", "properties": { "weight": 138.89444430272837, "nodes": "22-31" }, "geometry": { "type": "LineString", "coordinates": [ [ -117.203527479322119, 32.754470220046798 ], [ -117.202566281968117, 32.753888498329459 ] ] } },
{ "type": "Feature", "properties": { "weight": 65.083261120685222, "nodes": "23-29" }, "geometry": { "type": "LineString", "coordinates": [ [ -117.206384121925609, 32.754455110439871 ], [ -117.206411071384139, 32.754372007555922 ], [ -117.206581751288113, 32.754168027421109 ], [ -117.206689549122231, 32.754069814596996 ] ] } },
{ "type": "Feature", "properties": { "weight": 37.614271578730524, "nodes": "25-26" }, "geometry": { "type": "LineString", "coordinates": [ [ -117.205135463680691, 32.754349343119571 ], [ -117.205117497374999, 32.754213356380326 ], [ -117.205081564763645, 32.754168027421109 ], [ -117.205000716388071, 32.75412269843882 ] ] } },
{ "type": "Feature", "properties": { "weight": 7.0, "nodes": "26-27" }, "geometry": { "type": "LineString", "coordinates": [ [ -117.205000716388071, 32.75412269843882 ], [ -117.205000716388071, 32.754069814596996 ] ] } },
{ "type": "Feature", "properties": { "weight": 108.88225099390857, "nodes": "27-33" }, "geometry": { "type": "LineString", "coordinates": [ [ -117.205000716388071, 32.754069814596996 ], [ -117.204892918553981, 32.754069814596996 ], [ -117.204740204955684, 32.754032040405022 ], [ -117.204201215785204, 32.753707181692796 ] ] } },
{ "type": "Feature", "properties": { "weight": 134.72134935173835, "nodes": "27-41" }, "geometry": { "type": "LineString", "coordinates": [ [ -117.205000716388071, 32.754069814596996 ], [ -117.205000716388071, 32.75363918785888 ], [ -117.204964783776703, 32.753389876690427 ], [ -117.204955800623864, 32.753072570557613 ] ] } },
{ "type": "Feature", "properties": { "weight": 66.911688245431421, "nodes": "28-33" }, "geometry": { "type": "LineString", "coordinates": [ [ -117.203841889671565, 32.754069814596996 ], [ -117.203913754894288, 32.754039595244699 ], [ -117.204201215785204, 32.753707181692796 ] ] } },
{ "type": "Feature", "properties": { "weight": 136.89444430272835, "nodes": "28-36" }, "geometry": { "type": "LineString", "coordinates": [ [ -117.203841889671565, 32.754069814596996 ], [ -117.203338833112468, 32.7537751754748 ], [ -117.203042389068685, 32.753578748851822 ], [ -117.202979506998801, 32.753556084213606 ], [ -117.202898658623226, 32.753488090264341 ] ] } },
{ "type": "Feature", "properties": { "weight": 136.47365803073575, "nodes": "29-35" }, "geometry": { "type": "LineString", "coordinates": [ [ -117.206689549122231, 32.754069814596996 ], [ -117.206671582816554, 32.754024485564713 ], [ -117.206590734440951, 32.753956491973035 ], [ -117.205863099060835, 32.753503200035325 ], [ -117.205773267532422, 32.753480535377882 ] ] } },
{ "type": "Feature", "properties": { "weight": 70.490901973438838, "nodes": "31-36" }, "geometry": { "type": "LineString", "coordinates": [ [ -117.202566281968117, 32.753888498329459 ], [ -117.202611197732324, 32.7537751754748 ], [ -117.202772894483459, 32.753608968360489 ], [ -117.202826793400504, 32.753525864687006 ], [ -117.202898658623226, 32.753488090264341 ] ] } },
{ "type": "Feature", "properties": { "weight": 55.005620599200256, "nodes": "32-35" }, "geometry": { "type": "LineString", "coordinates": [ [ -117.205530722405712, 32.7538129497757 ], [ -117.205557671864241, 32.753737401157878 ], [ -117.205773267532422, 32.753480535377882 ] ] } },
{ "type": "Feature", "properties": { "weight": 132.81023107162389, "nodes": "33-43" }, "geometry": { "type": "LineString", "coordinates": [ [ -117.204201215785204, 32.753707181692796 ], [ -117.204246131549397, 32.753676962217462 ], [ -117.2046773228858, 32.753117900074372 ], [ -117.204839019636935, 32.753049905790583 ], [ -117.204910884859657, 32.752997021311756 ] ] } },
{ "type": "Feature", "properties": { "weight": 67.383824200430993, "nodes": "33-38" }, "geometry": { "type": "LineString", "coordinates": [ [ -117.204201215785204, 32.753707181692796 ], [ -117.203814940213036, 32.753465425603054 ], [ -117.203761041295991, 32.753397431584574 ] ] } },
{ "type": "Feature", "properties": { "weight": 99.775173220900726, "nodes": "34-39" }, "geometry": { "type": "LineString", "coordinates": [ [ -117.20793820736715, 32.753684517087265 ], [ -117.208001089437047, 32.753646742731881 ], [ -117.208171769341021, 32.753450315825653 ], [ -117.208306516633641, 32.753276553201331 ], [ -117.208333466092157, 32.753201004128506 ], [ -117.208432280773408, 32.753110345156507 ] ] } },
{ "type": "Feature", "properties": { "weight": 115.12489168102786, "nodes": "35-41" }, "geometry": { "type": "LineString", "coordinates": [ [ -117.205773267532422, 32.753480535377882 ], [ -117.205773267532422, 32.753457870714669 ], [ -117.2057014023097, 32.753397431584574 ], [ -117.205207328903413, 32.753102790238017 ], [ -117.205072581610807, 32.753072570557613 ], [ -117.204955800623864, 32.753072570557613 ] ] } },
{ "type": "Feature", "properties": { "weight": 67.254833995939038, "nodes": "36-40" }, "geometry": { "type": "LineString", "coordinates": [ [ -117.202898658623226, 32.753488090264341 ], [ -117.202934591234595, 32.753397431584574 ], [ -117.203132220597098, 32.753163229568052 ], [ -117.203231035278378, 32.753117900074372 ] ] } },
{ "type": "Feature", "properties": { "weight": 207.63961030678928, "nodes": "37-39" }, "geometry": { "type": "LineString", "coordinates": [ [ -117.210094164049039, 32.753480535377882 ], [ -117.209995349367773, 32.753367212004143 ], [ -117.20898025309674, 32.753185894306249 ], [ -117.208854488956931, 32.753178339394161 ], [ -117.208593977524544, 32.753117900074372 ], [ -117.208432280773408, 32.753110345156507 ] ] } },
{ "type": "Feature", "properties": { "weight": 128.98837665649717, "nodes": "38-46" }, "geometry": { "type": "LineString", "coordinates": [ [ -117.203761041295991, 32.753397431584574 ], [ -117.204021552728378, 32.75305746071357 ], [ -117.204210198938043, 32.752845922627777 ], [ -117.204255114702249, 32.752762818242338 ], [ -117.204380878842045, 32.752641938997812 ] ] } },
{ "type": "Feature", "properties": { "weight": 74.147756222931207, "nodes": "38-40" }, "geometry": { "type": "LineString", "coordinates": [ [ -117.203761041295991, 32.753397431584574 ], [ -117.203680192920416, 32.753382321795641 ], [ -117.203231035278378, 32.753117900074372 ] ] } },
{ "type": "Feature", "properties": { "weight": 17.721349351738365, "nodes": "39-42" }, "geometry": { "type": "LineString", "coordinates": [ [ -117.208432280773408, 32.753110345156507 ], [ -117.208306516633641, 32.753049905790583 ] ] } },
{ "type": "Feature", "properties": { "weight": 135.63865819637007, "nodes": "40-48" }, "geometry": { "type": "LineString", "coordinates": [ [ -117.203231035278378, 32.753117900074372 ], [ -117.203284934195423, 32.752981911454896 ], [ -117.203725108684623, 32.752490839711456 ], [ -117.203859855977242, 32.752309520229467 ] ] } },
{ "type": "Feature", "properties": { "weight": 12.478708664619074, "nodes": "41-43" }, "geometry": { "type": "LineString", "coordinates": [ [ -117.204955800623864, 32.753072570557613 ], [ -117.204910884859657, 32.752997021311756 ] ] } },
{ "type": "Feature", "properties": { "weight": 447.60007178749981, "nodes": "42-56" }, "geometry": { "type": "LineString", "coordinates": [ [ -117.208306516633641, 32.753049905790583 ], [ -117.208108887271138, 32.753027241017783 ], [ -117.207875325297266, 32.752974356525499 ], [ -117.207453117113715, 32.752838367686856 ], [ -117.206716498580747, 32.752422844948967 ], [ -117.205476823488638, 32.75163712392802 ], [ -117.205225295209104, 32.751576683562391 ], [ -117.205018682693748, 32.751561573464578 ] ] } },
{ "type": "Feature", "properties": { "weight": 194.71067811865476, "nodes": "42-52" }, "geometry": { "type": "LineString", "coordinates": [ [ -117.208306516633641, 32.753049905790583 ], [ -117.208387365009202, 32.752974356525499 ], [ -117.208414314467731, 32.752853477568067 ], [ -117.208602960677382, 32.752400180016608 ], [ -117.208701775358634, 32.752052650331457 ], [ -117.208755674275679, 32.751735339434688 ] ] } },
{ "type": "Feature", "properties": { "weight": 21.414213562373096, "nodes": "43-44" }, "geometry": { "type": "LineString", "coordinates": [ [ -117.204910884859657, 32.752997021311756 ], [ -117.204901901706819, 32.752838367686856 ] ] } },
{ "type": "Feature", "properties": { "weight": 181.41983416157336, "nodes": "44-56" }, "geometry": { "type": "LineString", "coordinates": [ [ -117.204901901706819, 32.752838367686856 ], [ -117.204982750082394, 32.752777928136368 ], [ -117.204991733235232, 32.752747708345744 ], [ -117.204928851165349, 32.752226415343529 ], [ -117.20491986801251, 32.751863774933838 ], [ -117.204955800623864, 32.751705119290328 ], [ -117.205018682693748, 32.751561573464578 ] ] } },
{ "type": "Feature", "properties": { "weight": 15.307135789365265, "nodes": "44-45" }, "geometry": { "type": "LineString", "coordinates": [ [ -117.204901901706819, 32.752838367686856 ], [ -117.20478512071989, 32.752793038027839 ] ] } },
{ "type": "Feature", "properties": { "weight": 53.106125662588596, "nodes": "45-46" }, "geometry": { "type": "LineString", "coordinates": [ [ -117.20478512071989, 32.752793038027839 ], [ -117.204614440815917, 32.752755263294368 ], [ -117.204470710370458, 32.752664603868659 ], [ -117.204380878842045, 32.752641938997812 ] ] } },
{ "type": "Feature", "properties": { "weight": 163.2842712474619, "nodes": "45-55" }, "geometry": { "type": "LineString", "coordinates": [ [ -117.20478512071989, 32.752793038027839 ], [ -117.204767154414213, 32.752505949651628 ], [ -117.204695289191477, 32.751977100220479 ], [ -117.204695289191477, 32.751705119290328 ], [ -117.204605457663064, 32.751622013840461 ] ] } },
{ "type": "Feature", "properties": { "weight": 74.390396910050498, "nodes": "46-47" }, "geometry": { "type": "LineString", "coordinates": [ [ -117.204380878842045, 32.752641938997812 ], [ -117.204326979924971, 32.752573944350665 ], [ -117.204039519034055, 32.752400180016608 ], [ -117.203967653811333, 32.752377515078464 ], [ -117.203895788588611, 32.752309520229467 ] ] } },
{ "type": "Feature", "properties": { "weight": 128.99494936611669, "nodes": "47-55" }, "geometry": { "type": "LineString", "coordinates": [ [ -117.203895788588611, 32.752309520229467 ], [ -117.204003586422701, 32.752158420379182 ], [ -117.204425794606252, 32.751705119290328 ], [ -117.20446172721762, 32.751674899135708 ], [ -117.204605457663064, 32.751622013840461 ] ] } },
{ "type": "Feature", "properties": { "weight": 4.0, "nodes": "47-48" }, "geometry": { "type": "LineString", "coordinates": [ [ -117.203895788588611, 32.752309520229467 ], [ -117.203859855977242, 32.752309520229467 ] ] } },
{ "type": "Feature", "properties": { "weight": 432.23968209428904, "nodes": "48-59" }, "geometry": { "type": "LineString", "coordinates": [ [ -117.203859855977242, 32.752309520229467 ], [ -117.203716125531784, 32.752196195365777 ], [ -117.202548315662426, 32.75150113304769 ], [ -117.201164910124888, 32.750632297522678 ], [ -117.201057112290798, 32.750586966740933 ], [ -117.200967280762384, 32.750511415386754 ], [ -117.200931348151002, 32.750435863968491 ] ] } },
{ "type": "Feature", "properties": { "weight": 29.041630560342622, "nodes": "49-50" }, "geometry": { "type": "LineString", "coordinates": [ [ -117.201299657417508, 32.752188640369745 ], [ -117.201344573181714, 32.75212064537655 ], [ -117.201452371015804, 32.752022430294751 ] ] } },
{ "type": "Feature", "properties": { "weight": 19.485281374238571, "nodes": "51-53" }, "geometry": { "type": "LineString", "coordinates": [ [ -117.208944320485372, 32.751750449503028 ], [ -117.208863472109769, 32.751742894469174 ], [ -117.208791606887047, 32.751705119290328 ] ] } },
{ "type": "Feature", "properties": { "weight": 89.378203601230737, "nodes": "52-54" }, "geometry": { "type": "LineString", "coordinates": [ [ -117.208755674275679, 32.751735339434688 ], [ -117.208450247079085, 32.751727784399563 ], [ -117.207992106284195, 32.751652234013008 ] ] } },
{ "type": "Feature", "properties": { "weight": 5.6568542494923806, "nodes": "52-53" }, "geometry": { "type": "LineString", "coordinates": [ [ -117.208755674275679, 32.751735339434688 ], [ -117.208791606887047, 32.751705119290328 ] ] } },
{ "type": "Feature", "properties": { "weight": 204.48023074035524, "nodes": "53-60" }, "geometry": { "type": "LineString", "coordinates": [ [ -117.208791606887047, 32.751705119290328 ], [ -117.208827539498415, 32.751463357766312 ], [ -117.208890421568299, 32.751282036192656 ], [ -117.209429410738778, 32.750609632134683 ], [ -117.209465343350146, 32.750526525662714 ], [ -117.209474326502985, 32.750398088235329 ] ] } },
{ "type": "Feature", "properties": { "weight": 35.035057850723121, "nodes": "55-57" }, "geometry": { "type": "LineString", "coordinates": [ [ -117.204605457663064, 32.751622013840461 ], [ -117.204659356580109, 32.7515464633642 ], [ -117.204830036484097, 32.751478467880787 ] ] } },
{ "type": "Feature", "properties": { "weight": 25.378203601230741, "nodes": "56-57" }, "geometry": { "type": "LineString", "coordinates": [ [ -117.205018682693748, 32.751561573464578 ], [ -117.204901901706819, 32.751531353261257 ], [ -117.204830036484097, 32.751478467880787 ] ] } },
{ "type": "Feature", "properties": { "weight": 24.0, "nodes": "57-58" }, "geometry": { "type": "LineString", "coordinates": [ [ -117.204830036484097, 32.751478467880787 ], [ -117.204830036484097, 32.75129714633789 ] ] } },
{ "type": "Feature", "properties": { "weight": 273.80518043774066, "nodes": "58-67" }, "geometry": { "type": "LineString", "coordinates": [ [ -117.204830036484097, 32.75129714633789 ], [ -117.20491986801251, 32.751221595586081 ], [ -117.205288177278987, 32.750654962904896 ], [ -117.205952930589248, 32.749846560706807 ], [ -117.206006829506293, 32.749733232709517 ], [ -117.206078694729015, 32.749665235841945 ] ] } },
{ "type": "Feature", "properties": { "weight": 574.89148570989823, "nodes": "58-72" }, "geometry": { "type": "LineString", "coordinates": [ [ -117.204830036484097, 32.75129714633789 ], [ -117.2046773228858, 32.75116871002168 ], [ -117.204551558746019, 32.751123379512926 ], [ -117.203922738047126, 32.750730514137324 ], [ -117.203473580405074, 32.750481194827131 ], [ -117.203365782570984, 32.750398088235329 ], [ -117.202584248273794, 32.749929667813184 ], [ -117.202377635758452, 32.749786119126206 ], [ -117.201021179679429, 32.74897770904299 ], [ -117.20094033130384, 32.748826603540728 ] ] } },
{ "type": "Feature", "properties": { "weight": 3.0, "nodes": "60-61" }, "geometry": { "type": "LineString", "coordinates": [ [ -117.209501275961514, 32.750398088235329 ], [ -117.209474326502985, 32.750398088235329 ] ] } },
{ "type": "Feature", "properties": { "weight": 138.65685424949237, "nodes": "60-63" }, "geometry": { "type": "LineString", "coordinates": [ [ -117.209474326502985, 32.750398088235329 ], [ -117.208459230231938, 32.750390533086779 ], [ -117.208270584022273, 32.750382977937583 ], [ -117.208243634563743, 32.750367867637273 ] ] } },
{ "type": "Feature", "properties": { "weight": 60.242640687119284, "nodes": "61-62" }, "geometry": { "type": "LineString", "coordinates": [ [ -117.209501275961514, 32.750398088235329 ], [ -117.20990551783936, 32.750405643383246 ], [ -117.210031281979155, 32.750390533086779 ] ] } },
{ "type": "Feature", "properties": { "weight": 64.941125496954271, "nodes": "61-65" }, "geometry": { "type": "LineString", "coordinates": [ [ -117.209501275961514, 32.750398088235329 ], [ -117.20952822542003, 32.750375422787741 ], [ -117.209546191725721, 32.750231874819107 ], [ -117.209671955865488, 32.750095881793321 ], [ -117.209716871629695, 32.749982554113231 ] ] } },
{ "type": "Feature", "properties": { "weight": 140.84062043356602, "nodes": "63-64" }, "geometry": { "type": "LineString", "coordinates": [ [ -117.208243634563743, 32.750367867637273 ], [ -117.207911257908634, 32.750360312486158 ], [ -117.207524982336437, 32.750292316097259 ], [ -117.207228538292696, 32.750209209329228 ], [ -117.20715667306996, 32.750178988667081 ], [ -117.207120740458592, 32.750126102483662 ] ] } },
{ "type": "Feature", "properties": { "weight": 138.74573596937793, "nodes": "63-69" }, "geometry": { "type": "LineString", "coordinates": [ [ -117.208243634563743, 32.750367867637273 ], [ -117.20828855032795, 32.750186543833586 ], [ -117.208342449244995, 32.750095881793321 ], [ -117.208701775358634, 32.749695456678381 ], [ -117.208827539498415, 32.749521686728812 ] ] } },
{ "type": "Feature", "properties": { "weight": 189.83556979968262, "nodes": "64-70" }, "geometry": { "type": "LineString", "coordinates": [ [ -117.207120740458592, 32.750126102483662 ], [ -117.20715667306996, 32.750095881793321 ], [ -117.207246504598373, 32.749922112624901 ], [ -117.208028038895563, 32.749007930112683 ] ] } },
{ "type": "Feature", "properties": { "weight": 134.67466815751246, "nodes": "64-66" }, "geometry": { "type": "LineString", "coordinates": [ [ -117.207120740458592, 32.750126102483662 ], [ -117.206985993165986, 32.750110992139774 ], [ -117.206653616510863, 32.749974998929432 ], [ -117.206321239855725, 32.749771008724636 ], [ -117.206231408327312, 32.749748343117489 ], [ -117.206141576798899, 32.749665235841945 ] ] } },
{ "type": "Feature", "properties": { "weight": 82.740115370177605, "nodes": "65-68" }, "geometry": { "type": "LineString", "coordinates": [ [ -117.209716871629695, 32.749982554113231 ], [ -117.20979772000527, 32.749967443744993 ], [ -117.209842635769476, 32.749922112624901 ], [ -117.209887551533669, 32.749846560706807 ], [ -117.210094164049039, 32.749627459781969 ], [ -117.210121113507569, 32.749529241951066 ] ] } },
{ "type": "Feature", "properties": { "weight": 124.08888171988551, "nodes": "65-69" }, "geometry": { "type": "LineString", "coordinates": [ [ -117.209716871629695, 32.749982554113231 ], [ -117.209537208572883, 32.749899447056194 ], [ -117.208989236249579, 32.749559462833645 ], [ -117.208827539498415, 32.749521686728812 ] ] } },
{ "type": "Feature", "properties": { "weight": 139.4802307403553, "nodes": "66-71" }, "geometry": { "type": "LineString", "coordinates": [ [ -117.206141576798899, 32.749665235841945 ], [ -117.206213442021635, 32.749604794138293 ], [ -117.206249374632989, 32.749499021058234 ], [ -117.206303273550049, 32.749423468781295 ], [ -117.206824296414851, 32.748849269382404 ] ] } },
{ "type": "Feature", "properties": { "weight": 7.0, "nodes": "66-67" }, "geometry": { "type": "LineString", "coordinates": [ [ -117.206141576798899, 32.749665235841945 ], [ -117.206078694729015, 32.749665235841945 ] ] } },
{ "type": "Feature", "properties": { "weight": 252.46860739685246, "nodes": "67-74" }, "geometry": { "type": "LineString", "coordinates": [ [ -117.206078694729015, 32.749665235841945 ], [ -117.205961913742087, 32.749567018052694 ], [ -117.205836149602305, 32.749506576282407 ], [ -117.204856985942612, 32.748879490495675 ], [ -117.204470710370458, 32.748652831896244 ], [ -117.204380878842045, 32.74858483420396 ], [ -117.204371895689206, 32.748554612990723 ] ] } },
{ "type": "Feature", "properties": { "weight": 120.6812408671319, "nodes": "69-70" }, "geometry": { "type": "LineString", "coordinates": [ [ -117.208827539498415, 32.749521686728812 ], [ -117.208809573192724, 32.749461244927772 ], [ -117.208719741664325, 32.749393247852574 ], [ -117.208117870423976, 32.749023040643685 ], [ -117.208028038895563, 32.749007930112683 ] ] } },
{ "type": "Feature", "properties": { "weight": 100.8462410327662, "nodes": "70-75" }, "geometry": { "type": "LineString", "coordinates": [ [ -117.208028038895563, 32.749007930112683 ], [ -117.207965156825679, 32.74892482214635 ], [ -117.207587864406335, 32.748698163662262 ], [ -117.207372268738141, 32.748539502380261 ] ] } },
{ "type": "Feature", "properties": { "weight": 79.561969785304314, "nodes": "71-75" }, "geometry": { "type": "LineString", "coordinates": [ [ -117.206824296414851, 32.748849269382404 ], [ -117.207012942624502, 32.748796382409509 ], [ -117.207228538292696, 32.748592389505667 ], [ -117.207372268738141, 32.748539502380261 ] ] } },
{ "type": "Feature", "properties": { "weight": 78.497474683058314, "nodes": "71-77" }, "geometry": { "type": "LineString", "coordinates": [ [ -117.206824296414851, 32.748849269382404 ], [ -117.206878195331896, 32.748683053076157 ], [ -117.207111757305753, 32.748456393976902 ], [ -117.207147689917122, 32.748373285496015 ] ] } },
{ "type": "Feature", "properties": { "weight": 125.43860018001263, "nodes": "73-81" }, "geometry": { "type": "LineString", "coordinates": [ [ -117.210121113507569, 32.748660387192189 ], [ -117.210076197743362, 32.748577278901607 ], [ -117.209779753699578, 32.748395951453041 ], [ -117.209465343350146, 32.748222178968483 ], [ -117.209267713987643, 32.748169291623284 ] ] } },
{ "type": "Feature", "properties": { "weight": 107.53253253378145, "nodes": "74-80" }, "geometry": { "type": "LineString", "coordinates": [ [ -117.204371895689206, 32.748554612990723 ], [ -117.204282064160765, 32.748524391767234 ], [ -117.203841889671565, 32.748244844963949 ], [ -117.203590361392017, 32.748176846960241 ] ] } },
{ "type": "Feature", "properties": { "weight": 73.561969785304314, "nodes": "75-78" }, "geometry": { "type": "LineString", "coordinates": [ [ -117.207372268738141, 32.748539502380261 ], [ -117.207417184502347, 32.748433728035259 ], [ -117.207498032877922, 32.748358174854808 ], [ -117.207686679087587, 32.748207068301632 ], [ -117.207803460074544, 32.748176846960241 ] ] } },
{ "type": "Feature", "properties": { "weight": 52.183766184073562, "nodes": "77-82" }, "geometry": { "type": "LineString", "coordinates": [ [ -117.207147689917122, 32.748373285496015 ], [ -117.207237521445535, 32.748343064211021 ], [ -117.20739921819667, 32.748207068301632 ], [ -117.207515999183599, 32.748169291623284 ] ] } },
{ "type": "Feature", "properties": { "weight": 43.526911934581193, "nodes": "77-79" }, "geometry": { "type": "LineString", "coordinates": [ [ -117.207147689917122, 32.748373285496015 ], [ -117.207030908930193, 32.748297732264291 ], [ -117.206932094248941, 32.748191957632216 ], [ -117.206869212179043, 32.748176846960241 ] ] } }
]
}
