{
"type": "FeatureCollection",
"name": "gee_batch_3_29.42971_-98.48409",
"crs": { "type": "name", "properties": { "name": "urn:ogc:def:crs:OGC:1.3:CRS84" } },
"features": [
{ "type": "Feature", "properties": { "name": "road_network" }, "geometry": { "type": "MultiLineString", "coordinates": [ [ [ -98.487522806252827, 29.433714967992376 ], [ -98.487280261126116, 29.433621084142498 ] ], [ [ -98.486849069789727, 29.433714967992376 ], [ -98.487280261126116, 29.433621084142498 ] ], [ [ -98.48559142839197, 29.433714967992376 ], [ -98.485474647405027, 29.433683673385399 ], [ -98.484270904924315, 29.432650945944367 ] ], [ [ -98.483965477727708, 29.433714967992376 ], [ -98.483875646199294, 29.433683673385399 ], [ -98.483471404321435, 29.433339432072042 ] ], [ [ -98.482995297220867, 29.433714967992376 ], [ -98.483076145596442, 29.433691497038051 ], [ -98.483471404321435, 29.433339432072042 ] ], [ [ -98.481360363403766, 29.433714967992376 ], [ -98.48142324547365, 29.43370714434154 ], [ -98.481620874836153, 29.433542847534618 ], [ -98.481674773753198, 29.433433316182327 ] ], [ [ -98.48064171117646, 29.433714967992376 ], [ -98.480210519840099, 29.433315961030907 ] ], [ [ -98.479581699141207, 29.433714967992376 ], [ -98.479743395892356, 29.433675849732143 ], [ -98.479788311656563, 29.433636731456843 ], [ -98.479824244267917, 29.433550671198116 ] ], [ [ -98.487280261126116, 29.433621084142498 ], [ -98.487280261126116, 29.433527200205813 ] ], [ [ -98.479824244267917, 29.433550671198116 ], [ -98.47994102525486, 29.433511552874595 ], [ -98.480138654617363, 29.433339432072042 ], [ -98.480210519840099, 29.433315961030907 ] ], [ [ -98.479824244267917, 29.433550671198116 ], [ -98.479527800224162, 29.433315961030907 ], [ -98.479500850765632, 29.433237724187947 ] ], [ [ -98.487280261126116, 29.433527200205813 ], [ -98.488187559563073, 29.432987365885399 ], [ -98.48834027316137, 29.432948247344871 ] ], [ [ -98.487280261126116, 29.433527200205813 ], [ -98.487226362209071, 29.433464610866469 ], [ -98.487163480139174, 29.433245547874954 ], [ -98.487055682305083, 29.433003013297391 ], [ -98.486911951859611, 29.432463176190325 ], [ -98.486911951859611, 29.432197168444432 ], [ -98.486947884470993, 29.431962455148806 ], [ -98.4869928002352, 29.43185292209186 ] ], [ [ -98.488681632969346, 29.433472434535997 ], [ -98.488654683510816, 29.433370726785114 ], [ -98.488376205772738, 29.433026484410856 ], [ -98.48834027316137, 29.432948247344871 ] ], [ [ -98.481674773753198, 29.433433316182327 ], [ -98.481755622128773, 29.433386374138035 ], [ -98.481827487351495, 29.433292489984343 ], [ -98.482052066172542, 29.433089074020248 ], [ -98.482231729229355, 29.432971718470998 ], [ -98.482537156425963, 29.432697888328629 ], [ -98.482618004801537, 29.432650945944367 ] ], [ [ -98.481674773753198, 29.433433316182327 ], [ -98.481629857988992, 29.433417668836643 ], [ -98.481297481333883, 29.433136016201978 ], [ -98.481270531875339, 29.433065602921246 ] ], [ [ -98.483471404321435, 29.433339432072042 ], [ -98.484270904924315, 29.432650945944367 ] ], [ [ -98.483471404321435, 29.433339432072042 ], [ -98.483067162443589, 29.432987365885399 ], [ -98.482618004801537, 29.432650945944367 ] ], [ [ -98.480210519840099, 29.433315961030907 ], [ -98.480246452451453, 29.433237724187947 ], [ -98.480830357386139, 29.432737006965603 ] ], [ [ -98.481270531875339, 29.433065602921246 ], [ -98.482105965089588, 29.432337996161412 ] ], [ [ -98.481270531875339, 29.433065602921246 ], [ -98.481198666652617, 29.433042131816823 ], [ -98.480830357386139, 29.432737006965603 ] ], [ [ -98.48834027316137, 29.432948247344871 ], [ -98.488394172078415, 29.4328700102186 ], [ -98.488627734052287, 29.432744830691188 ], [ -98.488681632969346, 29.432658769676589 ] ], [ [ -98.480830357386139, 29.432737006965603 ], [ -98.481836470504348, 29.431876393471153 ] ], [ [ -98.480830357386139, 29.432737006965603 ], [ -98.479994924171905, 29.432017221632972 ], [ -98.479743395892356, 29.431845098297554 ] ], [ [ -98.484270904924315, 29.432650945944367 ], [ -98.485088371832859, 29.431931160001731 ], [ -98.485124304444227, 29.431829450707141 ] ], [ [ -98.484270904924315, 29.432650945944367 ], [ -98.483471404321435, 29.431915512424588 ] ], [ [ -98.482618004801537, 29.432650945944367 ], [ -98.482618004801537, 29.432572708589046 ] ], [ [ -98.482618004801537, 29.432572708589046 ], [ -98.482698853177098, 29.432533589888781 ], [ -98.483031229832235, 29.432220639744155 ], [ -98.483318690723138, 29.432025045414015 ], [ -98.483435471710081, 29.431915512424588 ] ], [ [ -98.482618004801537, 29.432572708589046 ], [ -98.481836470504348, 29.431876393471153 ] ], [ [ -98.479491867612793, 29.432337996161412 ], [ -98.479635598058266, 29.431845098297554 ] ], [ [ -98.483471404321435, 29.431915512424588 ], [ -98.484360736452729, 29.431133130492874 ] ], [ [ -98.483471404321435, 29.431915512424588 ], [ -98.483435471710081, 29.431915512424588 ] ], [ [ -98.483435471710081, 29.431915512424588 ], [ -98.482626987954376, 29.431172249732615 ] ], [ [ -98.481836470504348, 29.431876393471153 ], [ -98.481908335727084, 29.43179033172056 ], [ -98.482626987954376, 29.431172249732615 ] ], [ [ -98.481836470504348, 29.431876393471153 ], [ -98.481054936207158, 29.431227016642932 ], [ -98.481027986748643, 29.431156602038524 ] ], [ [ -98.4869928002352, 29.43185292209186 ], [ -98.487163480139174, 29.43178250792144 ], [ -98.487774334532375, 29.431031420399027 ] ], [ [ -98.4869928002352, 29.43185292209186 ], [ -98.486929918165302, 29.431743388916775 ], [ -98.486858052942566, 29.43168079847797 ], [ -98.4863190637721, 29.431320902706197 ], [ -98.486157367020965, 29.431195721269226 ], [ -98.486139400715274, 29.431156602038524 ] ], [ [ -98.479743395892356, 29.431845098297554 ], [ -98.47977932850371, 29.43181380311432 ], [ -98.479797294809401, 29.431727741310695 ], [ -98.479851193726446, 29.431649503244099 ], [ -98.479994924171905, 29.431516498392561 ] ], [ [ -98.479743395892356, 29.431845098297554 ], [ -98.479635598058266, 29.431845098297554 ] ], [ [ -98.479635598058266, 29.431845098297554 ], [ -98.479554749682677, 29.43175903652045 ], [ -98.479554749682677, 29.431633855623549 ], [ -98.479581699141207, 29.431539969849606 ], [ -98.479950008407698, 29.431054891968184 ] ], [ [ -98.485124304444227, 29.431829450707141 ], [ -98.485259051736847, 29.43179033172056 ], [ -98.485384815876628, 29.431696446091287 ], [ -98.486004653422668, 29.431148778190583 ] ], [ [ -98.485124304444227, 29.431829450707141 ], [ -98.484360736452729, 29.431133130492874 ] ], [ [ -98.488681632969346, 29.43181380311432 ], [ -98.488627734052287, 29.431649503244099 ], [ -98.488537902523873, 29.431555617484626 ], [ -98.487819250296582, 29.431031420399027 ] ], [ [ -98.479994924171905, 29.431516498392561 ], [ -98.480057806241788, 29.431539969849606 ], [ -98.480165604075893, 29.431508674572338 ], [ -98.480605778565106, 29.430968829521415 ], [ -98.480686626940667, 29.430929710203312 ] ], [ [ -98.479994924171905, 29.431516498392561 ], [ -98.48002187363042, 29.431399141025953 ], [ -98.480147637770202, 29.431195721269226 ] ], [ [ -98.479491867612793, 29.431352198041331 ], [ -98.479518817071309, 29.431273959685413 ], [ -98.479644581211105, 29.431133130492874 ] ], [ [ -98.480147637770202, 29.431195721269226 ], [ -98.480300351368513, 29.431015772683235 ], [ -98.480947138373068, 29.430076905323869 ], [ -98.480992054137275, 29.429904778699832 ], [ -98.48104595305432, 29.429850011076454 ] ], [ [ -98.480147637770202, 29.431195721269226 ], [ -98.479950008407698, 29.431054891968184 ] ], [ [ -98.482626987954376, 29.431172249732615 ], [ -98.483507336932803, 29.430397685981141 ] ], [ [ -98.482626987954376, 29.431172249732615 ], [ -98.481791554740141, 29.430468101111749 ] ], [ [ -98.486139400715274, 29.431156602038524 ], [ -98.486381945841998, 29.430898414737985 ], [ -98.486813137178359, 29.43037421426008 ] ], [ [ -98.486139400715274, 29.431156602038524 ], [ -98.486004653422668, 29.431148778190583 ] ], [ [ -98.481027986748643, 29.431156602038524 ], [ -98.481791554740141, 29.430468101111749 ] ], [ [ -98.481027986748643, 29.431156602038524 ], [ -98.480956121525907, 29.431140954342027 ], [ -98.480776458469094, 29.430976653383222 ], [ -98.480686626940667, 29.430929710203312 ] ], [ [ -98.486004653422668, 29.431148778190583 ], [ -98.485986687116977, 29.431086187385294 ], [ -98.485205152819788, 29.43041333379216 ] ], [ [ -98.484360736452729, 29.431133130492874 ], [ -98.485178203361272, 29.43041333379216 ] ], [ [ -98.484360736452729, 29.431133130492874 ], [ -98.483507336932803, 29.430397685981141 ] ], [ [ -98.479950008407698, 29.431054891968184 ], [ -98.480111705158834, 29.430804528284128 ], [ -98.480444081813957, 29.43037421426008 ], [ -98.480524930189532, 29.430131672824878 ] ], [ [ -98.487819250296582, 29.431031420399027 ], [ -98.488025862811924, 29.430773232780229 ], [ -98.488079761728969, 29.4304915728111 ], [ -98.488178576410235, 29.430303799064369 ], [ -98.488322306855693, 29.430100377113632 ], [ -98.488385188925577, 29.430037785662204 ], [ -98.48844807099546, 29.430014313857967 ] ], [ [ -98.487819250296582, 29.431031420399027 ], [ -98.487774334532375, 29.431031420399027 ] ], [ [ -98.487774334532375, 29.431031420399027 ], [ -98.487531789405665, 29.43087494313265 ], [ -98.48745094103009, 29.430773232780229 ] ], [ [ -98.480686626940667, 29.430929710203312 ], [ -98.480704593246358, 29.430835823778391 ], [ -98.480740525857726, 29.430781056657107 ], [ -98.481081885665688, 29.430335094712941 ], [ -98.481198666652617, 29.430225559900769 ], [ -98.481324430792398, 29.43017079245039 ] ], [ [ -98.48745094103009, 29.430773232780229 ], [ -98.487468907335767, 29.430749761145968 ], [ -98.487477890488606, 29.43041333379216 ], [ -98.487459924182929, 29.429724827826419 ] ], [ [ -98.48745094103009, 29.430773232780229 ], [ -98.487343143196, 29.430749761145968 ], [ -98.486920935012463, 29.430405509886953 ], [ -98.486813137178359, 29.43037421426008 ] ], [ [ -98.480075772547465, 29.430554163982865 ], [ -98.48031831767419, 29.43017079245039 ] ], [ [ -98.481791554740141, 29.430468101111749 ], [ -98.481791554740141, 29.430436805504169 ] ], [ [ -98.481791554740141, 29.430436805504169 ], [ -98.482653937412891, 29.429670060106002 ] ], [ [ -98.481791554740141, 29.430436805504169 ], [ -98.481710706364566, 29.430397685981141 ], [ -98.481495110696386, 29.430225559900769 ], [ -98.481324430792398, 29.43017079245039 ] ], [ [ -98.485205152819788, 29.43041333379216 ], [ -98.485178203361272, 29.43041333379216 ] ], [ [ -98.485178203361272, 29.43041333379216 ], [ -98.484342770147038, 29.429670060106002 ] ], [ [ -98.485205152819788, 29.43041333379216 ], [ -98.486058552339713, 29.429685708029133 ] ], [ [ -98.483507336932803, 29.430397685981141 ], [ -98.483713949448159, 29.430194264218454 ], [ -98.484342770147038, 29.429670060106002 ] ], [ [ -98.483507336932803, 29.430397685981141 ], [ -98.482653937412891, 29.429670060106002 ] ], [ [ -98.486813137178359, 29.43037421426008 ], [ -98.486795170872682, 29.430311622977417 ], [ -98.486058552339713, 29.429685708029133 ] ], [ [ -98.48031831767419, 29.43017079245039 ], [ -98.480524930189532, 29.430131672824878 ] ], [ [ -98.48031831767419, 29.43017079245039 ], [ -98.48029136821566, 29.430147320676891 ], [ -98.48018357038157, 29.430131672824878 ], [ -98.479536783377, 29.430131672824878 ] ], [ [ -98.481324430792398, 29.43017079245039 ], [ -98.481306464486721, 29.429959546293667 ] ], [ [ -98.480524930189532, 29.430131672824878 ], [ -98.480713576399211, 29.429834363178639 ], [ -98.48080340792761, 29.429756123653391 ] ], [ [ -98.488681632969346, 29.430076905323869 ], [ -98.488636717205125, 29.43002996172806 ], [ -98.48844807099546, 29.430014313857967 ] ], [ [ -98.48844807099546, 29.430014313857967 ], [ -98.488510953065358, 29.429787419470724 ], [ -98.488519936218196, 29.429255389264512 ] ], [ [ -98.481306464486721, 29.429959546293667 ], [ -98.481396296015134, 29.429896954755442 ], [ -98.481575959071947, 29.429670060106002 ], [ -98.481836470504348, 29.429231917279466 ], [ -98.481953251491291, 29.429153677290103 ] ], [ [ -98.481306464486721, 29.429959546293667 ], [ -98.48115375088841, 29.429928250529382 ], [ -98.48104595305432, 29.429850011076454 ] ], [ [ -98.48104595305432, 29.429850011076454 ], [ -98.480983070984436, 29.429756123653391 ] ], [ [ -98.480983070984436, 29.429756123653391 ], [ -98.481198666652617, 29.429364925123043 ] ], [ [ -98.480983070984436, 29.429756123653391 ], [ -98.48080340792761, 29.429756123653391 ] ], [ [ -98.48080340792761, 29.429756123653391 ], [ -98.480695610093505, 29.429662236143535 ], [ -98.480587812259415, 29.429450988929005 ] ], [ [ -98.487459924182929, 29.429724827826419 ], [ -98.487271277973264, 29.429724827826419 ] ], [ [ -98.487459924182929, 29.429724827826419 ], [ -98.487468907335767, 29.429263213258331 ] ], [ [ -98.486058552339713, 29.429685708029133 ], [ -98.486058552339713, 29.429654412180462 ] ], [ [ -98.484342770147038, 29.429670060106002 ], [ -98.485205152819788, 29.428934604999263 ] ], [ [ -98.484342770147038, 29.429670060106002 ], [ -98.483516320085641, 29.428942429017784 ] ], [ [ -98.482653937412891, 29.429670060106002 ], [ -98.483480387474287, 29.428942429017784 ] ], [ [ -98.482653937412891, 29.429670060106002 ], [ -98.482168847159471, 29.429255389264512 ], [ -98.481953251491291, 29.429153677290103 ] ], [ [ -98.486058552339713, 29.429654412180462 ], [ -98.48661550781587, 29.429161501291762 ], [ -98.486911951859611, 29.428934604999263 ] ], [ [ -98.486058552339713, 29.429654412180462 ], [ -98.485923805047094, 29.429560524576573 ], [ -98.485205152819788, 29.428934604999263 ] ], [ [ -98.480587812259415, 29.429450988929005 ], [ -98.480623744870783, 29.429396221060916 ], [ -98.480614761717945, 29.428879836852715 ] ], [ [ -98.480587812259415, 29.429450988929005 ], [ -98.480462048119648, 29.429411869026247 ], [ -98.479905092643492, 29.429028493181772 ], [ -98.479833227420755, 29.428918956960413 ] ], [ [ -98.481198666652617, 29.429364925123043 ], [ -98.481288498181044, 29.429224093283246 ], [ -98.481468161237856, 29.428762476439239 ], [ -98.481584942224799, 29.428285209360656 ], [ -98.481602908530476, 29.428081783366792 ] ], [ [ -98.481198666652617, 29.429364925123043 ], [ -98.480992054137275, 29.429184973293083 ], [ -98.481010020442952, 29.42873118030608 ], [ -98.4809112057617, 29.428371274081556 ] ], [ [ -98.488654683510816, 29.429263213258331 ], [ -98.488519936218196, 29.429255389264512 ] ], [ [ -98.487468907335767, 29.429263213258331 ], [ -98.488519936218196, 29.429255389264512 ] ], [ [ -98.488519936218196, 29.429255389264512 ], [ -98.488519936218196, 29.428613819720823 ] ], [ [ -98.487468907335767, 29.429263213258331 ], [ -98.487325176890309, 29.429247565270099 ], [ -98.487226362209071, 29.429200621290956 ], [ -98.486911951859611, 29.428934604999263 ] ], [ [ -98.481953251491291, 29.429153677290103 ], [ -98.481926302032761, 29.429044141203754 ], [ -98.482016133561174, 29.428566875448752 ], [ -98.482025116714013, 29.428042662936644 ], [ -98.482079015631058, 29.427823588249378 ] ], [ [ -98.483516320085641, 29.428942429017784 ], [ -98.483893612504986, 29.428613819720823 ], [ -98.484145140784534, 29.428347801892183 ], [ -98.484360736452729, 29.428183496414658 ] ], [ [ -98.483516320085641, 29.428942429017784 ], [ -98.483480387474287, 29.428942429017784 ] ], [ [ -98.483480387474287, 29.428942429017784 ], [ -98.483228859194739, 29.42869206012606 ], [ -98.482366476521975, 29.427972246124416 ], [ -98.482258678687884, 29.427831412353488 ] ], [ [ -98.486911951859611, 29.428934604999263 ], [ -98.487271277973264, 29.428598171632544 ] ], [ [ -98.486911951859611, 29.428934604999263 ], [ -98.486040586034022, 29.428183496414658 ] ], [ [ -98.485205152819788, 29.428934604999263 ], [ -98.485205152819788, 29.428903308919136 ] ], [ [ -98.479833227420755, 29.428918956960413 ], [ -98.479896109490653, 29.428887660875464 ], [ -98.479994924171905, 29.428887660875464 ], [ -98.480003907324743, 29.428879836852715 ], [ -98.480084755700304, 29.428879836852715 ] ], [ [ -98.479833227420755, 29.428918956960413 ], [ -98.479545766529839, 29.428872012829373 ], [ -98.479500850765632, 29.4288328927036 ] ], [ [ -98.485205152819788, 29.428903308919136 ], [ -98.485555495780602, 29.428621643764057 ], [ -98.486040586034022, 29.428183496414658 ] ], [ [ -98.485205152819788, 29.428903308919136 ], [ -98.484360736452729, 29.428183496414658 ] ], [ [ -98.480614761717945, 29.428879836852715 ], [ -98.480084755700304, 29.428879836852715 ] ], [ [ -98.480614761717945, 29.428879836852715 ], [ -98.480614761717945, 29.428199144566825 ], [ -98.48064171117646, 29.428152200103082 ] ], [ [ -98.480084755700304, 29.428879836852715 ], [ -98.480057806241788, 29.428582523541856 ] ], [ [ -98.479653564363943, 29.428739004340276 ], [ -98.479680513822458, 29.428605995676989 ], [ -98.479707463280988, 29.428582523541856 ], [ -98.480057806241788, 29.428582523541856 ] ], [ [ -98.488519936218196, 29.428613819720823 ], [ -98.487271277973264, 29.428598171632544 ] ], [ [ -98.488519936218196, 29.428613819720823 ], [ -98.488519936218196, 29.427557568351006 ] ], [ [ -98.487271277973264, 29.428598171632544 ], [ -98.487280261126116, 29.42848863494708 ], [ -98.487558738864195, 29.427776643612056 ], [ -98.48761263778124, 29.427565392475604 ] ], [ [ -98.480057806241788, 29.428582523541856 ], [ -98.480066789394627, 29.428324329697382 ], [ -98.480030856783259, 29.428128727863079 ], [ -98.480030856783259, 29.42763580956991 ] ], [ [ -98.4809112057617, 29.428371274081556 ], [ -98.480947138373068, 29.428347801892183 ], [ -98.480929172067391, 29.428027014760374 ], [ -98.481010020442952, 29.427894005164674 ], [ -98.48115375088841, 29.427839236456997 ], [ -98.481459178085018, 29.427831412353488 ], [ -98.481584942224799, 29.427933125652082 ] ], [ [ -98.4809112057617, 29.428371274081556 ], [ -98.480848323691816, 29.428347801892183 ], [ -98.480749509010565, 29.428214792716584 ], [ -98.48064171117646, 29.428152200103082 ] ], [ [ -98.486040586034022, 29.428183496414658 ], [ -98.486543642593134, 29.427753171285264 ], [ -98.486597541510179, 29.427682754272322 ], [ -98.486633474121547, 29.427573216599608 ] ], [ [ -98.486040586034022, 29.428183496414658 ], [ -98.485600411544809, 29.427800115933429 ], [ -98.485259051736847, 29.427440206409639 ] ], [ [ -98.484360736452729, 29.428183496414658 ], [ -98.485097354985697, 29.427518447718949 ], [ -98.485259051736847, 29.427440206409639 ] ], [ [ -98.484360736452729, 29.428183496414658 ], [ -98.483651067378275, 29.427557568351006 ], [ -98.483408522251551, 29.427307196045486 ] ], [ [ -98.48064171117646, 29.428152200103082 ], [ -98.480623744870783, 29.42762798545073 ] ], [ [ -98.481602908530476, 29.428081783366792 ], [ -98.481746638975935, 29.42798789430913 ], [ -98.481863419962878, 29.427862708763904 ] ], [ [ -98.481602908530476, 29.428081783366792 ], [ -98.481584942224799, 29.428066135196545 ], [ -98.481584942224799, 29.427933125652082 ] ], [ [ -98.481584942224799, 29.427933125652082 ], [ -98.481584942224799, 29.42762798545073 ] ], [ [ -98.482258678687884, 29.427831412353488 ], [ -98.482968347762338, 29.42729937190099 ], [ -98.483094111902119, 29.427213306271806 ], [ -98.483192926583371, 29.427182009661287 ] ], [ [ -98.482258678687884, 29.427831412353488 ], [ -98.482079015631058, 29.427823588249378 ] ], [ [ -98.482079015631058, 29.427823588249378 ], [ -98.481980200949806, 29.427667106040591 ], [ -98.481980200949806, 29.427565392475604 ] ], [ [ -98.480623744870783, 29.42762798545073 ], [ -98.480758492163403, 29.427643633688486 ], [ -98.481584942224799, 29.42762798545073 ] ], [ [ -98.480030856783259, 29.42763580956991 ], [ -98.480039839936097, 29.42762798545073 ], [ -98.480623744870783, 29.42762798545073 ] ], [ [ -98.480623744870783, 29.42762798545073 ], [ -98.480632728023622, 29.426376118619331 ] ], [ [ -98.480030856783259, 29.42763580956991 ], [ -98.479545766529839, 29.42763580956991 ] ], [ [ -98.481584942224799, 29.42762798545073 ], [ -98.481584942224799, 29.427479327071833 ], [ -98.481602908530476, 29.427455854676321 ] ], [ [ -98.486633474121547, 29.427573216599608 ], [ -98.486678389885753, 29.427565392475604 ] ], [ [ -98.486633474121547, 29.427573216599608 ], [ -98.486498726828927, 29.427534095973577 ], [ -98.486184316479481, 29.427518447718949 ], [ -98.486058552339713, 29.427479327071833 ], [ -98.485627361003324, 29.427127240569678 ] ], [ [ -98.48761263778124, 29.427565392475604 ], [ -98.487657553545446, 29.427541920099991 ] ], [ [ -98.48761263778124, 29.427565392475604 ], [ -98.487441957877252, 29.427541920099991 ], [ -98.48693890131814, 29.427541920099991 ], [ -98.486678389885753, 29.427565392475604 ] ], [ [ -98.481980200949806, 29.427565392475604 ], [ -98.481998167255497, 29.427228954573447 ], [ -98.482034099866851, 29.427080295610512 ], [ -98.482034099866851, 29.426329173313015 ], [ -98.482016133561174, 29.426290052207833 ], [ -98.481782571587289, 29.426086622218033 ] ], [ [ -98.481980200949806, 29.427565392475604 ], [ -98.481737655823096, 29.427557568351006 ], [ -98.481602908530476, 29.427455854676321 ] ], [ [ -98.488519936218196, 29.427557568351006 ], [ -98.487657553545446, 29.427541920099991 ] ], [ [ -98.488519936218196, 29.427557568351006 ], [ -98.48855586882955, 29.426509130202756 ] ], [ [ -98.486678389885753, 29.427565392475604 ], [ -98.48669635619143, 29.427135064727427 ], [ -98.486795170872682, 29.426657790001624 ], [ -98.486795170872682, 29.426548251223558 ] ], [ [ -98.487657553545446, 29.427541920099991 ], [ -98.487675519851123, 29.427416734005089 ], [ -98.48774738507386, 29.427252427021386 ], [ -98.487971963894879, 29.426516954408118 ] ], [ [ -98.481602908530476, 29.427455854676321 ], [ -98.481611891683315, 29.426376118619331 ] ], [ [ -98.485259051736847, 29.427440206409639 ], [ -98.485268034889685, 29.427268075316999 ] ], [ [ -98.483408522251551, 29.427307196045486 ], [ -98.483300724417461, 29.427283723610206 ], [ -98.483192926583371, 29.427182009661287 ] ], [ [ -98.483408522251551, 29.427307196045486 ], [ -98.483399539098713, 29.427213306271806 ], [ -98.483363606487345, 29.427166361352409 ] ], [ [ -98.485268034889685, 29.427268075316999 ], [ -98.485411765335144, 29.427228954573447 ], [ -98.485537529474925, 29.427142888884575 ], [ -98.485627361003324, 29.427127240569678 ] ], [ [ -98.485268034889685, 29.427268075316999 ], [ -98.485196169666949, 29.427182009661287 ], [ -98.484899725623194, 29.426329173313015 ] ], [ [ -98.483192926583371, 29.427182009661287 ], [ -98.483381572793036, 29.426970757288085 ] ], [ [ -98.485627361003324, 29.427127240569678 ], [ -98.485672276767531, 29.427017702297871 ], [ -98.486175333326642, 29.426563899627652 ], [ -98.486202282785172, 29.426501305996783 ] ], [ [ -98.483381572793036, 29.426970757288085 ], [ -98.483462421168596, 29.426947284775043 ], [ -98.484028359797591, 29.42652477861288 ], [ -98.484387685911244, 29.426211809952282 ], [ -98.484477517439657, 29.426094446455945 ] ], [ [ -98.483381572793036, 29.426970757288085 ], [ -98.483345640181668, 29.426931636430005 ], [ -98.483291741264622, 29.426736031913649 ], [ -98.483130044513487, 29.425961434329498 ], [ -98.483130044513487, 29.425867543311842 ], [ -98.483165977124841, 29.425836246286678 ] ], [ [ -98.486795170872682, 29.426548251223558 ], [ -98.48683110348405, 29.426540427020594 ] ], [ [ -98.486795170872682, 29.426548251223558 ], [ -98.486354996383469, 29.426493481790214 ], [ -98.486202282785172, 29.426501305996783 ] ], [ [ -98.48683110348405, 29.426540427020594 ], [ -98.487971963894879, 29.426516954408118 ] ], [ [ -98.48683110348405, 29.426540427020594 ], [ -98.486867036095418, 29.426149216104445 ] ], [ [ -98.487971963894879, 29.426516954408118 ], [ -98.48855586882955, 29.426509130202756 ] ], [ [ -98.487971963894879, 29.426516954408118 ], [ -98.487971963894879, 29.426133567636455 ], [ -98.487918064977833, 29.42601620404972 ], [ -98.487873149213627, 29.425742355153304 ] ], [ [ -98.486202282785172, 29.426501305996783 ], [ -98.486121434409597, 29.426446536538137 ], [ -98.485241085431156, 29.426250931087591 ], [ -98.485061422374329, 29.426250931087591 ], [ -98.484944641387401, 29.426290052207833 ], [ -98.484899725623194, 29.426329173313015 ] ], [ [ -98.481611891683315, 29.426376118619331 ], [ -98.480632728023622, 29.426376118619331 ] ], [ [ -98.481611891683315, 29.426376118619331 ], [ -98.481611891683315, 29.426219634180555 ], [ -98.481638841141844, 29.426149216104445 ], [ -98.481737655823096, 29.426063149500688 ] ], [ [ -98.480632728023622, 29.426376118619331 ], [ -98.479527800224162, 29.426352645968887 ] ], [ [ -98.480632728023622, 29.426376118619331 ], [ -98.480632728023622, 29.425742355153304 ] ], [ [ -98.484899725623194, 29.426329173313015 ], [ -98.484612264732277, 29.426117919166057 ], [ -98.484477517439657, 29.426094446455945 ] ], [ [ -98.484477517439657, 29.426094446455945 ], [ -98.484450567981128, 29.42604750101944 ], [ -98.48421700600727, 29.425977082824009 ], [ -98.483390555945874, 29.425844070543867 ], [ -98.483165977124841, 29.425836246286678 ] ], [ [ -98.481782571587289, 29.426086622218033 ], [ -98.481737655823096, 29.426063149500688 ] ], [ [ -98.481782571587289, 29.426086622218033 ], [ -98.4819352851856, 29.425953610081343 ], [ -98.482447324897549, 29.425945785832589 ] ], [ [ -98.481737655823096, 29.426063149500688 ], [ -98.481728672670243, 29.42601620404972 ], [ -98.481477144390695, 29.425812773511463 ] ], [ [ -98.482501223814594, 29.42593013733325 ], [ -98.482887499386763, 29.425859719056458 ], [ -98.483004280373706, 29.425781476469425 ] ], [ [ -98.483165977124841, 29.425836246286678 ], [ -98.483094111902119, 29.425781476469425 ], [ -98.483004280373706, 29.425781476469425 ] ], [ [ -98.483004280373706, 29.425781476469425 ], [ -98.48293241515097, 29.425734530888274 ], [ -98.482842583622556, 29.425718882356403 ] ] ] } }
]
}
