{
"type": "FeatureCollection",
"name": "gee_batch_3_32.77821_-96.82438",
"crs": { "type": "name", "properties": { "name": "urn:ogc:def:crs:OGC:1.3:CRS84" } },
"features": [
{ "type": "Feature", "properties": { "weight": 140.71629871785504, "nodes": "0-8" }, "geometry": { "type": "LineString", "coordinates": [ [ -96.828419349943104, 32.782069867754849 ], [ -96.828302568956175, 32.782017000513918 ], [ -96.828149855357864, 32.781835741163675 ], [ -96.827790529244226, 32.781495878886602 ], [ -96.827673748257268, 32.781291960897185 ] ] } },
{ "type": "Feature", "properties": { "weight": 245.07821048680191, "nodes": "1-16" }, "geometry": { "type": "LineString", "coordinates": [ [ -96.824314049094681, 32.782069867754849 ], [ -96.824269133330461, 32.782047210369726 ], [ -96.824215234413415, 32.781979238179737 ], [ -96.823766076771363, 32.781359933612258 ], [ -96.823550481103169, 32.780997411865116 ], [ -96.82343370011624, 32.78068020412465 ], [ -96.823361834893504, 32.780559362783173 ] ] } },
{ "type": "Feature", "properties": { "weight": 167.13708498984761, "nodes": "2-12" }, "geometry": { "type": "LineString", "coordinates": [ [ -96.823137256072471, 32.782069867754849 ], [ -96.822741997347464, 32.78148832637681 ], [ -96.822418603845179, 32.781057832258881 ] ] } },
{ "type": "Feature", "properties": { "weight": 42.970562748477128, "nodes": "3-4" }, "geometry": { "type": "LineString", "coordinates": [ [ -96.82023569770476, 32.782069867754849 ], [ -96.820496209137161, 32.782024552978832 ], [ -96.820550108054206, 32.781956580771535 ] ] } },
{ "type": "Feature", "properties": { "weight": 257.29141392239836, "nodes": "4-12" }, "geometry": { "type": "LineString", "coordinates": [ [ -96.820550108054206, 32.781956580771535 ], [ -96.820693838499665, 32.78192637088496 ], [ -96.821232827670144, 32.78162427145498 ], [ -96.82168198531221, 32.781405248726784 ], [ -96.821753850534932, 32.781352381090926 ], [ -96.821987412508804, 32.781254198255262 ], [ -96.822265890246882, 32.781095594984158 ], [ -96.822337755469604, 32.781065384805217 ], [ -96.822418603845179, 32.781057832258881 ] ] } },
{ "type": "Feature", "properties": { "weight": 70.254833995939038, "nodes": "4-7" }, "geometry": { "type": "LineString", "coordinates": [ [ -96.820550108054206, 32.781956580771535 ], [ -96.820307562927496, 32.781669586434866 ], [ -96.820271630316128, 32.781601613956376 ], [ -96.82026264716329, 32.781526088919357 ] ] } },
{ "type": "Feature", "properties": { "weight": 357.80108191427644, "nodes": "5-17" }, "geometry": { "type": "LineString", "coordinates": [ [ -96.826892213960093, 32.781941475829527 ], [ -96.826478988929395, 32.781495878886602 ], [ -96.826173561732801, 32.781095594984158 ], [ -96.826011864981666, 32.780846360701176 ], [ -96.825517791575393, 32.780257258711451 ], [ -96.825266263295831, 32.779894732471348 ], [ -96.825248296990154, 32.779811653333276 ] ] } },
{ "type": "Feature", "properties": { "weight": 62.656854249492383, "nodes": "6-9" }, "geometry": { "type": "LineString", "coordinates": [ [ -96.828437316248781, 32.781646928947801 ], [ -96.828455282554472, 32.781186225459408 ] ] } },
{ "type": "Feature", "properties": { "weight": 167.26702730475881, "nodes": "7-11" }, "geometry": { "type": "LineString", "coordinates": [ [ -96.82026264716329, 32.781526088919357 ], [ -96.821538254866752, 32.781065384805217 ] ] } },
{ "type": "Feature", "properties": { "weight": 519.93007211876852, "nodes": "7-19" }, "geometry": { "type": "LineString", "coordinates": [ [ -96.82026264716329, 32.781526088919357 ], [ -96.820199765093406, 32.78148832637681 ], [ -96.819858405285444, 32.780899228637722 ], [ -96.819858405285444, 32.780846360701176 ], [ -96.819948236813858, 32.780710414434367 ], [ -96.821493339102545, 32.780204390393436 ], [ -96.822050294578702, 32.779985364169853 ], [ -96.822643182666212, 32.779804100680522 ], [ -96.822894710945761, 32.77970591613628 ], [ -96.82292166040429, 32.779675705485481 ] ] } },
{ "type": "Feature", "properties": { "weight": 353.24473272817238, "nodes": "8-22" }, "geometry": { "type": "LineString", "coordinates": [ [ -96.827673748257268, 32.781291960897185 ], [ -96.827565950423178, 32.781261750784928 ], [ -96.827476118894765, 32.781186225459408 ], [ -96.827377304213528, 32.780967201652842 ], [ -96.827107809628274, 32.780551810193884 ], [ -96.826757466667473, 32.780121311544505 ], [ -96.826685601444751, 32.780000469443955 ], [ -96.826568820457823, 32.779887179825636 ], [ -96.826478988929395, 32.779743679435342 ], [ -96.826047797593034, 32.779230097194741 ] ] } },
{ "type": "Feature", "properties": { "weight": 358.89949493661163, "nodes": "8-30" }, "geometry": { "type": "LineString", "coordinates": [ [ -96.827673748257268, 32.781291960897185 ], [ -96.827700697715798, 32.781261750784928 ], [ -96.827709680868651, 32.780763282451694 ], [ -96.827718664021489, 32.778603220736521 ] ] } },
{ "type": "Feature", "properties": { "weight": 256.11984104714452, "nodes": "10-17" }, "geometry": { "type": "LineString", "coordinates": [ [ -96.826676618291913, 32.78108048989597 ], [ -96.826649668833383, 32.780997411865116 ], [ -96.826020848134505, 32.780174179911896 ], [ -96.825347111671405, 32.779819205985397 ], [ -96.825248296990154, 32.779811653333276 ] ] } },
{ "type": "Feature", "properties": { "weight": 133.50966799187813, "nodes": "12-16" }, "geometry": { "type": "LineString", "coordinates": [ [ -96.822418603845179, 32.781057832258881 ], [ -96.822472502762224, 32.780997411865116 ], [ -96.822670132124742, 32.780876570954483 ], [ -96.823182171836692, 32.78061223089027 ], [ -96.823361834893504, 32.780559362783173 ] ] } },
{ "type": "Feature", "properties": { "weight": 41.485281374238568, "nodes": "13-14" }, "geometry": { "type": "LineString", "coordinates": [ [ -96.828455282554472, 32.78085391326546 ], [ -96.828455282554472, 32.780559362783173 ] ] } },
{ "type": "Feature", "properties": { "weight": 130.26702730475881, "nodes": "15-18" }, "geometry": { "type": "LineString", "coordinates": [ [ -96.826676618291913, 32.780559362783173 ], [ -96.826667635139074, 32.780521599830308 ], [ -96.826362207942466, 32.780143969420095 ], [ -96.826128645968595, 32.779766337407089 ] ] } },
{ "type": "Feature", "properties": { "weight": 244.94826817189073, "nodes": "16-21" }, "geometry": { "type": "LineString", "coordinates": [ [ -96.823361834893504, 32.780559362783173 ], [ -96.823397767504872, 32.780506494644676 ], [ -96.823514548491801, 32.780438521277588 ], [ -96.823927773522499, 32.780211943012219 ], [ -96.824287099636138, 32.780045785250898 ], [ -96.824655408902629, 32.779811653333276 ], [ -96.825032701321973, 32.779645494824422 ], [ -96.82507761708618, 32.779607731483679 ] ] } },
{ "type": "Feature", "properties": { "weight": 30.970562748477143, "nodes": "17-20" }, "geometry": { "type": "LineString", "coordinates": [ [ -96.825248296990154, 32.779811653333276 ], [ -96.825167448614579, 32.779713468797375 ], [ -96.825140499156063, 32.77961528415311 ] ] } },
{ "type": "Feature", "properties": { "weight": 220.05944446836267, "nodes": "19-24" }, "geometry": { "type": "LineString", "coordinates": [ [ -96.82292166040429, 32.779675705485481 ], [ -96.823065390849749, 32.779653047490648 ], [ -96.824475745845817, 32.779162122852519 ], [ -96.824628459444114, 32.779124359306621 ] ] } },
{ "type": "Feature", "properties": { "weight": 677.96103144602739, "nodes": "19-55" }, "geometry": { "type": "LineString", "coordinates": [ [ -96.82292166040429, 32.779675705485481 ], [ -96.822795896264509, 32.779569968126914 ], [ -96.822454536456547, 32.778882672233351 ], [ -96.822256907094044, 32.778595667981179 ], [ -96.822131142954262, 32.778369085022909 ], [ -96.821924530438906, 32.777734649670194 ], [ -96.821834698910507, 32.777538275906167 ], [ -96.821789783146301, 32.777236161576802 ], [ -96.821690968465049, 32.776934046221704 ], [ -96.821484355949707, 32.776443106581986 ], [ -96.821178928753099, 32.775974823170948 ], [ -96.820684855346826, 32.775332817715231 ] ] } },
{ "type": "Feature", "properties": { "weight": 96.882250993908571, "nodes": "20-23" }, "geometry": { "type": "LineString", "coordinates": [ [ -96.825140499156063, 32.77961528415311 ], [ -96.825742370396426, 32.77929807148503 ], [ -96.825796269313471, 32.779222544492612 ] ] } },
{ "type": "Feature", "properties": { "weight": 7.4142135623730949, "nodes": "20-21" }, "geometry": { "type": "LineString", "coordinates": [ [ -96.825140499156063, 32.77961528415311 ], [ -96.82507761708618, 32.779607731483679 ] ] } },
{ "type": "Feature", "properties": { "weight": 84.710678118654755, "nodes": "21-24" }, "geometry": { "type": "LineString", "coordinates": [ [ -96.82507761708618, 32.779607731483679 ], [ -96.82478117304241, 32.779290518788677 ], [ -96.824763206736733, 32.779237649896231 ], [ -96.824628459444114, 32.779124359306621 ] ] } },
{ "type": "Feature", "properties": { "weight": 28.414213562373096, "nodes": "22-23" }, "geometry": { "type": "LineString", "coordinates": [ [ -96.826047797593034, 32.779230097194741 ], [ -96.825796269313471, 32.779222544492612 ] ] } },
{ "type": "Feature", "properties": { "weight": 25.142135623730951, "nodes": "22-26" }, "geometry": { "type": "LineString", "coordinates": [ [ -96.826047797593034, 32.779230097194741 ], [ -96.826092713357227, 32.779116806595518 ], [ -96.826146612274286, 32.779079043030386 ] ] } },
{ "type": "Feature", "properties": { "weight": 65.419834161573348, "nodes": "23-28" }, "geometry": { "type": "LineString", "coordinates": [ [ -96.825796269313471, 32.779222544492612 ], [ -96.825769319854942, 32.779131912017078 ], [ -96.825706437785058, 32.779063937599851 ], [ -96.825661522020852, 32.77891288315341 ], [ -96.825544741033923, 32.778814697625712 ] ] } },
{ "type": "Feature", "properties": { "weight": 4.4142135623730949, "nodes": "24-25" }, "geometry": { "type": "LineString", "coordinates": [ [ -96.824628459444114, 32.779124359306621 ], [ -96.824637442596952, 32.779094148458356 ] ] } },
{ "type": "Feature", "properties": { "weight": 116.14775622293121, "nodes": "25-28" }, "geometry": { "type": "LineString", "coordinates": [ [ -96.824637442596952, 32.779094148458356 ], [ -96.825472875811187, 32.778852461303032 ], [ -96.825544741033923, 32.778814697625712 ] ] } },
{ "type": "Feature", "properties": { "weight": 304.42697683650982, "nodes": "25-41" }, "geometry": { "type": "LineString", "coordinates": [ [ -96.824637442596952, 32.779094148458356 ], [ -96.824511678457185, 32.778988410408687 ], [ -96.824412863775933, 32.778799592150293 ], [ -96.823909807216822, 32.778006551089554 ], [ -96.823613363173052, 32.777477853122356 ], [ -96.823496582186124, 32.777190844338932 ] ] } },
{ "type": "Feature", "properties": { "weight": 533.82546853191604, "nodes": "27-52" }, "geometry": { "type": "LineString", "coordinates": [ [ -96.819786540062722, 32.778935541336729 ], [ -96.819813489521238, 32.778890224964329 ], [ -96.820074000953625, 32.778716511989664 ], [ -96.820280613468967, 32.778550351435683 ], [ -96.82063993958262, 32.778202923820139 ], [ -96.820828585792285, 32.777991445476943 ], [ -96.82088248470933, 32.777900811747415 ], [ -96.820909434167859, 32.777795072279631 ], [ -96.820909434167859, 32.777742202498622 ], [ -96.820738754263871, 32.777326795983313 ], [ -96.820702821652503, 32.776971810697191 ], [ -96.820595023818413, 32.776730117777163 ], [ -96.820586040665575, 32.776654588605027 ], [ -96.820172815634876, 32.77608811777057 ], [ -96.820074000953625, 32.77598237614874 ], [ -96.819804506368399, 32.775763339532396 ], [ -96.819795523215561, 32.775718021544463 ] ] } },
{ "type": "Feature", "properties": { "weight": 4.0, "nodes": "28-29" }, "geometry": { "type": "LineString", "coordinates": [ [ -96.825544741033923, 32.778814697625712 ], [ -96.825544741033923, 32.778784486672315 ] ] } },
{ "type": "Feature", "properties": { "weight": 254.20353102191066, "nodes": "29-30" }, "geometry": { "type": "LineString", "coordinates": [ [ -96.825544741033923, 32.778784486672315 ], [ -96.826748483514635, 32.778603220736521 ], [ -96.827107809628274, 32.778580562468584 ], [ -96.827619849340223, 32.778580562468584 ], [ -96.827718664021489, 32.778603220736521 ] ] } },
{ "type": "Feature", "properties": { "weight": 228.24978336205572, "nodes": "29-38" }, "geometry": { "type": "LineString", "coordinates": [ [ -96.825544741033923, 32.778784486672315 ], [ -96.825508808422555, 32.778724064734746 ], [ -96.825445926352671, 32.778505034867109 ], [ -96.82540101058845, 32.77842950720153 ], [ -96.824655408902629, 32.777485405972563 ], [ -96.824628459444114, 32.77737966601115 ] ] } },
{ "type": "Feature", "properties": { "weight": 131.24264068711926, "nodes": "30-31" }, "geometry": { "type": "LineString", "coordinates": [ [ -96.827718664021489, 32.778603220736521 ], [ -96.828886473890847, 32.778595667981179 ] ] } },
{ "type": "Feature", "properties": { "weight": 168.55634918610406, "nodes": "30-39" }, "geometry": { "type": "LineString", "coordinates": [ [ -96.827718664021489, 32.778603220736521 ], [ -96.827745613480019, 32.77852014039253 ], [ -96.827745613480019, 32.777689332686194 ], [ -96.827763579785696, 32.777402324584891 ], [ -96.827781546091373, 32.777364560292114 ] ] } },
{ "type": "Feature", "properties": { "weight": 48.828427124746192, "nodes": "32-33" }, "geometry": { "type": "LineString", "coordinates": [ [ -96.828392400484574, 32.778172712659021 ], [ -96.828392400484574, 32.777810177925581 ] ] } },
{ "type": "Feature", "properties": { "weight": 43.892922226992169, "nodes": "35-37" }, "geometry": { "type": "LineString", "coordinates": [ [ -96.828365451026059, 32.777689332686194 ], [ -96.828419349943104, 32.77767422701973 ], [ -96.828643928764123, 32.777681779853275 ], [ -96.828742743445375, 32.777666674185539 ] ] } },
{ "type": "Feature", "properties": { "weight": 36.242640687119284, "nodes": "35-36" }, "geometry": { "type": "LineString", "coordinates": [ [ -96.828365451026059, 32.777689332686194 ], [ -96.828302568956175, 32.77767422701973 ], [ -96.828051040676613, 32.777681779853275 ] ] } },
{ "type": "Feature", "properties": { "weight": 106.83404772394645, "nodes": "38-42" }, "geometry": { "type": "LineString", "coordinates": [ [ -96.824628459444114, 32.77737966601115 ], [ -96.824718290972527, 32.777319243119635 ], [ -96.825481858964039, 32.777160632834196 ] ] } },
{ "type": "Feature", "properties": { "weight": 67.005620599200242, "nodes": "38-43" }, "geometry": { "type": "LineString", "coordinates": [ [ -96.824628459444114, 32.77737966601115 ], [ -96.824592526832745, 32.777372113151955 ], [ -96.824556594221391, 32.77733434884636 ], [ -96.824421846928772, 32.777047339600074 ], [ -96.824349981706035, 32.77698691648289 ] ] } },
{ "type": "Feature", "properties": { "weight": 131.48528137423858, "nodes": "39-40" }, "geometry": { "type": "LineString", "coordinates": [ [ -96.828940372807892, 32.777364560292114 ], [ -96.827781546091373, 32.777364560292114 ] ] } },
{ "type": "Feature", "properties": { "weight": 106.18376618407356, "nodes": "41-43" }, "geometry": { "type": "LineString", "coordinates": [ [ -96.823496582186124, 32.777190844338932 ], [ -96.824305065941843, 32.777024680935938 ], [ -96.824349981706035, 32.77698691648289 ] ] } },
{ "type": "Feature", "properties": { "weight": 372.54529580791814, "nodes": "41-58" }, "geometry": { "type": "LineString", "coordinates": [ [ -96.823496582186124, 32.777190844338932 ], [ -96.822759963653155, 32.776760329428065 ], [ -96.822526401679269, 32.776579059368778 ], [ -96.822355721775295, 32.776405341882125 ], [ -96.822185041871307, 32.776171200385278 ], [ -96.822014361967319, 32.775876634401271 ], [ -96.821753850534932, 32.775302605579675 ], [ -96.821726901076403, 32.775189309979986 ], [ -96.821673002159358, 32.775128885601184 ] ] } },
{ "type": "Feature", "properties": { "weight": 59.106125662588596, "nodes": "43-45" }, "geometry": { "type": "LineString", "coordinates": [ [ -96.824349981706035, 32.77698691648289 ], [ -96.824332015400358, 32.776896281730203 ], [ -96.824188284954886, 32.776677247363395 ], [ -96.824170318649209, 32.776601718146388 ] ] } },
{ "type": "Feature", "properties": { "weight": 240.5096679918781, "nodes": "44-47" }, "geometry": { "type": "LineString", "coordinates": [ [ -96.825823218771987, 32.776964257803371 ], [ -96.826254410108376, 32.776873623027605 ], [ -96.826604753069176, 32.776767882339186 ], [ -96.827134759086803, 32.776662141525122 ], [ -96.827637815645915, 32.776526188865262 ], [ -96.827745613480019, 32.776480871265818 ] ] } },
{ "type": "Feature", "properties": { "weight": 27.378203601230741, "nodes": "45-46" }, "geometry": { "type": "LineString", "coordinates": [ [ -96.824170318649209, 32.776601718146388 ], [ -96.824251167024784, 32.776548847656329 ], [ -96.824349981706035, 32.776541294726613 ], [ -96.824376931164565, 32.77651863593362 ] ] } },
{ "type": "Feature", "properties": { "weight": 42.513766515342198, "nodes": "45-49" }, "geometry": { "type": "LineString", "coordinates": [ [ -96.824170318649209, 32.776601718146388 ], [ -96.824098453426487, 32.776548847656329 ], [ -96.824026588203751, 32.776450659520037 ], [ -96.823990655592397, 32.776344918329016 ] ] } },
{ "type": "Feature", "properties": { "weight": 113.11269837220809, "nodes": "48-50" }, "geometry": { "type": "LineString", "coordinates": [ [ -96.82704492755839, 32.776443106581986 ], [ -96.827565950423178, 32.776314706537079 ], [ -96.827979175453876, 32.776276941782719 ] ] } },
{ "type": "Feature", "properties": { "weight": 609.39753958498682, "nodes": "49-56" }, "geometry": { "type": "LineString", "coordinates": [ [ -96.823990655592397, 32.776344918329016 ], [ -96.824062520815119, 32.776299600637259 ], [ -96.824439813234449, 32.776216518142419 ], [ -96.82855409723571, 32.77539324195557 ], [ -96.828949355960731, 32.77529505254418 ] ] } },
{ "type": "Feature", "properties": { "weight": 99.90511553581193, "nodes": "49-51" }, "geometry": { "type": "LineString", "coordinates": [ [ -96.823990655592397, 32.776344918329016 ], [ -96.823909807216822, 32.776292047686383 ], [ -96.823757093618525, 32.776073011832281 ], [ -96.823694211548627, 32.775937058272355 ], [ -96.823667262090098, 32.775710468544233 ] ] } },
{ "type": "Feature", "properties": { "weight": 170.28989184666216, "nodes": "51-66" }, "geometry": { "type": "LineString", "coordinates": [ [ -96.823667262090098, 32.775710468544233 ], [ -96.823793026229893, 32.775650044519296 ], [ -96.823819975688409, 32.775619832491437 ], [ -96.823981672439544, 32.775113779500067 ], [ -96.824026588203751, 32.774909846884064 ], [ -96.824143369190693, 32.774683254540399 ], [ -96.824143369190693, 32.774615276724788 ] ] } },
{ "type": "Feature", "properties": { "weight": 146.45584412271572, "nodes": "51-64" }, "geometry": { "type": "LineString", "coordinates": [ [ -96.823667262090098, 32.775710468544233 ], [ -96.823631329478744, 32.775695362541846 ], [ -96.823604380020214, 32.77539324195557 ], [ -96.823658278937259, 32.774788997705905 ], [ -96.823631329478744, 32.774675701452338 ] ] } },
{ "type": "Feature", "properties": { "weight": 94.005620599200256, "nodes": "53-54" }, "geometry": { "type": "LineString", "coordinates": [ [ -96.819795523215561, 32.775597173463815 ], [ -96.81988535474396, 32.775476325219046 ], [ -96.820406377608762, 32.775378135899338 ], [ -96.820478242831484, 32.775340370747514 ] ] } },
{ "type": "Feature", "properties": { "weight": 23.414213562373096, "nodes": "54-55" }, "geometry": { "type": "LineString", "coordinates": [ [ -96.820478242831484, 32.775340370747514 ], [ -96.820684855346826, 32.775332817715231 ] ] } },
{ "type": "Feature", "properties": { "weight": 83.497474683058329, "nodes": "54-62" }, "geometry": { "type": "LineString", "coordinates": [ [ -96.820478242831484, 32.775340370747514 ], [ -96.820424343914439, 32.77529505254418 ], [ -96.820379428150233, 32.775174203889136 ], [ -96.820163832482038, 32.774819210015828 ] ] } },
{ "type": "Feature", "properties": { "weight": 13.128990204491959, "nodes": "55-57" }, "geometry": { "type": "LineString", "coordinates": [ [ -96.820684855346826, 32.775332817715231 ], [ -96.820765703722401, 32.775272393433859 ] ] } },
{ "type": "Feature", "properties": { "weight": 108.87005768508881, "nodes": "57-58" }, "geometry": { "type": "LineString", "coordinates": [ [ -96.820765703722401, 32.775272393433859 ], [ -96.820981299390596, 32.775257287357107 ], [ -96.821484355949707, 32.775151544748041 ], [ -96.821673002159358, 32.775128885601184 ] ] } },
{ "type": "Feature", "properties": { "weight": 121.08326112068524, "nodes": "57-61" }, "geometry": { "type": "LineString", "coordinates": [ [ -96.820765703722401, 32.775272393433859 ], [ -96.82074773741671, 32.775257287357107 ], [ -96.82074773741671, 32.775204416068284 ], [ -96.820846552097962, 32.77510622644855 ], [ -96.821601136936636, 32.774940059152961 ] ] } },
{ "type": "Feature", "properties": { "weight": 6.4787086646190746, "nodes": "58-59" }, "geometry": { "type": "LineString", "coordinates": [ [ -96.821673002159358, 32.775128885601184 ], [ -96.821708934770726, 32.775091120343589 ] ] } },
{ "type": "Feature", "properties": { "weight": 67.455844122715703, "nodes": "59-60" }, "geometry": { "type": "LineString", "coordinates": [ [ -96.821708934770726, 32.775091120343589 ], [ -96.821978429355951, 32.775045802013331 ], [ -96.822247923941205, 32.774955165283565 ] ] } },
{ "type": "Feature", "properties": { "weight": 24.970562748477143, "nodes": "59-61" }, "geometry": { "type": "LineString", "coordinates": [ [ -96.821708934770726, 32.775091120343589 ], [ -96.821646052700842, 32.775038248956037 ], [ -96.821628086395151, 32.774962718347901 ], [ -96.821601136936636, 32.774940059152961 ] ] } },
{ "type": "Feature", "properties": { "weight": 165.1543289325507, "nodes": "60-65" }, "geometry": { "type": "LineString", "coordinates": [ [ -96.822247923941205, 32.774955165283565 ], [ -96.822490469067901, 32.774947612218583 ], [ -96.823263020212252, 32.774781444626818 ], [ -96.823442683269079, 32.774766338466733 ], [ -96.823496582186124, 32.774751232304077 ], [ -96.823586413714537, 32.774675701452338 ] ] } },
{ "type": "Feature", "properties": { "weight": 92.941125496954271, "nodes": "60-69" }, "geometry": { "type": "LineString", "coordinates": [ [ -96.822247923941205, 32.774955165283565 ], [ -96.822292839705398, 32.774766338466733 ], [ -96.822382671233811, 32.774539745757657 ], [ -96.822409620692341, 32.774396236743499 ], [ -96.822490469067901, 32.774350918059369 ] ] } },
{ "type": "Feature", "properties": { "weight": 91.419834161573348, "nodes": "61-70" }, "geometry": { "type": "LineString", "coordinates": [ [ -96.821601136936636, 32.774940059152961 ], [ -96.821610120089474, 32.774841869241541 ], [ -96.821699951617887, 32.774607723630957 ], [ -96.821834698910507, 32.774366024289975 ], [ -96.821870631521861, 32.774350918059369 ] ] } },
{ "type": "Feature", "properties": { "weight": 27.87005768508881, "nodes": "63-66" }, "geometry": { "type": "LineString", "coordinates": [ [ -96.82432303224752, 32.774743679221785 ], [ -96.824287099636138, 32.774736126138862 ], [ -96.824143369190693, 32.774615276724788 ] ] } },
{ "type": "Feature", "properties": { "weight": 60.963990038857645, "nodes": "64-66" }, "geometry": { "type": "LineString", "coordinates": [ [ -96.823631329478744, 32.774675701452338 ], [ -96.823748110465687, 32.774630382910516 ], [ -96.824143369190693, 32.774615276724788 ] ] } },
{ "type": "Feature", "properties": { "weight": 5.0, "nodes": "64-65" }, "geometry": { "type": "LineString", "coordinates": [ [ -96.823631329478744, 32.774675701452338 ], [ -96.823586413714537, 32.774675701452338 ] ] } },
{ "type": "Feature", "properties": { "weight": 70.941125496954285, "nodes": "65-72" }, "geometry": { "type": "LineString", "coordinates": [ [ -96.823586413714537, 32.774675701452338 ], [ -96.82354149795033, 32.774615276724788 ], [ -96.823514548491801, 32.774464214726422 ], [ -96.823307935976459, 32.774366024289975 ], [ -96.823218104448046, 32.774343364943107 ] ] } },
{ "type": "Feature", "properties": { "weight": 209.90511553581194, "nodes": "66-71" }, "geometry": { "type": "LineString", "coordinates": [ [ -96.824143369190693, 32.774615276724788 ], [ -96.824206251260577, 32.774562405054525 ], [ -96.8245386279157, 32.77451708645502 ], [ -96.824817105653779, 32.774434002295983 ], [ -96.825886100841871, 32.774343364943107 ] ] } },
{ "type": "Feature", "properties": { "weight": 257.29646455628171, "nodes": "67-68" }, "geometry": { "type": "LineString", "coordinates": [ [ -96.828958339113569, 32.774562405054525 ], [ -96.827646798798753, 32.774819210015828 ], [ -96.827431203130573, 32.774841869241541 ], [ -96.827224590615231, 32.774819210015828 ], [ -96.827170691698171, 32.774773891547092 ], [ -96.827143742239656, 32.774486874042523 ] ] } }
]
}
