{
"type": "FeatureCollection",
"name": "gee_batch_6_34.06006_-118.22146",
"crs": { "type": "name", "properties": { "name": "urn:ogc:def:crs:OGC:1.3:CRS84" } },
"features": [
{ "type": "Feature", "properties": { "name": "road_network" }, "geometry": { "type": "MultiLineString", "coordinates": [ [ [ -118.22361151157429, 34.06386643039982 ], [ -118.223683376797041, 34.063814338013323 ], [ -118.223746258866925, 34.06364317708934 ], [ -118.223755242019763, 34.06352410841658 ], [ -118.223836090395338, 34.063442248607025 ], [ -118.22390795561806, 34.063226436002758 ], [ -118.224105584980563, 34.062832018443849 ] ], [ [ -118.225075765487418, 34.06378457092093 ], [ -118.22503983287605, 34.06356875918847 ] ], [ [ -118.22503983287605, 34.06356875918847 ], [ -118.225093731793095, 34.06352410841658 ], [ -118.225165597015831, 34.063248761470071 ], [ -118.225264411697083, 34.063055273891337 ], [ -118.225372209531173, 34.062906436991703 ], [ -118.22539017583685, 34.062839460301575 ], [ -118.225515939976631, 34.062794809145416 ] ], [ [ -118.22503983287605, 34.06356875918847 ], [ -118.224932035041959, 34.06351666661898 ], [ -118.224653557303867, 34.063166901394524 ], [ -118.224455927941364, 34.062995739162851 ], [ -118.224231349120345, 34.06286178587083 ], [ -118.224105584980563, 34.062832018443849 ] ], [ [ -118.225273394849921, 34.06356875918847 ], [ -118.225408142142541, 34.063144575905646 ], [ -118.22552492312947, 34.062943646241116 ], [ -118.225542889435147, 34.062839460301575 ], [ -118.225515939976631, 34.062794809145416 ] ], [ [ -118.225947131313021, 34.063419923190686 ], [ -118.226045945994272, 34.063278528750658 ], [ -118.226054929147111, 34.063196668703874 ] ], [ [ -118.216901096401941, 34.063323179651945 ], [ -118.216954995318986, 34.063271086931486 ], [ -118.21744906872523, 34.063204110529576 ], [ -118.218580945983234, 34.063099924910254 ], [ -118.220000284132126, 34.062928762543315 ], [ -118.221383689669665, 34.06280969286675 ] ], [ [ -118.216865163790573, 34.062898995139861 ], [ -118.21699092793034, 34.062645971788328 ], [ -118.217080759458753, 34.06260132053022 ] ], [ [ -118.224105584980563, 34.062832018443849 ], [ -118.224069652369195, 34.062787367283768 ], [ -118.223818124089661, 34.062698064893048 ], [ -118.223728292561248, 34.062593878651583 ] ], [ [ -118.225515939976631, 34.062794809145416 ], [ -118.225704586186282, 34.062556669248593 ], [ -118.225776451409018, 34.062385505784391 ] ], [ [ -118.222255055495268, 34.062735274233958 ], [ -118.222470651163448, 34.062750157965745 ], [ -118.223467781128832, 34.062608762408196 ], [ -118.223728292561248, 34.062593878651583 ] ], [ [ -118.218760609040046, 34.062690623022903 ], [ -118.218661794358795, 34.062534343598955 ], [ -118.218401282926408, 34.062303644874973 ], [ -118.218311451397994, 34.062184574320099 ] ], [ [ -118.217529917100805, 34.062638529913606 ], [ -118.217880260061605, 34.062415273368224 ], [ -118.217907209520121, 34.062363180089662 ] ], [ [ -118.217080759458753, 34.06260132053022 ], [ -118.217197540445696, 34.062608762408196 ], [ -118.217305338279786, 34.062578994892348 ], [ -118.217520933947966, 34.06244504094159 ] ], [ [ -118.217080759458753, 34.06260132053022 ], [ -118.21712567522296, 34.062482250393593 ], [ -118.217215506751373, 34.062385505784391 ], [ -118.218482131301982, 34.061544567221375 ], [ -118.219874519992359, 34.060577105455145 ], [ -118.22009011566054, 34.060435706271974 ], [ -118.220206896647468, 34.060405937992826 ], [ -118.220332660787278, 34.060420822133707 ] ], [ [ -118.223728292561248, 34.062593878651583 ], [ -118.223773208325454, 34.062549227366034 ], [ -118.223854056701015, 34.062526901714435 ], [ -118.224087618674886, 34.062497134169824 ], [ -118.224923051889121, 34.062452482833294 ], [ -118.22552492312947, 34.062392947681332 ] ], [ [ -118.225776451409018, 34.062385505784391 ], [ -118.22584831663174, 34.062355738190114 ], [ -118.225911198701624, 34.062281319158672 ], [ -118.226018996535743, 34.062102713216575 ], [ -118.226045945994272, 34.061983642379388 ] ], [ [ -118.217907209520121, 34.062363180089662 ], [ -118.217979074742857, 34.062355738190114 ], [ -118.218203653563904, 34.062206900061881 ], [ -118.218311451397994, 34.062184574320099 ] ], [ [ -118.217907209520121, 34.062363180089662 ], [ -118.217844327450237, 34.062296202970188 ] ], [ [ -118.217682630699102, 34.062355738190114 ], [ -118.217844327450237, 34.062296202970188 ] ], [ [ -118.218311451397994, 34.062184574320099 ], [ -118.218356367162201, 34.062095271294154 ], [ -118.21860789544175, 34.061916664959945 ], [ -118.218625861747427, 34.061864571374898 ] ], [ [ -118.216874146943411, 34.062132480899727 ], [ -118.216963978471824, 34.062102713216575 ], [ -118.21771856331047, 34.061559451162289 ] ], [ [ -118.219173834070759, 34.062050619745889 ], [ -118.219209766682127, 34.061938990772312 ] ], [ [ -118.219039086778125, 34.061961316578795 ], [ -118.219209766682127, 34.061938990772312 ] ], [ [ -118.219209766682127, 34.061938990772312 ], [ -118.219245699293481, 34.061901781081772 ] ], [ [ -118.219245699293481, 34.061901781081772 ], [ -118.21940739604463, 34.061857129431559 ], [ -118.219685873782694, 34.061618986899788 ], [ -118.219892486298036, 34.061529683277854 ], [ -118.221446571739577, 34.060465474540663 ], [ -118.221518436962313, 34.060420822133707 ], [ -118.221626234796403, 34.060413380063594 ] ], [ [ -118.218625861747427, 34.061864571374898 ], [ -118.218769592192885, 34.061819919705087 ], [ -118.220808767887846, 34.060428264203168 ], [ -118.220943515180466, 34.060391053849337 ] ], [ [ -118.225138647557301, 34.061574335100588 ], [ -118.225695603033444, 34.061529683277854 ], [ -118.225839333478902, 34.061477589454931 ], [ -118.225920181854477, 34.061410611635544 ], [ -118.226010013382904, 34.061239445856636 ], [ -118.226027979688595, 34.061142699828686 ], [ -118.226027979688595, 34.060815250914594 ], [ -118.226010013382904, 34.060569663398752 ], [ -118.22597408077155, 34.060495242798901 ], [ -118.22597408077155, 34.060368727629189 ] ], [ [ -118.218401282926408, 34.061135257821959 ], [ -118.218994171013918, 34.060673852128744 ], [ -118.219146884612229, 34.060591989565964 ], [ -118.219335530821894, 34.060450590407626 ], [ -118.219515193878721, 34.060405937992826 ] ], [ [ -118.216963978471824, 34.060845019049971 ], [ -118.217026860541708, 34.060807808879112 ], [ -118.217134658375798, 34.060673852128744 ] ], [ [ -118.216865163790573, 34.060815250914594 ], [ -118.216901096401941, 34.060539895166649 ], [ -118.216954995318986, 34.060458032474472 ], [ -118.217026860541708, 34.060428264203168 ] ], [ [ -118.221626234796403, 34.060539895166649 ], [ -118.22164420110208, 34.060517568985716 ], [ -118.221626234796403, 34.060413380063594 ] ], [ [ -118.2217789483947, 34.060413380063594 ], [ -118.221734032630494, 34.060391053849337 ], [ -118.221626234796403, 34.060413380063594 ] ] ] } }
]
}
