{
"type": "FeatureCollection",
"name": "gee_batch_0_39.93252_-75.12523",
"crs": { "type": "name", "properties": { "name": "urn:ogc:def:crs:OGC:1.3:CRS84" } },
"features": [
{ "type": "Feature", "properties": { "name": "road_network" }, "geometry": { "type": "MultiLineString", "coordinates": [ [ [ -75.128464023606782, 39.936040584019814 ], [ -75.128535888829504, 39.93599925639225 ], [ -75.128553855135195, 39.935909713113602 ], [ -75.128643686663608, 39.93528290688262 ], [ -75.128643686663608, 39.934945393457355 ], [ -75.128706568733506, 39.934718087559538 ], [ -75.128715551886344, 39.934470116628191 ] ], [ [ -75.125275004348168, 39.936040584019814 ], [ -75.126263151160686, 39.93599925639225 ] ], [ [ -75.126263151160686, 39.93599925639225 ], [ -75.126900955012417, 39.935985480510851 ], [ -75.126954853929462, 39.935971704626681 ], [ -75.127143500139127, 39.934731863696051 ], [ -75.127143500139127, 39.934580326041932 ] ], [ [ -75.126263151160686, 39.93599925639225 ], [ -75.126227218549317, 39.935765066031365 ], [ -75.126200269090802, 39.935338010957253 ] ], [ [ -75.126200269090802, 39.935338010957253 ], [ -75.126227218549317, 39.935317346934461 ], [ -75.126487729981719, 39.935310458925478 ] ], [ [ -75.126200269090802, 39.935338010957253 ], [ -75.12610145440955, 39.934635430682249 ] ], [ [ -75.124709065719173, 39.934752527895611 ], [ -75.124736015177689, 39.934731863696051 ], [ -75.124789914094734, 39.934724975628136 ], [ -75.126056538645344, 39.934635430682249 ] ], [ [ -75.12610145440955, 39.934635430682249 ], [ -75.126927904470946, 39.934580326041932 ], [ -75.127143500139127, 39.934580326041932 ] ], [ [ -75.12610145440955, 39.934635430682249 ], [ -75.126056538645344, 39.934635430682249 ] ], [ [ -75.126056538645344, 39.934635430682249 ], [ -75.126056538645344, 39.934235921034748 ], [ -75.126029589186814, 39.934132599194648 ], [ -75.125948740811253, 39.933374900934574 ], [ -75.125921791352724, 39.933299130647221 ] ], [ [ -75.127143500139127, 39.934580326041932 ], [ -75.127170449597656, 39.934545885619201 ] ], [ [ -75.127170449597656, 39.934545885619201 ], [ -75.127457910488573, 39.934552773705136 ], [ -75.12750282625278, 39.934532109445257 ], [ -75.127601640934031, 39.934525221357241 ], [ -75.128464023606782, 39.934470116628191 ], [ -75.128715551886344, 39.934470116628191 ] ], [ [ -75.127170449597656, 39.934545885619201 ], [ -75.12723333166754, 39.93398794835646 ], [ -75.127260281126055, 39.93381574457905 ], [ -75.127278247431747, 39.933808856418942 ] ], [ [ -75.128715551886344, 39.934470116628191 ], [ -75.128760467650551, 39.934415011854774 ], [ -75.128769450803389, 39.93434613082561 ], [ -75.128841316026111, 39.934173927949409 ], [ -75.128868265484641, 39.934015500920637 ], [ -75.128940130707363, 39.933829520897184 ], [ -75.129003012777247, 39.93307870751616 ] ], [ [ -75.127278247431747, 39.933808856418942 ], [ -75.12734112950163, 39.933182030947229 ] ], [ [ -75.124691099413482, 39.933395565543833 ], [ -75.12475398148338, 39.933347348112513 ], [ -75.125032459221444, 39.933340459905267 ], [ -75.125499583169187, 39.933299130647221 ], [ -75.125921791352724, 39.933299130647221 ] ], [ [ -75.125921791352724, 39.933299130647221 ], [ -75.125939757658415, 39.933271577794656 ] ], [ [ -75.125939757658415, 39.933271577794656 ], [ -75.126631460427177, 39.933209583835847 ], [ -75.12734112950163, 39.933182030947229 ] ], [ [ -75.125939757658415, 39.933271577794656 ], [ -75.12588585874137, 39.932679188781798 ], [ -75.12585890928284, 39.932582752875838 ] ], [ [ -75.12734112950163, 39.933182030947229 ], [ -75.12736807896016, 39.933147589820877 ] ], [ [ -75.12736807896016, 39.933147589820877 ], [ -75.127583674628355, 39.933154478047534 ], [ -75.127996899659038, 39.933120036907312 ], [ -75.128616737205093, 39.933099372214855 ], [ -75.128724535039183, 39.93307870751616 ], [ -75.129003012777247, 39.93307870751616 ] ], [ [ -75.12736807896016, 39.933147589820877 ], [ -75.127395028418675, 39.932823842385972 ], [ -75.127430961030043, 39.932699853601108 ], [ -75.127547742016986, 39.93183881417719 ], [ -75.127574691475516, 39.931756153822668 ] ], [ [ -75.129003012777247, 39.93307870751616 ], [ -75.129029962235776, 39.933044266337816 ], [ -75.129110810611351, 39.932568976306754 ], [ -75.129146743222719, 39.931673493368322 ] ], [ [ -75.124673133107805, 39.932713630143851 ], [ -75.124736015177689, 39.932658523956242 ], [ -75.12585890928284, 39.932582752875838 ] ], [ [ -75.12585890928284, 39.932582752875838 ], [ -75.125867892435679, 39.932520758293116 ], [ -75.125813993518634, 39.932176342922162 ], [ -75.125805010365795, 39.931935251131314 ], [ -75.125778060907265, 39.931893921024759 ] ], [ [ -75.124691099413482, 39.932004134586776 ], [ -75.124744998330527, 39.931962804521817 ], [ -75.125778060907265, 39.931893921024759 ] ], [ [ -75.125778060907265, 39.931893921024759 ], [ -75.125769077754427, 39.93165282823913 ], [ -75.125706195684529, 39.93114308641092 ] ], [ [ -75.127574691475516, 39.931756153822668 ], [ -75.128239444785748, 39.931728600348983 ], [ -75.128751484497698, 39.931680381743334 ], [ -75.129146743222719, 39.931673493368322 ] ], [ [ -75.127574691475516, 39.931756153822668 ], [ -75.127583674628355, 39.931535725722576 ], [ -75.127655539851077, 39.931019094581423 ] ], [ [ -75.129146743222719, 39.931673493368322 ], [ -75.129173692681249, 39.931618386343295 ], [ -75.129236574751133, 39.931032871462456 ], [ -75.129290473668178, 39.930791775643989 ], [ -75.129335389432384, 39.930385355056295 ], [ -75.129344372585223, 39.930185588120167 ], [ -75.129326406279546, 39.930144256957149 ] ], [ [ -75.124709065719173, 39.931225747505799 ], [ -75.125688229378852, 39.931156863266999 ], [ -75.125706195684529, 39.93114308641092 ] ], [ [ -75.125706195684529, 39.93114308641092 ], [ -75.126379932147628, 39.931108644258593 ], [ -75.126712308802752, 39.93106731365291 ], [ -75.127448927335735, 39.931012206139854 ], [ -75.127655539851077, 39.931019094581423 ] ], [ [ -75.125706195684529, 39.93114308641092 ], [ -75.125688229378852, 39.9311224211216 ], [ -75.125661279920322, 39.93081244103314 ], [ -75.125634330461807, 39.930722890968461 ], [ -75.125625347308969, 39.930454240071505 ], [ -75.125607381003277, 39.930406020568135 ] ], [ [ -75.127655539851077, 39.931019094581423 ], [ -75.127754354532328, 39.930433574574216 ], [ -75.127754354532328, 39.930261361854221 ] ], [ [ -75.124718048872012, 39.930474905562548 ], [ -75.125221105431123, 39.9304473515731 ], [ -75.125364835876567, 39.930419797572561 ], [ -75.125580431544762, 39.930419797572561 ], [ -75.125607381003277, 39.930406020568135 ] ], [ [ -75.125607381003277, 39.930406020568135 ], [ -75.127754354532328, 39.930261361854221 ] ], [ [ -75.125607381003277, 39.930406020568135 ], [ -75.125445684252142, 39.929042083404042 ], [ -75.125391785335097, 39.929007640194563 ], [ -75.124870762470309, 39.92901452883784 ], [ -75.124744998330527, 39.929021417480428 ], [ -75.124691099413482, 39.929042083404042 ] ], [ [ -75.127754354532328, 39.930261361854221 ], [ -75.127781303990858, 39.930213142214981 ] ], [ [ -75.127781303990858, 39.930213142214981 ], [ -75.127862152366419, 39.930233807778812 ], [ -75.128059781728936, 39.930233807778812 ], [ -75.128688602427815, 39.930178699594734 ], [ -75.129299456821016, 39.930158034014262 ], [ -75.129326406279546, 39.930144256957149 ] ], [ [ -75.127781303990858, 39.930213142214981 ], [ -75.127781303990858, 39.930020263318347 ], [ -75.127700455615283, 39.929090303868207 ], [ -75.127601640934031, 39.92901452883784 ] ], [ [ -75.129326406279546, 39.930144256957149 ], [ -75.129784547074451, 39.930137368427545 ] ], [ [ -75.129326406279546, 39.930144256957149 ], [ -75.129299456821016, 39.929944489317407 ], [ -75.129110810611351, 39.929290074000747 ], [ -75.129003012777247, 39.929028306122326 ], [ -75.128931147554525, 39.928993862905912 ] ] ] } }
]
}
