{
"type": "FeatureCollection",
"name": "gee_batch_5_29.71964_-95.34888",
"crs": { "type": "name", "properties": { "name": "urn:ogc:def:crs:OGC:1.3:CRS84" } },
"features": [
{ "type": "Feature", "properties": { "name": "road_network" }, "geometry": { "type": "MultiLineString", "coordinates": [ [ [ -95.351768483378521, 29.723626335485843 ], [ -95.35185831490692, 29.723563925756991 ], [ -95.352190691562043, 29.722736993185539 ], [ -95.352298489396148, 29.722534159627369 ] ], [ [ -95.350897117552918, 29.723626335485843 ], [ -95.351013898539847, 29.723556124538153 ], [ -95.351076780609731, 29.723423503725151 ], [ -95.351355258347823, 29.722721390618695 ], [ -95.351391190959177, 29.722534159627369 ], [ -95.351364241500661, 29.722487351824959 ] ], [ [ -95.346279776992546, 29.723626335485843 ], [ -95.346441473743681, 29.723524919656743 ] ], [ [ -95.346441473743681, 29.723524919656743 ], [ -95.346486389507888, 29.723298683976346 ], [ -95.346746900940289, 29.722588768702586 ], [ -95.346773850398804, 29.722417140080417 ] ], [ [ -95.351184578443835, 29.722705788049428 ], [ -95.351211527902365, 29.722588768702586 ], [ -95.351364241500661, 29.722487351824959 ] ], [ [ -95.351364241500661, 29.722487351824959 ], [ -95.351552887710326, 29.722206504552048 ], [ -95.351606786627372, 29.722058279285591 ], [ -95.351624752933049, 29.721886649756208 ] ], [ [ -95.346252827534016, 29.722463947915568 ], [ -95.346037231865836, 29.722393736154654 ] ], [ [ -95.346773850398804, 29.722417140080417 ], [ -95.34682774931585, 29.72235472959958 ], [ -95.347294873263593, 29.721192327301004 ], [ -95.347366738486329, 29.721059703364304 ], [ -95.347627249918716, 29.720412183980301 ], [ -95.347645216224393, 29.720279559012713 ] ], [ [ -95.346773850398804, 29.722417140080417 ], [ -95.346719951481759, 29.722378133534441 ], [ -95.346073164477204, 29.722214305875799 ] ], [ [ -95.348148272783504, 29.722229908521474 ], [ -95.348094373866459, 29.722081683289584 ], [ -95.348094373866459, 29.721925656493209 ] ], [ [ -95.351624752933049, 29.721886649756208 ], [ -95.351705601308623, 29.721832040298938 ], [ -95.351894247518288, 29.721301546881989 ], [ -95.351966112741025, 29.721239135707414 ] ], [ [ -95.351624752933049, 29.721886649756208 ], [ -95.351534921404635, 29.7218398416518 ], [ -95.351570854016003, 29.721691615843817 ] ], [ [ -95.353475282418344, 29.721769629454251 ], [ -95.353430366654138, 29.721691615843817 ], [ -95.353349518278563, 29.721652609015855 ], [ -95.352846461719466, 29.721496581552401 ], [ -95.352756630191038, 29.721488780172866 ] ], [ [ -95.349917953893225, 29.721691615843817 ], [ -95.349414897334128, 29.721504382931336 ], [ -95.348911840775017, 29.721379560795633 ] ], [ [ -95.352666798662625, 29.721629204911803 ], [ -95.352756630191038, 29.721488780172866 ] ], [ [ -95.351382207806338, 29.721519985687383 ], [ -95.350007785421639, 29.721098710422702 ], [ -95.349163369054565, 29.720880270700409 ] ], [ [ -95.352756630191038, 29.721488780172866 ], [ -95.352675781815464, 29.721441971882896 ], [ -95.352136792644998, 29.721285944091978 ], [ -95.352011028505217, 29.721270341299551 ], [ -95.351966112741025, 29.721239135707414 ] ], [ [ -95.351966112741025, 29.721239135707414 ], [ -95.352002045352378, 29.721036299121984 ], [ -95.352136792644998, 29.720724242036276 ], [ -95.352154758950675, 29.720630624721352 ], [ -95.352235607326264, 29.720458992750547 ], [ -95.352280523090471, 29.720435588368158 ] ], [ [ -95.353475282418344, 29.720864667844911 ], [ -95.353430366654138, 29.720802256398667 ], [ -95.352352388313193, 29.720490198585253 ], [ -95.352280523090471, 29.720435588368158 ] ], [ [ -95.349064554373314, 29.720552610225557 ], [ -95.349037604914784, 29.720521404410253 ], [ -95.349010655456269, 29.720396581052039 ] ], [ [ -95.352280523090471, 29.720435588368158 ], [ -95.352298489396148, 29.720326367844812 ], [ -95.35250510191149, 29.71981146949102 ], [ -95.352541034522858, 29.719639836119438 ] ], [ [ -95.349010655456269, 29.720396581052039 ], [ -95.349648459307986, 29.720224948681 ], [ -95.350061684338684, 29.720037713032418 ] ], [ [ -95.349010655456269, 29.720396581052039 ], [ -95.348956756539224, 29.720396581052039 ], [ -95.348947773386385, 29.720404382516474 ], [ -95.348875908163649, 29.720404382516474 ], [ -95.348741160871029, 29.720427786906146 ], [ -95.348292003228977, 29.720412183980301 ], [ -95.347788946669866, 29.72031856637431 ], [ -95.347708098294291, 29.720263956063828 ] ], [ [ -95.347645216224393, 29.720279559012713 ], [ -95.347708098294291, 29.720263956063828 ] ], [ [ -95.347645216224393, 29.720279559012713 ], [ -95.347600300460186, 29.720240551635953 ], [ -95.347321822722122, 29.72015473535372 ], [ -95.347097243901089, 29.720037713032418 ], [ -95.346558254730624, 29.71967104220883 ], [ -95.346423507438004, 29.71951501166485 ], [ -95.346432490590843, 29.719358980878315 ], [ -95.346531305272094, 29.719070323283781 ], [ -95.346908597691424, 29.718188742247886 ], [ -95.346917580844263, 29.718001502800892 ], [ -95.346971479761308, 29.717954692884579 ] ], [ [ -95.347708098294291, 29.720263956063828 ], [ -95.347753014058497, 29.720076720488009 ], [ -95.347896744503956, 29.71970224828852 ], [ -95.348040474949414, 29.719405790139739 ], [ -95.3482740369233, 29.718750458493208 ], [ -95.348327935840345, 29.718680244134454 ] ], [ [ -95.350259313701187, 29.720256154588473 ], [ -95.350088633797213, 29.720037713032418 ] ], [ [ -95.350088633797213, 29.720037713032418 ], [ -95.350061684338684, 29.720037713032418 ] ], [ [ -95.350088633797213, 29.720037713032418 ], [ -95.350591690356325, 29.719593026967157 ], [ -95.35072643764893, 29.719358980878315 ], [ -95.35075338710746, 29.719265362289963 ] ], [ [ -95.350061684338684, 29.720037713032418 ], [ -95.349756257142076, 29.719710049806928 ], [ -95.349387947875584, 29.719413591681192 ] ], [ [ -95.353475282418344, 29.719990904065693 ], [ -95.353394434042769, 29.719897286066754 ], [ -95.352873411177981, 29.719733454358511 ], [ -95.352648832356948, 29.719694446769509 ], [ -95.352576967134212, 29.719639836119438 ] ], [ [ -95.352576967134212, 29.719639836119438 ], [ -95.352774596496715, 29.719093727984532 ], [ -95.35323273729162, 29.718017106101485 ], [ -95.353295619361504, 29.717853271324323 ], [ -95.353313585667195, 29.717736246319781 ] ], [ [ -95.352576967134212, 29.719639836119438 ], [ -95.352541034522858, 29.719639836119438 ] ], [ [ -95.352541034522858, 29.719639836119438 ], [ -95.352487135605813, 29.719600828494055 ], [ -95.352361371466031, 29.719585225439658 ], [ -95.351948146435333, 29.719444797840925 ], [ -95.351364241500661, 29.719288766945233 ], [ -95.351256443666571, 29.719234156074446 ], [ -95.35096898277564, 29.719179545173944 ], [ -95.35086118494155, 29.719202949849223 ] ], [ [ -95.351795432837037, 29.719632034595573 ], [ -95.35175051707283, 29.719585225439658 ], [ -95.351579837168842, 29.71951501166485 ], [ -95.350977965928479, 29.719335576239413 ], [ -95.35086118494155, 29.719202949849223 ] ], [ [ -95.351472039334752, 29.719632034595573 ], [ -95.351328308889293, 29.719608630020343 ], [ -95.351193561596673, 29.719546217793049 ] ], [ [ -95.35075338710746, 29.719265362289963 ], [ -95.350789319718828, 29.719265362289963 ], [ -95.35086118494155, 29.719202949849223 ] ], [ [ -95.35075338710746, 29.719265362289963 ], [ -95.350088633797213, 29.719070323283781 ], [ -95.349989819115962, 29.718976704426197 ] ], [ [ -95.35086118494155, 29.719202949849223 ], [ -95.350798302871667, 29.719124934243716 ], [ -95.350717454496092, 29.719093727984532 ], [ -95.350690505037576, 29.719054720146918 ] ], [ [ -95.350690505037576, 29.719054720146918 ], [ -95.350528808286427, 29.719039117007618 ], [ -95.350178465325627, 29.718929894964663 ], [ -95.349989819115962, 29.718922093385615 ] ], [ [ -95.350690505037576, 29.719054720146918 ], [ -95.350708471343253, 29.718953299698164 ], [ -95.350816269177344, 29.718734855306618 ], [ -95.350834235483021, 29.718610029726573 ] ], [ [ -95.349989819115962, 29.718976704426197 ], [ -95.349953886504579, 29.71900010914878 ], [ -95.349801172906282, 29.718984506001 ], [ -95.349055571220475, 29.718758260085593 ], [ -95.348992689150592, 29.718727053712414 ], [ -95.348920823927855, 29.718610029726573 ] ], [ [ -95.349989819115962, 29.718976704426197 ], [ -95.349989819115962, 29.718922093385615 ] ], [ [ -95.349989819115962, 29.718922093385615 ], [ -95.349962869657432, 29.718875283898608 ], [ -95.349891004434696, 29.718836275976098 ], [ -95.349289133194333, 29.718649037737013 ], [ -95.348992689150592, 29.718586624913033 ], [ -95.348920823927855, 29.718610029726573 ] ], [ [ -95.347753014058497, 29.718898688644842 ], [ -95.348013525490884, 29.718742656900222 ] ], [ [ -95.34886692501081, 29.718883085481295 ], [ -95.348417767368744, 29.718750458493208 ], [ -95.348327935840345, 29.718680244134454 ] ], [ [ -95.348327935840345, 29.718680244134454 ], [ -95.348327935840345, 29.718555418486496 ] ], [ [ -95.350834235483021, 29.718610029726573 ], [ -95.350870168094389, 29.718594426518155 ], [ -95.350906100705757, 29.718532013660219 ], [ -95.351076780609731, 29.718110725854082 ], [ -95.351166612138158, 29.717876676308862 ], [ -95.351166612138158, 29.717759651331605 ], [ -95.35099593223417, 29.717681634604293 ], [ -95.350061684338684, 29.717424178973978 ], [ -95.349855071823328, 29.717330558581061 ], [ -95.349720324530722, 29.717314955173748 ], [ -95.349639476155147, 29.717431980669449 ], [ -95.349531678321057, 29.717736246319781 ], [ -95.349432863639805, 29.717923486261562 ], [ -95.349396931028437, 29.718056114342339 ], [ -95.34940591418129, 29.718110725854082 ], [ -95.350834235483021, 29.718610029726573 ] ], [ [ -95.348920823927855, 29.718610029726573 ], [ -95.348606413578409, 29.718524212050244 ], [ -95.348435733674435, 29.718508608828493 ] ], [ [ -95.348327935840345, 29.718555418486496 ], [ -95.348435733674435, 29.718508608828493 ] ], [ [ -95.348327935840345, 29.718555418486496 ], [ -95.348247087464756, 29.718500807216699 ], [ -95.34773504775282, 29.718352576477482 ], [ -95.347339789027799, 29.718196543883927 ], [ -95.3472499574994, 29.71804831269538 ] ], [ [ -95.348435733674435, 29.718508608828493 ], [ -95.348435733674435, 29.71839158458797 ] ], [ [ -95.348435733674435, 29.71839158458797 ], [ -95.34835488529886, 29.718336973229039 ], [ -95.348220138006241, 29.718313568351832 ], [ -95.34744758686189, 29.718056114342339 ], [ -95.3472499574994, 29.71804831269538 ] ], [ [ -95.348435733674435, 29.71839158458797 ], [ -95.348669295648293, 29.71774404799099 ], [ -95.348759127176706, 29.717588014451493 ] ], [ [ -95.3472499574994, 29.71804831269538 ], [ -95.346971479761308, 29.717954692884579 ] ], [ [ -95.346971479761308, 29.717954692884579 ], [ -95.346962496608469, 29.717923486261562 ] ], [ [ -95.346962496608469, 29.717923486261562 ], [ -95.347061311289721, 29.717837667998268 ], [ -95.347151142818149, 29.71754120434235 ], [ -95.347321822722122, 29.717151119250556 ] ], [ [ -95.346962496608469, 29.717923486261562 ], [ -95.345911467726054, 29.717533402655373 ], [ -95.345848585656157, 29.717478790829531 ] ], [ [ -95.349280150041494, 29.717845469661601 ], [ -95.349073537526152, 29.717775254669789 ], [ -95.348759127176706, 29.717588014451493 ] ], [ [ -95.353313585667195, 29.717736246319781 ], [ -95.353385450889931, 29.717673832928234 ], [ -95.353475282418344, 29.717143317533257 ] ], [ [ -95.353313585667195, 29.717736246319781 ], [ -95.353223754138781, 29.717681634604293 ], [ -95.35220865786772, 29.717361765388397 ], [ -95.352073910575115, 29.717338360283797 ] ], [ [ -95.348759127176706, 29.717588014451493 ], [ -95.348786076635236, 29.717455385752224 ], [ -95.348947773386385, 29.717080903773041 ], [ -95.349046588067637, 29.716737627398196 ], [ -95.349145402748889, 29.716074476531521 ], [ -95.349127436443197, 29.715731196715023 ] ], [ [ -95.345848585656157, 29.717478790829531 ], [ -95.345974349795938, 29.717361765388397 ], [ -95.346136046547088, 29.716940472670675 ], [ -95.346154012852764, 29.71680784311582 ] ], [ [ -95.345848585656157, 29.717478790829531 ], [ -95.34569587205786, 29.717463187445269 ], [ -95.345085017664658, 29.717252541520256 ], [ -95.344465180118618, 29.717073102050286 ], [ -95.344294500214644, 29.716839050085667 ] ], [ [ -95.352073910575115, 29.717338360283797 ], [ -95.35202001165807, 29.717299351764012 ], [ -95.35188526436545, 29.717268144937261 ], [ -95.351840348601243, 29.717229136390188 ] ], [ [ -95.351840348601243, 29.717229136390188 ], [ -95.351696618155785, 29.717213532967111 ], [ -95.350879151247227, 29.716963877868043 ] ], [ [ -95.351840348601243, 29.717229136390188 ], [ -95.352145775797837, 29.716464565807183 ] ], [ [ -95.350879151247227, 29.716963877868043 ], [ -95.350016768574477, 29.716706420396818 ] ], [ [ -95.349891004434696, 29.716924869202725 ], [ -95.349962869657432, 29.716753230895243 ], [ -95.350016768574477, 29.716706420396818 ] ], [ [ -95.353466299265506, 29.716870257045819 ], [ -95.353394434042769, 29.716768834389867 ], [ -95.352702731273993, 29.716573790532721 ], [ -95.352145775797837, 29.716464565807183 ] ], [ [ -95.346154012852764, 29.71680784311582 ], [ -95.346198928616971, 29.716768834389867 ], [ -95.346342659062429, 29.716417755174138 ], [ -95.34645045689652, 29.71613689091749 ], [ -95.346468423202197, 29.716019863911963 ] ], [ [ -95.346154012852764, 29.71680784311582 ], [ -95.344599927411238, 29.716355340962796 ], [ -95.34434839913169, 29.716269521358836 ], [ -95.344294500214644, 29.716222710634845 ] ], [ [ -95.350016768574477, 29.716706420396818 ], [ -95.35002575172733, 29.716604997575331 ], [ -95.350295246312555, 29.715949647643161 ], [ -95.350412027299484, 29.715965251262695 ], [ -95.35115762898532, 29.716199305264656 ], [ -95.352091876880792, 29.716433358720909 ], [ -95.352145775797837, 29.716464565807183 ] ], [ [ -95.346468423202197, 29.716019863911963 ], [ -95.346522322119242, 29.715965251262695 ], [ -95.346621136800508, 29.715684385739991 ], [ -95.346657069411876, 29.715668782076797 ] ], [ [ -95.346468423202197, 29.716019863911963 ], [ -95.3459653666431, 29.715895034955686 ], [ -95.34529163018, 29.715676583908699 ], [ -95.345049085053304, 29.715645376577466 ] ], [ [ -95.353466299265506, 29.715941845832486 ], [ -95.353439349806976, 29.715902836770002 ], [ -95.352594933439903, 29.715684385739991 ], [ -95.352190691562043, 29.715645376577466 ] ], [ [ -95.349127436443197, 29.715731196715023 ], [ -95.349262183735817, 29.715645376577466 ] ], [ [ -95.349127436443197, 29.715731196715023 ], [ -95.349019638609107, 29.715668782076797 ] ] ] } }
]
}
