{
"type": "FeatureCollection",
"name": "gee_batch_6_33.44162_-112.05522",
"crs": { "type": "name", "properties": { "name": "urn:ogc:def:crs:OGC:1.3:CRS84" } },
"features": [
{ "type": "Feature", "properties": { "name": "road_network" }, "geometry": { "type": "MultiLineString", "coordinates": [ [ [ -112.05208359097189, 33.445434083066907 ], [ -112.05205664151336, 33.445164239524487 ] ], [ [ -112.056422453794184, 33.445419091781019 ], [ -112.056422453794184, 33.445096778507711 ] ], [ [ -112.050637303364454, 33.445186726518415 ], [ -112.05092476425537, 33.445164239524487 ], [ -112.05205664151336, 33.445164239524487 ] ], [ [ -112.05897366920108, 33.445171735189774 ], [ -112.058982652353919, 33.445029317438483 ] ], [ [ -112.05205664151336, 33.445164239524487 ], [ -112.052200371958818, 33.445141752524727 ] ], [ [ -112.055263627077679, 33.445156743858547 ], [ -112.055865498318042, 33.445126761188305 ], [ -112.056000245610647, 33.445096778507711 ], [ -112.056341605418623, 33.445074291490471 ], [ -112.056422453794184, 33.445096778507711 ] ], [ [ -112.056422453794184, 33.445096778507711 ], [ -112.056566184239642, 33.445044308791736 ], [ -112.056718897837939, 33.445021821760889 ], [ -112.058982652353919, 33.445029317438483 ] ], [ [ -112.059746220345431, 33.445029317438483 ], [ -112.059395877384617, 33.445029317438483 ] ], [ [ -112.059395877384617, 33.445029317438483 ], [ -112.058982652353919, 33.445029317438483 ] ], [ [ -112.055218711313472, 33.444429661183953 ], [ -112.054544974850373, 33.444392182530407 ] ], [ [ -112.057177038632844, 33.443740051366653 ], [ -112.056575167392481, 33.443740051366653 ] ], [ [ -112.057186021785682, 33.443672589242325 ], [ -112.058057387611285, 33.443665093447493 ], [ -112.058479595794822, 33.443635110261688 ] ], [ [ -112.056521268475436, 33.443665093447493 ], [ -112.056269740195873, 33.443657597652013 ] ], [ [ -112.050628320211615, 33.442698130483485 ], [ -112.050673235975822, 33.442638163433109 ], [ -112.05170629855256, 33.442195905156467 ], [ -112.052290203487232, 33.441986019083764 ], [ -112.052496816002588, 33.441941043430695 ] ], [ [ -112.051068494700829, 33.442150929612204 ], [ -112.051077477853667, 33.439122522658927 ] ], [ [ -112.051077477853667, 33.439122522658927 ], [ -112.056440420099875, 33.439122522658927 ], [ -112.056512285322597, 33.43906255313707 ], [ -112.056530251628288, 33.437870650291728 ] ], [ [ -112.051077477853667, 33.439122522658927 ], [ -112.050682219128674, 33.439115026470958 ], [ -112.050637303364454, 33.439077545521421 ] ], [ [ -112.059773169803961, 33.437878146587188 ], [ -112.056530251628288, 33.437870650291728 ] ] ] } }
]
}
