{
"type": "FeatureCollection",
"name": "gee_batch_1_33.42913_-112.05795",
"crs": { "type": "name", "properties": { "name": "urn:ogc:def:crs:OGC:1.3:CRS84" } },
"features": [
{ "type": "Feature", "properties": { "name": "road_network" }, "geometry": { "type": "MultiLineString", "coordinates": [ [ [ -112.060841553977326, 33.432931837408724 ], [ -112.060841553977326, 33.432264626545617 ] ], [ [ -112.058649664684069, 33.432931837408724 ], [ -112.058649664684069, 33.43227212332539 ] ], [ [ -112.056457775390825, 33.43292434068595 ], [ -112.056466758543664, 33.43227212332539 ] ], [ [ -112.058649664684069, 33.43227212332539 ], [ -112.060437312099467, 33.43227212332539 ], [ -112.060446295252319, 33.432264626545617 ], [ -112.060841553977326, 33.432264626545617 ] ], [ [ -112.056466758543664, 33.43227212332539 ], [ -112.058649664684069, 33.43227212332539 ] ], [ [ -112.058649664684069, 33.43227212332539 ], [ -112.058631698378392, 33.431365008272465 ] ], [ [ -112.056466758543664, 33.43227212332539 ], [ -112.056430825932296, 33.43227212332539 ], [ -112.056421842779457, 33.432279620104502 ], [ -112.053412486577656, 33.432279620104502 ], [ -112.053367570813464, 33.43224213620244 ] ], [ [ -112.056466758543664, 33.43227212332539 ], [ -112.056457775390825, 33.431365008272465 ] ], [ [ -112.062503437252957, 33.432264626545617 ], [ -112.060841553977326, 33.432264626545617 ] ], [ [ -112.060841553977326, 33.432264626545617 ], [ -112.060832570824488, 33.431357511414348 ] ], [ [ -112.053412486577656, 33.431380001986774 ], [ -112.053430452883347, 33.431372505129943 ], [ -112.054903689949299, 33.431380001986774 ], [ -112.0555145443425, 33.431365008272465 ], [ -112.056457775390825, 33.431365008272465 ] ], [ [ -112.058631698378392, 33.431365008272465 ], [ -112.056457775390825, 33.431365008272465 ] ], [ [ -112.060832570824488, 33.431357511414348 ], [ -112.058631698378392, 33.431365008272465 ] ], [ [ -112.058631698378392, 33.431365008272465 ], [ -112.058631698378392, 33.430450386801979 ] ], [ [ -112.056457775390825, 33.431365008272465 ], [ -112.056439809085134, 33.430457883738455 ] ], [ [ -112.060832570824488, 33.431357511414348 ], [ -112.062494454100104, 33.431350014555584 ] ], [ [ -112.060832570824488, 33.431357511414348 ], [ -112.060823587671649, 33.430450386801979 ] ], [ [ -112.053412486577656, 33.430472877609475 ], [ -112.056439809085134, 33.430457883738455 ] ], [ [ -112.058631698378392, 33.430450386801979 ], [ -112.056439809085134, 33.430457883738455 ] ], [ [ -112.060823587671649, 33.430450386801979 ], [ -112.058631698378392, 33.430450386801979 ] ], [ [ -112.058631698378392, 33.430450386801979 ], [ -112.058631698378392, 33.429550749723482 ] ], [ [ -112.056439809085134, 33.430457883738455 ], [ -112.056430825932296, 33.429603228809171 ] ], [ [ -112.060823587671649, 33.430450386801979 ], [ -112.062521403558634, 33.43043539292708 ] ], [ [ -112.060823587671649, 33.430450386801979 ], [ -112.060805621365958, 33.429535755693173 ] ], [ [ -112.056430825932296, 33.429603228809171 ], [ -112.053403503424818, 33.429603228809171 ] ], [ [ -112.056430825932296, 33.429603228809171 ], [ -112.056448792237987, 33.429558246737663 ] ], [ [ -112.056448792237987, 33.429558246737663 ], [ -112.058631698378392, 33.429550749723482 ] ], [ [ -112.058631698378392, 33.429550749723482 ], [ -112.060805621365958, 33.429535755693173 ] ], [ [ -112.056448792237987, 33.429558246737663 ], [ -112.056430825932296, 33.429385815247599 ], [ -112.056439809085134, 33.428583629464043 ] ], [ [ -112.060805621365958, 33.429535755693173 ], [ -112.062512420405795, 33.429535755693173 ], [ -112.062539369864311, 33.429483276566685 ], [ -112.062530386711472, 33.429408306330949 ], [ -112.062467504641589, 33.429385815247599 ], [ -112.060823587671649, 33.429228377500984 ] ], [ [ -112.060805621365958, 33.429535755693173 ], [ -112.060823587671649, 33.429228377500984 ] ], [ [ -112.060823587671649, 33.429228377500984 ], [ -112.060581042544939, 33.429168401141446 ], [ -112.059170687548871, 33.428980974750765 ], [ -112.056871000421523, 33.428621114946154 ], [ -112.056439809085134, 33.428583629464043 ] ], [ [ -112.05440961654304, 33.428778553794245 ], [ -112.053358587660611, 33.428771056712726 ] ], [ [ -112.056439809085134, 33.428583629464043 ], [ -112.056367943862412, 33.428546143965733 ], [ -112.056098449277187, 33.428501161346411 ], [ -112.053394520271979, 33.428126305278752 ], [ -112.053367570813464, 33.428103813863217 ] ], [ [ -112.060239682736963, 33.428501161346411 ], [ -112.056547606919239, 33.427901390861116 ], [ -112.056439809085134, 33.427841413584652 ] ], [ [ -112.054670127975427, 33.428043836726623 ], [ -112.054643178516898, 33.428051333870961 ], [ -112.054598262752705, 33.428021345289721 ], [ -112.054445549154408, 33.428028842435992 ] ], [ [ -112.054176054569155, 33.427983859548583 ], [ -112.053439436036186, 33.427886396545887 ], [ -112.053358587660611, 33.42781142493088 ] ], [ [ -112.056439809085134, 33.427841413584652 ], [ -112.056251162875483, 33.427841413584652 ], [ -112.053619099092998, 33.427436565884548 ], [ -112.053403503424818, 33.427399079890876 ], [ -112.053367570813464, 33.427369091084287 ] ], [ [ -112.056439809085134, 33.427841413584652 ], [ -112.056439809085134, 33.427758944761841 ] ], [ [ -112.056439809085134, 33.427758944761841 ], [ -112.05853288369714, 33.427736453251121 ], [ -112.058595765767024, 33.427668978683968 ], [ -112.058586782614185, 33.426874274279733 ], [ -112.05855983315567, 33.426791804538077 ], [ -112.058514917391463, 33.426761815521687 ], [ -112.056547606919239, 33.426851782539778 ], [ -112.056421842779457, 33.426836788043239 ] ], [ [ -112.056439809085134, 33.427758944761841 ], [ -112.056421842779457, 33.426836788043239 ] ], [ [ -112.060095952291519, 33.427196655245325 ], [ -112.060113918597196, 33.427136677481911 ], [ -112.060104935444357, 33.426784307284954 ] ], [ [ -112.053394520271979, 33.426904263257271 ], [ -112.054867757337945, 33.426859279787074 ] ], [ [ -112.054867757337945, 33.426859279787074 ], [ -112.056421842779457, 33.426836788043239 ] ], [ [ -112.054867757337945, 33.426859279787074 ], [ -112.054849791032254, 33.425959605487904 ], [ -112.054867757337945, 33.425337325309272 ] ], [ [ -112.056421842779457, 33.426836788043239 ], [ -112.056439809085134, 33.426686842935382 ], [ -112.056430825932296, 33.425337325309272 ] ], [ [ -112.060113918597196, 33.426319476326498 ], [ -112.060086969138666, 33.425539754290639 ], [ -112.060104935444357, 33.42532233055114 ] ] ] } }
]
}
