{
"type": "FeatureCollection",
"name": "gee_batch_5_30.30429_-97.71199",
"crs": { "type": "name", "properties": { "name": "urn:ogc:def:crs:OGC:1.3:CRS84" } },
"features": [
{ "type": "Feature", "properties": { "name": "road_network" }, "geometry": { "type": "MultiLineString", "coordinates": [ [ [ -97.716219881726659, 30.308256998013771 ], [ -97.716282763796542, 30.308225976565012 ], [ -97.716408527936309, 30.308024336908769 ], [ -97.716552258381768, 30.307768409055406 ], [ -97.716588190993136, 30.307621056351866 ] ], [ [ -97.715528178957868, 30.308256998013771 ], [ -97.715689875709018, 30.30815617826941 ] ], [ [ -97.715438347429455, 30.308256998013771 ], [ -97.715231734914113, 30.308225976565012 ], [ -97.713830363070883, 30.3075822792878 ] ], [ [ -97.712132547183899, 30.308256998013771 ], [ -97.712051698808324, 30.308241487290623 ], [ -97.711997799891279, 30.308179444373465 ] ], [ [ -97.710892872091819, 30.308256998013771 ], [ -97.711081518301484, 30.308179444373465 ] ], [ [ -97.710713209034992, 30.308256998013771 ], [ -97.710785074257728, 30.30821046583695 ], [ -97.710910838397496, 30.308016581529088 ], [ -97.711009653078747, 30.307838207627142 ], [ -97.711027619384424, 30.307760653655489 ] ], [ [ -97.708278774615039, 30.308256998013771 ], [ -97.707910465348547, 30.308179444373465 ], [ -97.707497240317849, 30.307985560004244 ], [ -97.707407408789436, 30.307861473806678 ] ], [ [ -97.71580665669596, 30.308249242652508 ], [ -97.715689875709018, 30.30815617826941 ] ], [ [ -97.716085134434024, 30.308233731928127 ], [ -97.716148016503908, 30.307745142853793 ], [ -97.716156999656747, 30.307349616581259 ], [ -97.716192932268129, 30.306977355102127 ], [ -97.716219881726659, 30.306930822317828 ] ], [ [ -97.713426121193038, 30.308171689006066 ], [ -97.713758497848161, 30.307628811762832 ], [ -97.713830363070883, 30.3075822792878 ] ], [ [ -97.713426121193038, 30.308171689006066 ], [ -97.713246458136211, 30.308117401417039 ], [ -97.712222378712326, 30.307628811762832 ], [ -97.711997799891279, 30.307543502208397 ], [ -97.711818136834466, 30.307388393737366 ] ], [ [ -97.711081518301484, 30.308179444373465 ], [ -97.711144400371381, 30.308225976565012 ], [ -97.711270164511149, 30.308225976565012 ], [ -97.711449827567975, 30.308148422900167 ], [ -97.711539659096374, 30.307977804621501 ], [ -97.711683389541847, 30.307776164454722 ], [ -97.71174627161173, 30.307450437155236 ] ], [ [ -97.711081518301484, 30.308179444373465 ], [ -97.711099484607175, 30.308094135298258 ], [ -97.711413894956607, 30.30759779011527 ], [ -97.711458810720814, 30.307559013041999 ], [ -97.71174627161173, 30.307450437155236 ] ], [ [ -97.715689875709018, 30.30815617826941 ], [ -97.715716825167547, 30.30759779011527 ] ], [ [ -97.711027619384424, 30.307760653655489 ], [ -97.711108467760013, 30.307706365838815 ], [ -97.711171349829897, 30.307605545528084 ], [ -97.711216265594103, 30.307527991372339 ], [ -97.71123423189978, 30.307403904595514 ] ], [ [ -97.711027619384424, 30.307760653655489 ], [ -97.71085693948045, 30.30759779011527 ], [ -97.710785074257728, 30.307559013041999 ] ], [ [ -97.715716825167547, 30.30759779011527 ], [ -97.715734791473224, 30.307590034701839 ], [ -97.715743774626063, 30.307512480533823 ], [ -97.71580665669596, 30.306519781763839 ], [ -97.715824623001637, 30.306473248762327 ], [ -97.715833606154476, 30.306209561336509 ], [ -97.715851572460153, 30.306178539239777 ] ], [ [ -97.715716825167547, 30.30759779011527 ], [ -97.715501229499353, 30.307551257625505 ], [ -97.714198672337375, 30.30694633324838 ] ], [ [ -97.713830363070883, 30.3075822792878 ], [ -97.71384832937656, 30.307489214271456 ], [ -97.714135790267491, 30.306992866025315 ], [ -97.714198672337375, 30.30694633324838 ] ], [ [ -97.71174627161173, 30.307450437155236 ], [ -97.711818136834466, 30.307388393737366 ] ], [ [ -97.71123423189978, 30.307403904595514 ], [ -97.711009653078747, 30.307473703426808 ], [ -97.710937787856025, 30.307473703426808 ], [ -97.710569478589534, 30.307388393737366 ], [ -97.710344899768501, 30.307272062223028 ], [ -97.710102354641791, 30.307116953322474 ], [ -97.709392685567337, 30.306798979309029 ], [ -97.709284887733233, 30.306767957398833 ], [ -97.709204039357672, 30.306690402580397 ] ], [ [ -97.71123423189978, 30.307403904595514 ], [ -97.711827119987305, 30.306566314743257 ], [ -97.712087631419692, 30.306457737756912 ], [ -97.712150513489576, 30.306457737756912 ], [ -97.712222378712326, 30.306519781763839 ] ], [ [ -97.711818136834466, 30.307388393737366 ], [ -97.711845086292982, 30.307287573099583 ], [ -97.712150513489576, 30.306814490260439 ], [ -97.712222378712326, 30.306519781763839 ] ], [ [ -97.716588190993136, 30.30712470877333 ], [ -97.716561241534606, 30.307062665149296 ], [ -97.716525308923252, 30.307039398780159 ], [ -97.716336662713587, 30.30695408871274 ], [ -97.716219881726659, 30.306930822317828 ] ], [ [ -97.714198672337375, 30.30694633324838 ], [ -97.71425257125442, 30.306798979309029 ], [ -97.714414268005555, 30.306566314743257 ], [ -97.714459183769762, 30.306535292759435 ] ], [ [ -97.716219881726659, 30.306930822317828 ], [ -97.716219881726659, 30.3067757128773 ], [ -97.716174965962438, 30.306721424515132 ] ], [ [ -97.715303600136849, 30.306930822317828 ], [ -97.715114953927184, 30.306845512155906 ] ], [ [ -97.716076151281186, 30.30682224573523 ], [ -97.716085134434024, 30.306791223832402 ], [ -97.716174965962438, 30.306721424515132 ] ], [ [ -97.715061055010139, 30.30682224573523 ], [ -97.714459183769762, 30.306535292759435 ] ], [ [ -97.716174965962438, 30.306721424515132 ], [ -97.716201915420967, 30.30642671573872 ] ], [ [ -97.709204039357672, 30.306690402580397 ], [ -97.709230988816188, 30.30667489160934 ], [ -97.709392685567337, 30.306380182693029 ], [ -97.709473533942912, 30.30628711653538 ], [ -97.709500483401442, 30.306217316859161 ], [ -97.709662180152577, 30.305976895371742 ] ], [ [ -97.709204039357672, 30.306690402580397 ], [ -97.709105224676421, 30.306682647095172 ], [ -97.708754881715606, 30.306543048256309 ], [ -97.707946397959901, 30.306139761605063 ], [ -97.707775718055927, 30.306023428608874 ], [ -97.707605038151939, 30.305969139830072 ], [ -97.707551139234894, 30.305922606567162 ] ], [ [ -97.714459183769762, 30.306535292759435 ], [ -97.714566981603866, 30.306318138597746 ], [ -97.715096987621507, 30.30551931736337 ], [ -97.715582077874913, 30.304704978336673 ] ], [ [ -97.712222378712326, 30.306519781763839 ], [ -97.712384075463461, 30.306279361018259 ] ], [ [ -97.716201915420967, 30.30642671573872 ], [ -97.716264797490851, 30.306380182693029 ], [ -97.716552258381768, 30.305891584379619 ], [ -97.716588190993136, 30.305689939921304 ] ], [ [ -97.716201915420967, 30.30642671573872 ], [ -97.716130050198231, 30.306372427183266 ], [ -97.716130050198231, 30.306240583423428 ], [ -97.716183949115276, 30.305728717733963 ], [ -97.716210898573806, 30.3050772484454 ], [ -97.716282763796542, 30.304991936670351 ] ], [ [ -97.707398425636597, 30.306349160650303 ], [ -97.707488257164997, 30.306000161993069 ], [ -97.707551139234894, 30.305922606567162 ] ], [ [ -97.712384075463461, 30.306279361018259 ], [ -97.712545772214597, 30.306217316859161 ], [ -97.71263560374301, 30.306100983955005 ], [ -97.712788317341321, 30.305837295527802 ], [ -97.713318323358934, 30.305038470375038 ], [ -97.71339018858167, 30.304728245259891 ] ], [ [ -97.712384075463461, 30.306279361018259 ], [ -97.712222378712326, 30.306139761605063 ], [ -97.712249328170842, 30.306000161993069 ], [ -97.712644586895848, 30.305379716867797 ], [ -97.712698485812894, 30.305224604972899 ] ], [ [ -97.715968353447096, 30.30627160550052 ], [ -97.715851572460153, 30.306178539239777 ] ], [ [ -97.715851572460153, 30.306178539239777 ], [ -97.715932420835728, 30.304891113567752 ] ], [ [ -97.707551139234894, 30.305922606567162 ], [ -97.707596054999101, 30.305876073282167 ], [ -97.707784701208766, 30.305542584093306 ], [ -97.707811650667296, 30.305441761557038 ] ], [ [ -97.707811650667296, 30.305441761557038 ], [ -97.707865549584341, 30.305410739217329 ], [ -97.708018263182637, 30.305162560146208 ], [ -97.708153010475243, 30.304922136071898 ], [ -97.708170976780934, 30.30483682416186 ] ], [ [ -97.707811650667296, 30.305441761557038 ], [ -97.707443341400804, 30.30530216095103 ], [ -97.707407408789436, 30.305255627371512 ] ], [ [ -97.714207655490213, 30.305263382969635 ], [ -97.714674779437956, 30.304534354064383 ], [ -97.714782577272061, 30.304324951142519 ] ], [ [ -97.712698485812894, 30.305224604972899 ], [ -97.712779334188468, 30.305170315751692 ], [ -97.71301289616234, 30.304813557264421 ], [ -97.713057811926546, 30.304774779089751 ], [ -97.713291373900418, 30.304689467051467 ], [ -97.713345272817463, 30.304689467051467 ], [ -97.71339018858167, 30.304728245259891 ] ], [ [ -97.712698485812894, 30.305224604972899 ], [ -97.712428991227668, 30.30509275966925 ], [ -97.712249328170842, 30.304968669809725 ], [ -97.712060681961177, 30.304798045996392 ], [ -97.712042715655485, 30.304720489619431 ], [ -97.71209661457253, 30.30458088798628 ], [ -97.712375092310623, 30.304146570522931 ], [ -97.71271645211857, 30.303549380869043 ] ], [ [ -97.716588190993136, 30.305201338167485 ], [ -97.716480393159046, 30.305030714759127 ], [ -97.716282763796542, 30.304991936670351 ] ], [ [ -97.716282763796542, 30.304991936670351 ], [ -97.716264797490851, 30.304960914188289 ] ], [ [ -97.716264797490851, 30.304960914188289 ], [ -97.716067168128347, 30.304945402943574 ], [ -97.715932420835728, 30.304891113567752 ] ], [ [ -97.716264797490851, 30.304960914188289 ], [ -97.716246831185174, 30.304929891696403 ], [ -97.716246831185174, 30.304736000899737 ], [ -97.716282763796542, 30.304487820120407 ], [ -97.716282763796542, 30.304324951142519 ], [ -97.716300730102219, 30.304247394391279 ], [ -97.716390561630632, 30.304169837578677 ], [ -97.716444460547677, 30.303960433878181 ], [ -97.716444460547677, 30.303588159528434 ] ], [ [ -97.715932420835728, 30.304891113567752 ], [ -97.715941403988566, 30.304813557264421 ] ], [ [ -97.708170976780934, 30.30483682416186 ], [ -97.708242842003656, 30.304774779089751 ], [ -97.708467420824689, 30.304425774827401 ], [ -97.708494370283219, 30.304348218155923 ], [ -97.708638100728678, 30.304169837578677 ], [ -97.709024376300846, 30.303541625135317 ] ], [ [ -97.708170976780934, 30.30483682416186 ], [ -97.707452324553643, 30.304495575779267 ], [ -97.707398425636597, 30.304425774827401 ] ], [ [ -97.715941403988566, 30.304813557264421 ], [ -97.715851572460153, 30.304767023452971 ], [ -97.715582077874913, 30.304704978336673 ] ], [ [ -97.715941403988566, 30.304813557264421 ], [ -97.71600428605845, 30.304200860311074 ] ], [ [ -97.71339018858167, 30.304728245259891 ], [ -97.713444087498715, 30.304673955763803 ], [ -97.713803413612368, 30.30411554777335 ], [ -97.71384832937656, 30.304037990856443 ], [ -97.71387527883509, 30.303929411069696 ] ], [ [ -97.710722192187831, 30.304736000899737 ], [ -97.710326933462824, 30.304301684123587 ], [ -97.710111337794643, 30.304138814836456 ], [ -97.709177089899143, 30.303580403797785 ], [ -97.709024376300846, 30.303541625135317 ] ], [ [ -97.715582077874913, 30.304704978336673 ], [ -97.715573094722075, 30.304673955763803 ], [ -97.715528178957868, 30.30464293318111 ], [ -97.714944274023196, 30.304363729495122 ], [ -97.714782577272061, 30.304324951142519 ] ], [ [ -97.716588190993136, 30.304627421886085 ], [ -97.716570224687445, 30.30459639928867 ], [ -97.716435477394839, 30.304526598408589 ] ], [ [ -97.711961867279925, 30.304534354064383 ], [ -97.711530675943536, 30.304169837578677 ], [ -97.710722192187831, 30.303308952838414 ], [ -97.710308967157133, 30.302843606587995 ], [ -97.710138287253159, 30.302610932634476 ], [ -97.710111337794643, 30.302525618713169 ] ], [ [ -97.714782577272061, 30.304324951142519 ], [ -97.714737661507854, 30.304270661423093 ], [ -97.714243588101581, 30.304053502244734 ], [ -97.714001042974871, 30.303851854005536 ] ], [ [ -97.716112083892554, 30.304286172774567 ], [ -97.71600428605845, 30.304200860311074 ] ], [ [ -97.71600428605845, 30.304200860311074 ], [ -97.716013269211302, 30.303681228248401 ] ], [ [ -97.71387527883509, 30.303929411069696 ], [ -97.714001042974871, 30.303851854005536 ] ], [ [ -97.71387527883509, 30.303929411069696 ], [ -97.713650700014071, 30.30373551829425 ], [ -97.713300357053257, 30.30359591525847 ], [ -97.71301289616234, 30.303541625135317 ], [ -97.71271645211857, 30.303549380869043 ] ], [ [ -97.714001042974871, 30.303851854005536 ], [ -97.714054941891916, 30.303696739693141 ], [ -97.714423251158408, 30.303146081902021 ] ], [ [ -97.716013269211302, 30.303681228248401 ], [ -97.715797673543108, 30.303681228248401 ], [ -97.715591061027752, 30.30359591525847 ] ], [ [ -97.716013269211302, 30.303681228248401 ], [ -97.716013269211302, 30.303603670987897 ] ], [ [ -97.716013269211302, 30.303603670987897 ], [ -97.716444460547677, 30.303588159528434 ] ], [ [ -97.716013269211302, 30.303603670987897 ], [ -97.715995302905611, 30.303130570370151 ] ], [ [ -97.716444460547677, 30.303588159528434 ], [ -97.716489376311884, 30.302525618713169 ] ], [ [ -97.71271645211857, 30.303549380869043 ], [ -97.712707468965732, 30.303518357930479 ] ], [ [ -97.709024376300846, 30.303541625135317 ], [ -97.708979460536639, 30.303402021823441 ], [ -97.708826746938342, 30.303239151041659 ], [ -97.708629117575839, 30.302967699137412 ], [ -97.708341656684922, 30.302502351267194 ], [ -97.708117077863889, 30.302316211500653 ], [ -97.707443341400804, 30.301974954344114 ], [ -97.707407408789436, 30.301843104670059 ], [ -97.707497240317849, 30.301509601761854 ] ], [ [ -97.712707468965732, 30.303518357930479 ], [ -97.712563738520274, 30.303487334982094 ], [ -97.712024749349808, 30.303285685578356 ] ], [ [ -97.712707468965732, 30.303518357930479 ], [ -97.712797300494159, 30.303285685578356 ], [ -97.713057811926546, 30.302890141312432 ] ], [ [ -97.714423251158408, 30.303146081902021 ], [ -97.714611897368073, 30.303076279989302 ] ], [ [ -97.714423251158408, 30.303146081902021 ], [ -97.714234604948743, 30.302983210695036 ], [ -97.714234604948743, 30.302936676014777 ], [ -97.714261554407258, 30.302835850798441 ], [ -97.714396301699878, 30.302579909398958 ], [ -97.714432234311246, 30.302432548896153 ] ], [ [ -97.715995302905611, 30.303130570370151 ], [ -97.716103100739701, 30.303029745353221 ], [ -97.716174965962438, 30.302401525604186 ], [ -97.716165982809599, 30.302153338915023 ] ], [ [ -97.715995302905611, 30.303130570370151 ], [ -97.715887505071521, 30.303068524218155 ], [ -97.71580665669596, 30.302874629740071 ], [ -97.715662926250502, 30.302789316048234 ] ], [ [ -97.714611897368073, 30.303076279989302 ], [ -97.714746644660693, 30.303177104958383 ], [ -97.71489935825899, 30.303153837667029 ], [ -97.715402414818101, 30.302913408666363 ], [ -97.715501229499353, 30.302882385526555 ], [ -97.715662926250502, 30.302789316048234 ] ], [ [ -97.714611897368073, 30.303076279989302 ], [ -97.714683762590809, 30.302866873952976 ], [ -97.715141903385714, 30.302207629806961 ], [ -97.715150886538552, 30.302168850601504 ], [ -97.715240718066951, 30.302091292144567 ] ], [ [ -97.711638473777626, 30.302936676014777 ], [ -97.711243215052633, 30.302463572178311 ], [ -97.71099168677307, 30.302091292144567 ], [ -97.710874905786127, 30.301951686767463 ], [ -97.710785074257728, 30.301889639869383 ] ], [ [ -97.715662926250502, 30.302789316048234 ], [ -97.715671909403341, 30.302595421017948 ] ], [ [ -97.715671909403341, 30.302595421017948 ], [ -97.715851572460153, 30.302479083815705 ], [ -97.715968353447096, 30.302261920668837 ], [ -97.715977336599934, 30.302207629806961 ] ], [ [ -97.715671909403341, 30.302595421017948 ], [ -97.715618010486281, 30.302548886153616 ], [ -97.715591061027752, 30.302417037251402 ], [ -97.715510212652191, 30.302285188171876 ], [ -97.715411397970939, 30.302238653160288 ], [ -97.715240718066951, 30.302091292144567 ] ], [ [ -97.716489376311884, 30.302525618713169 ], [ -97.716561241534606, 30.302463572178311 ], [ -97.716588190993136, 30.30192066332333 ] ], [ [ -97.716489376311884, 30.302525618713169 ], [ -97.716426494242, 30.302479083815705 ], [ -97.716426494242, 30.302223141484848 ], [ -97.716480393159046, 30.301633695999755 ], [ -97.716480393159046, 30.301478578177836 ], [ -97.716435477394839, 30.301408775077906 ] ], [ [ -97.712590687978803, 30.302463572178311 ], [ -97.71250085645039, 30.302393769779663 ], [ -97.712437974380506, 30.302370502302399 ], [ -97.7123930586163, 30.302300699837492 ] ], [ [ -97.714432234311246, 30.302432548896153 ], [ -97.714549015298189, 30.302386013954525 ], [ -97.714836476189106, 30.301951686767463 ], [ -97.71500715609308, 30.301866372272485 ], [ -97.715150886538552, 30.301742278329076 ] ], [ [ -97.714432234311246, 30.302432548896153 ], [ -97.714396301699878, 30.302401525604186 ], [ -97.714378335394201, 30.302292944004986 ] ], [ [ -97.7123930586163, 30.302300699837492 ], [ -97.712312210240725, 30.302261920668837 ], [ -97.712177462948105, 30.30214558307086 ], [ -97.71198881673844, 30.301936175046624 ], [ -97.711782204223098, 30.301633695999755 ], [ -97.711629490624787, 30.301307948290273 ], [ -97.711566608554904, 30.301230389152298 ] ], [ [ -97.714378335394201, 30.302292944004986 ], [ -97.714243588101581, 30.302269676503798 ], [ -97.713911211446458, 30.302091292144567 ], [ -97.713650700014071, 30.30192066332333 ], [ -97.71325544128905, 30.301618184228609 ], [ -97.712761367882777, 30.301183853640062 ], [ -97.712554755367435, 30.300935663868469 ], [ -97.712509839603229, 30.300819324696764 ] ], [ [ -97.714378335394201, 30.302292944004986 ], [ -97.714369352241363, 30.301362239650345 ] ], [ [ -97.710174219864527, 30.302300699837492 ], [ -97.710228118781572, 30.302277432338141 ], [ -97.710273034545779, 30.302215385646214 ], [ -97.710425748144075, 30.302091292144567 ], [ -97.710785074257728, 30.301889639869383 ] ], [ [ -97.715977336599934, 30.302207629806961 ], [ -97.716130050198231, 30.302176606443826 ], [ -97.716165982809599, 30.302153338915023 ] ], [ [ -97.715977336599934, 30.302207629806961 ], [ -97.71600428605845, 30.301827592932039 ], [ -97.716094117586863, 30.30127692464244 ], [ -97.715833606154476, 30.30104424697085 ] ], [ [ -97.716165982809599, 30.302153338915023 ], [ -97.716246831185174, 30.301625940114491 ], [ -97.716282763796542, 30.301470822280294 ], [ -97.716327679560749, 30.301408775077906 ] ], [ [ -97.715240718066951, 30.302091292144567 ], [ -97.715249701219804, 30.301773301829659 ] ], [ [ -97.710785074257728, 30.301889639869383 ], [ -97.710785074257728, 30.30176554595543 ] ], [ [ -97.715249701219804, 30.301773301829659 ], [ -97.715321566442526, 30.301734522452399 ], [ -97.715438347429455, 30.301587160678952 ], [ -97.715734791473224, 30.301090782549345 ], [ -97.715833606154476, 30.30104424697085 ] ], [ [ -97.715249701219804, 30.301773301829659 ], [ -97.715222751761274, 30.301750034205146 ], [ -97.715150886538552, 30.301742278329076 ] ], [ [ -97.710785074257728, 30.30176554595543 ], [ -97.711135417218529, 30.301525113550177 ], [ -97.711422878109445, 30.30129243646758 ], [ -97.711566608554904, 30.301230389152298 ] ], [ [ -97.710785074257728, 30.30176554595543 ], [ -97.710731175340683, 30.301750034205146 ], [ -97.710443714449752, 30.301501845866767 ], [ -97.710138287253159, 30.301338971928278 ], [ -97.709743028528138, 30.301160585875671 ], [ -97.709482517095751, 30.301020979173316 ], [ -97.70940166872019, 30.300958931686246 ], [ -97.709374719261646, 30.300889128216355 ], [ -97.709383702414499, 30.300827080645838 ], [ -97.709446584484397, 30.300718497302956 ], [ -97.709491500248589, 30.300679717508491 ], [ -97.709563365471325, 30.300540110121442 ] ], [ [ -97.715150886538552, 30.301742278329076 ], [ -97.71498020663455, 30.301594916567282 ], [ -97.714926307717505, 30.301579404790004 ], [ -97.714611897368073, 30.301338971928278 ] ], [ [ -97.707766734903089, 30.301571648900438 ], [ -97.707712835986044, 30.301563893010268 ], [ -97.707605038151939, 30.301501845866767 ] ], [ [ -97.707497240317849, 30.301509601761854 ], [ -97.707605038151939, 30.301501845866767 ] ], [ [ -97.707497240317849, 30.301509601761854 ], [ -97.707398425636597, 30.301377751461981 ] ], [ [ -97.707605038151939, 30.301501845866767 ], [ -97.707883515890018, 30.30104424697085 ], [ -97.707910465348547, 30.300912396045167 ] ], [ [ -97.716435477394839, 30.301408775077906 ], [ -97.716480393159046, 30.301377751461981 ], [ -97.716498359464723, 30.30129243646758 ], [ -97.716498359464723, 30.301137318105742 ], [ -97.716507342617561, 30.301052002902132 ], [ -97.716534292076091, 30.301013223239579 ], [ -97.716543275228929, 30.300726253260006 ], [ -97.716570224687445, 30.300586645939212 ], [ -97.716561241534606, 30.300431526460752 ], [ -97.716516325770399, 30.300392746552792 ], [ -97.716417511089148, 30.300392746552792 ], [ -97.715968353447096, 30.300664205586422 ] ], [ [ -97.716435477394839, 30.301408775077906 ], [ -97.716327679560749, 30.301408775077906 ] ], [ [ -97.716327679560749, 30.301408775077906 ], [ -97.716291746949381, 30.301377751461981 ], [ -97.716273780643704, 30.301207121398942 ], [ -97.715968353447096, 30.300943419808338 ] ], [ [ -97.714369352241363, 30.301362239650345 ], [ -97.714611897368073, 30.301338971928278 ] ], [ [ -97.714369352241363, 30.301362239650345 ], [ -97.71425257125442, 30.301253656900126 ], [ -97.71414477342033, 30.301183853640062 ], [ -97.713713582083955, 30.300989955434684 ], [ -97.713560868485658, 30.300889128216355 ], [ -97.713381205428831, 30.300850348489384 ] ], [ [ -97.714611897368073, 30.301338971928278 ], [ -97.714611897368073, 30.301261412814846 ] ], [ [ -97.714611897368073, 30.301261412814846 ], [ -97.714854442494783, 30.301028735106438 ], [ -97.715070038162978, 30.300873616327404 ], [ -97.715141903385714, 30.300718497302956 ] ], [ [ -97.714611897368073, 30.301261412814846 ], [ -97.714459183769762, 30.301137318105742 ], [ -97.714153756573168, 30.300974443561689 ], [ -97.714108840808962, 30.300935663868469 ], [ -97.714072908197608, 30.300865860382007 ] ], [ [ -97.711566608554904, 30.301230389152298 ], [ -97.711566608554904, 30.301129562181217 ] ], [ [ -97.711566608554904, 30.301129562181217 ], [ -97.711970850432763, 30.300935663868469 ], [ -97.712294243935048, 30.300842592542146 ], [ -97.712509839603229, 30.300819324696764 ] ], [ [ -97.711566608554904, 30.301129562181217 ], [ -97.711485760179329, 30.301098538476943 ], [ -97.711135417218529, 30.300873616327404 ], [ -97.710821006869082, 30.300726253260006 ], [ -97.710183203017365, 30.300361722615378 ], [ -97.709985573654862, 30.300322942679813 ] ], [ [ -97.715833606154476, 30.30104424697085 ], [ -97.715968353447096, 30.300943419808338 ] ], [ [ -97.713506969568613, 30.300997711370261 ], [ -97.713417138040199, 30.300951175747599 ], [ -97.713381205428831, 30.300850348489384 ] ], [ [ -97.715968353447096, 30.300943419808338 ], [ -97.715968353447096, 30.300664205586422 ] ], [ [ -97.707910465348547, 30.300912396045167 ], [ -97.707820633820134, 30.300889128216355 ], [ -97.707452324553643, 30.300718497302956 ], [ -97.707398425636597, 30.300648693661888 ] ], [ [ -97.714072908197608, 30.300865860382007 ], [ -97.714135790267491, 30.300834836594301 ], [ -97.714459183769762, 30.300811568747079 ], [ -97.714953257176035, 30.300710741345288 ], [ -97.715088004468655, 30.300695229428122 ], [ -97.715141903385714, 30.300718497302956 ] ], [ [ -97.714072908197608, 30.300865860382007 ], [ -97.713956127210665, 30.300842592542146 ], [ -97.713695615778263, 30.300741765172262 ], [ -97.712958997245295, 30.300377234585316 ], [ -97.712824249952675, 30.300377234585316 ], [ -97.7127434015771, 30.300431526460752 ] ], [ [ -97.713381205428831, 30.300850348489384 ], [ -97.713264424441888, 30.300749521127475 ], [ -97.712869165716882, 30.300547866092607 ], [ -97.712806283646998, 30.300532354149663 ], [ -97.7127434015771, 30.300485818306132 ] ], [ [ -97.712509839603229, 30.300819324696764 ], [ -97.712536789061758, 30.300734009216438 ], [ -97.712689502660055, 30.300571134002414 ], [ -97.712707468965732, 30.300516842204274 ], [ -97.7127434015771, 30.300485818306132 ] ], [ [ -97.715141903385714, 30.300718497302956 ], [ -97.715465296887984, 30.300563378033093 ], [ -97.715546145263559, 30.300493574281585 ] ], [ [ -97.715968353447096, 30.300664205586422 ], [ -97.715770724084592, 30.300501330256427 ], [ -97.715546145263559, 30.300493574281585 ] ], [ [ -97.715546145263559, 30.300493574281585 ], [ -97.715411397970939, 30.300377234585316 ], [ -97.715267667525481, 30.300322942679813 ] ], [ [ -97.7127434015771, 30.300485818306132 ], [ -97.7127434015771, 30.300431526460752 ] ], [ [ -97.7127434015771, 30.300431526460752 ], [ -97.712680519507217, 30.300392746552792 ], [ -97.712267294476533, 30.300322942679813 ] ] ] } }
]
}
