{
"type": "FeatureCollection",
"name": "gee_batch_7_33.47375_-112.10605",
"crs": { "type": "name", "properties": { "name": "urn:ogc:def:crs:OGC:1.3:CRS84" } },
"features": [
{ "type": "Feature", "properties": { "name": "road_network" }, "geometry": { "type": "MultiLineString", "coordinates": [ [ [ -112.102647911343041, 33.477584820398476 ], [ -112.102683843954409, 33.477562341806767 ], [ -112.102737742871454, 33.477360034218876 ], [ -112.1027916417885, 33.477322569798908 ], [ -112.104282845160128, 33.477315076912966 ] ], [ [ -112.101965191727103, 33.477584820398476 ], [ -112.102064006408369, 33.477562341806767 ], [ -112.102243669465182, 33.477352541336181 ], [ -112.102306551535065, 33.477202683546139 ], [ -112.102324517840756, 33.476910460110027 ] ], [ [ -112.106384902924972, 33.477569834671314 ], [ -112.106420835536341, 33.477547356075711 ], [ -112.106420835536341, 33.477404991501444 ] ], [ [ -112.108477977536978, 33.477554848941566 ], [ -112.108504926995494, 33.477337555568838 ], [ -112.108504926995494, 33.476910460110027 ] ], [ [ -112.104264878854451, 33.477547356075711 ], [ -112.104282845160128, 33.477315076912966 ] ], [ [ -112.109690703170529, 33.477532370342068 ], [ -112.109762568393265, 33.475479300330463 ] ], [ [ -112.106420835536341, 33.477404991501444 ], [ -112.105836930601654, 33.477390005743189 ], [ -112.104902682706182, 33.477315076912966 ], [ -112.104282845160128, 33.477315076912966 ] ], [ [ -112.106420835536341, 33.477404991501444 ], [ -112.106429818689179, 33.477307584026377 ] ], [ [ -112.108001870436382, 33.477352541336181 ], [ -112.106429818689179, 33.477307584026377 ] ], [ [ -112.101462135167992, 33.477345048452833 ], [ -112.101489084626522, 33.477315076912966 ], [ -112.101758579211761, 33.477262626693253 ], [ -112.101866377045852, 33.477187697752875 ], [ -112.101884343351529, 33.477142740357543 ], [ -112.10187536019869, 33.476910460110027 ] ], [ [ -112.104282845160128, 33.477315076912966 ], [ -112.104282845160128, 33.476932938870874 ], [ -112.104264878854451, 33.476910460110027 ] ], [ [ -112.106429818689179, 33.477307584026377 ], [ -112.106438801842017, 33.476865502570838 ] ], [ [ -112.108504926995494, 33.476910460110027 ], [ -112.108531876454023, 33.476745615685608 ], [ -112.108558825912539, 33.475494286419213 ] ], [ [ -112.108504926995494, 33.476910460110027 ], [ -112.107453898113079, 33.476865502570838 ] ], [ [ -112.104264878854451, 33.476910460110027 ], [ -112.102324517840756, 33.476910460110027 ] ], [ [ -112.102324517840756, 33.476910460110027 ], [ -112.10187536019869, 33.476910460110027 ] ], [ [ -112.102324517840756, 33.476910460110027 ], [ -112.102333500993595, 33.475838965745076 ], [ -112.102441298827685, 33.475321946242083 ], [ -112.102468248286215, 33.474984757947595 ] ], [ [ -112.10187536019869, 33.476910460110027 ], [ -112.10152501723789, 33.476902967188444 ], [ -112.101489084626522, 33.476543306190621 ], [ -112.101480101473669, 33.475052195711463 ], [ -112.101534000390728, 33.474984757947595 ], [ -112.10190230965722, 33.474984757947595 ] ], [ [ -112.10187536019869, 33.476910460110027 ], [ -112.101893326504367, 33.476895474266222 ], [ -112.10190230965722, 33.476266066485806 ], [ -112.10190230965722, 33.474984757947595 ] ], [ [ -112.104264878854451, 33.476910460110027 ], [ -112.104282845160128, 33.476820545008309 ] ], [ [ -112.107453898113079, 33.476865502570838 ], [ -112.106438801842017, 33.476865502570838 ] ], [ [ -112.107453898113079, 33.476865502570838 ], [ -112.107480847571594, 33.476213615631046 ] ], [ [ -112.106438801842017, 33.476865502570838 ], [ -112.104282845160128, 33.476820545008309 ] ], [ [ -112.104282845160128, 33.476820545008309 ], [ -112.10427386200729, 33.476558292095334 ] ], [ [ -112.102746726024293, 33.4766706862981 ], [ -112.102782658635661, 33.476543306190621 ] ], [ [ -112.10427386200729, 33.476558292095334 ], [ -112.102782658635661, 33.476543306190621 ] ], [ [ -112.10427386200729, 33.476558292095334 ], [ -112.10427386200729, 33.476191136683575 ] ], [ [ -112.102782658635661, 33.476543306190621 ], [ -112.10276469232997, 33.476438404785021 ], [ -112.102773675482823, 33.476011304893831 ], [ -112.10287249016406, 33.475486793375161 ], [ -112.102908422775428, 33.474984757947595 ] ], [ [ -112.107921022060822, 33.476445897746771 ], [ -112.107912038907983, 33.476303531362618 ], [ -112.107831190532409, 33.476198629666712 ], [ -112.10755271279433, 33.476183643699784 ], [ -112.107480847571594, 33.476213615631046 ] ], [ [ -112.107480847571594, 33.476213615631046 ], [ -112.107256268750575, 33.476153671758155 ], [ -112.107157454069323, 33.476161164744532 ], [ -112.107094571999426, 33.476123699806152 ], [ -112.107076605693734, 33.476093727843789 ], [ -112.107085588846587, 33.475861444783924 ], [ -112.107067622540896, 33.475831472730839 ] ], [ [ -112.10427386200729, 33.476191136683575 ], [ -112.103312664653288, 33.476191136683575 ], [ -112.103249782583404, 33.476168657730263 ], [ -112.103231816277713, 33.476138685783454 ], [ -112.103231816277713, 33.475981332892587 ], [ -112.103348597264656, 33.475434342048658 ], [ -112.103375546723171, 33.475172084939857 ], [ -112.103366563570333, 33.474992251035061 ] ], [ [ -112.10427386200729, 33.476191136683575 ], [ -112.104282845160128, 33.475913895851875 ] ], [ [ -112.104282845160128, 33.475913895851875 ], [ -112.106429818689179, 33.475958853884848 ], [ -112.106474734453386, 33.47590640284411 ], [ -112.106483717606224, 33.475456821192473 ] ], [ [ -112.104282845160128, 33.475913895851875 ], [ -112.10427386200729, 33.475831472730839 ] ], [ [ -112.10427386200729, 33.475831472730839 ], [ -112.104282845160128, 33.475456821192473 ] ], [ [ -112.10427386200729, 33.475831472730839 ], [ -112.103806738059561, 33.475823979715948 ], [ -112.103770805448193, 33.47580150066738 ], [ -112.103761822295354, 33.475636654133062 ] ], [ [ -112.108558825912539, 33.475494286419213 ], [ -112.109762568393265, 33.475479300330463 ] ], [ [ -112.108558825912539, 33.475494286419213 ], [ -112.108585775371068, 33.473523593508496 ], [ -112.108693573205159, 33.473411195223385 ] ], [ [ -112.109762568393265, 33.475479300330463 ], [ -112.109798501004619, 33.474580130262105 ], [ -112.10981646731031, 33.474520185259109 ], [ -112.10989731568587, 33.474445253947053 ] ], [ [ -112.106483717606224, 33.475456821192473 ], [ -112.104282845160128, 33.475456821192473 ] ], [ [ -112.106483717606224, 33.475456821192473 ], [ -112.106492700759063, 33.474969771770716 ] ], [ [ -112.104282845160128, 33.475456821192473 ], [ -112.104282845160128, 33.474992251035061 ] ], [ [ -112.103788771753869, 33.475389383743519 ], [ -112.103815721212399, 33.475127126498656 ], [ -112.103806738059561, 33.474984757947595 ] ], [ [ -112.110642917371706, 33.475134619573808 ], [ -112.11054410269044, 33.474887347751555 ], [ -112.110059012437034, 33.474497705872309 ], [ -112.10989731568587, 33.474445253947053 ] ], [ [ -112.107103555152264, 33.475112140346397 ], [ -112.107121521457941, 33.474550157765798 ] ], [ [ -112.104282845160128, 33.474992251035061 ], [ -112.104300811465805, 33.474977264859476 ] ], [ [ -112.104282845160128, 33.474992251035061 ], [ -112.103806738059561, 33.474984757947595 ] ], [ [ -112.103366563570333, 33.474992251035061 ], [ -112.103806738059561, 33.474984757947595 ] ], [ [ -112.103366563570333, 33.474992251035061 ], [ -112.102908422775428, 33.474984757947595 ] ], [ [ -112.102908422775428, 33.474984757947595 ], [ -112.102468248286215, 33.474984757947595 ] ], [ [ -112.102468248286215, 33.474984757947595 ], [ -112.10190230965722, 33.474984757947595 ] ], [ [ -112.104300811465805, 33.474977264859476 ], [ -112.106492700759063, 33.474969771770716 ] ], [ [ -112.104300811465805, 33.474977264859476 ], [ -112.104309794618658, 33.473223864424192 ] ], [ [ -112.106492700759063, 33.474969771770716 ], [ -112.106519650217592, 33.474527678386757 ] ], [ [ -112.108343230244358, 33.474580130262105 ], [ -112.107121521457941, 33.474550157765798 ] ], [ [ -112.107121521457941, 33.474550157765798 ], [ -112.106519650217592, 33.474527678386757 ] ], [ [ -112.106519650217592, 33.474527678386757 ], [ -112.106573549134637, 33.473231357663941 ] ], [ [ -112.10989731568587, 33.474445253947053 ], [ -112.109861383074517, 33.47435533628704 ] ], [ [ -112.109861383074517, 33.47435533628704 ], [ -112.10989731568587, 33.474332856857465 ], [ -112.10989731568587, 33.474302884275616 ], [ -112.10981646731031, 33.47415302121086 ], [ -112.109484090655187, 33.473883267041138 ], [ -112.10930442759836, 33.473853294303773 ] ], [ [ -112.109861383074517, 33.47435533628704 ], [ -112.109717652629058, 33.474295391128535 ], [ -112.109349343362567, 33.473988171540256 ], [ -112.10930442759836, 33.473853294303773 ] ], [ [ -112.10930442759836, 33.473853294303773 ], [ -112.10898103409609, 33.473613512031626 ], [ -112.108882219414838, 33.473433674892064 ] ], [ [ -112.102468248286215, 33.473748389641351 ], [ -112.102450281980524, 33.473733403250634 ], [ -112.102459265133362, 33.47341868844692 ] ], [ [ -112.109187646611431, 33.473501113863136 ], [ -112.109151714000063, 33.473448661334615 ], [ -112.109151714000063, 33.473343756182331 ] ], [ [ -112.108882219414838, 33.473433674892064 ], [ -112.109007983554605, 33.473343756182331 ] ], [ [ -112.108882219414838, 33.473433674892064 ], [ -112.108693573205159, 33.473411195223385 ] ], [ [ -112.108693573205159, 33.473411195223385 ], [ -112.108675606899482, 33.473358742640436 ], [ -112.108630691135275, 33.47332127649031 ], [ -112.108477977536978, 33.473276317088789 ] ], [ [ -112.102441298827685, 33.473358742640436 ], [ -112.102450281980524, 33.473231357663941 ] ], [ [ -112.11057105214897, 33.473351249411706 ], [ -112.110472237467718, 33.47332127649031 ], [ -112.110157827118272, 33.47332127649031 ], [ -112.11008596189555, 33.473343756182331 ], [ -112.109969180908607, 33.47332127649031 ] ], [ [ -112.109151714000063, 33.473343756182331 ], [ -112.109484090655187, 33.47332127649031 ], [ -112.109537989572232, 33.473291303558561 ] ], [ [ -112.109151714000063, 33.473343756182331 ], [ -112.109007983554605, 33.473343756182331 ] ], [ [ -112.109007983554605, 33.473343756182331 ], [ -112.108936118331883, 33.473223864424192 ] ], [ [ -112.109969180908607, 33.47332127649031 ], [ -112.109636804253483, 33.473336262952301 ], [ -112.109537989572232, 33.473291303558561 ] ], [ [ -112.109969180908607, 33.47332127649031 ], [ -112.109978164061445, 33.47215981780181 ], [ -112.110005113519975, 33.472077391109742 ], [ -112.110076978742711, 33.472002457685278 ], [ -112.110157827118272, 33.471979977645312 ], [ -112.110606984760338, 33.471964990948756 ] ], [ [ -112.109537989572232, 33.473291303558561 ], [ -112.109511040113716, 33.47320887794276 ], [ -112.10943917489098, 33.473141438744257 ], [ -112.108675606899482, 33.472512003693836 ], [ -112.10857679221823, 33.47239960409658 ], [ -112.1085498427597, 33.472272217710092 ], [ -112.108567809065377, 33.471845097282994 ], [ -112.108567809065377, 33.471492908680538 ], [ -112.1085498427597, 33.471477921899748 ] ], [ [ -112.108477977536978, 33.473276317088789 ], [ -112.108397129161403, 33.473343756182331 ], [ -112.108352213397197, 33.473351249411706 ], [ -112.107651527475582, 33.473343756182331 ], [ -112.106573549134637, 33.473231357663941 ] ], [ [ -112.108477977536978, 33.473276317088789 ], [ -112.108433061772772, 33.473126452248572 ], [ -112.108361196550035, 33.473051519731264 ], [ -112.107076605693734, 33.471927524196026 ], [ -112.10607049257554, 33.47110325153762 ], [ -112.106034559964172, 33.471020823840576 ] ], [ [ -112.106573549134637, 33.473231357663941 ], [ -112.105208109902776, 33.473223864424192 ] ], [ [ -112.102450281980524, 33.473231357663941 ], [ -112.102558079814614, 33.473223864424192 ], [ -112.104309794618658, 33.473223864424192 ] ], [ [ -112.102450281980524, 33.473231357663941 ], [ -112.101534000390728, 33.473231357663941 ] ], [ [ -112.102450281980524, 33.473231357663941 ], [ -112.102459265133362, 33.472489523786052 ] ], [ [ -112.105208109902776, 33.473223864424192 ], [ -112.104309794618658, 33.473223864424192 ] ], [ [ -112.104309794618658, 33.473223864424192 ], [ -112.104300811465805, 33.472661869596742 ] ], [ [ -112.105208109902776, 33.473223864424192 ], [ -112.105190143597099, 33.472706829317062 ], [ -112.105154210985731, 33.472661869596742 ], [ -112.104300811465805, 33.472661869596742 ] ], [ [ -112.104300811465805, 33.472661869596742 ], [ -112.10427386200729, 33.472482030482162 ] ], [ [ -112.102459265133362, 33.472489523786052 ], [ -112.10427386200729, 33.472482030482162 ] ], [ [ -112.102459265133362, 33.472489523786052 ], [ -112.102450281980524, 33.472122351133315 ] ], [ [ -112.10427386200729, 33.472482030482162 ], [ -112.104255895701598, 33.472122351133315 ] ], [ [ -112.104255895701598, 33.472122351133315 ], [ -112.102450281980524, 33.472122351133315 ] ], [ [ -112.102450281980524, 33.472122351133315 ], [ -112.102459265133362, 33.471755176924823 ] ], [ [ -112.104255895701598, 33.472122351133315 ], [ -112.104264878854451, 33.471935017547864 ] ], [ [ -112.105297941431189, 33.471957497599497 ], [ -112.10465115442662, 33.471927524196026 ], [ -112.104264878854451, 33.471935017547864 ] ], [ [ -112.104264878854451, 33.471935017547864 ], [ -112.104255895701598, 33.471747683557432 ] ], [ [ -112.102459265133362, 33.471755176924823 ], [ -112.104255895701598, 33.471747683557432 ] ], [ [ -112.102459265133362, 33.471755176924823 ], [ -112.102450281980524, 33.471395494559061 ] ], [ [ -112.104255895701598, 33.471747683557432 ], [ -112.10427386200729, 33.471500402069957 ], [ -112.104264878854451, 33.470968369810713 ] ], [ [ -112.106950841553967, 33.471432961541822 ], [ -112.106420835536341, 33.470968369810713 ], [ -112.106214223020999, 33.470818500979036 ] ], [ [ -112.101471118320831, 33.471410481354113 ], [ -112.101489084626522, 33.471402987956914 ], [ -112.102396383063478, 33.471402987956914 ], [ -112.102405366216317, 33.471395494559061 ], [ -112.102450281980524, 33.471395494559061 ] ], [ [ -112.103402496181701, 33.471395494559061 ], [ -112.102450281980524, 33.471395494559061 ] ], [ [ -112.102450281980524, 33.471395494559061 ], [ -112.102459265133362, 33.470975863245492 ] ], [ [ -112.106034559964172, 33.471020823840576 ], [ -112.106106425186894, 33.470870955099599 ], [ -112.106214223020999, 33.470818500979036 ] ], [ [ -112.106034559964172, 33.471020823840576 ], [ -112.105774048531771, 33.470938396065115 ], [ -112.105675233850519, 33.470930902627096 ] ], [ [ -112.102459265133362, 33.470975863245492 ], [ -112.104264878854451, 33.470968369810713 ] ], [ [ -112.101489084626522, 33.470975863245492 ], [ -112.102459265133362, 33.470975863245492 ] ], [ [ -112.102459265133362, 33.470975863245492 ], [ -112.102450281980524, 33.470548736428874 ] ], [ [ -112.104264878854451, 33.470968369810713 ], [ -112.105612351780636, 33.470960876375287 ], [ -112.105675233850519, 33.470930902627096 ] ], [ [ -112.104264878854451, 33.470968369810713 ], [ -112.10427386200729, 33.470151581535177 ], [ -112.104255895701598, 33.470114113998427 ] ], [ [ -112.105675233850519, 33.470930902627096 ], [ -112.105630318086313, 33.470818500979036 ], [ -112.104633188120943, 33.469971737211026 ], [ -112.104480474522646, 33.469919282546179 ] ], [ [ -112.108720522663674, 33.470825994426775 ], [ -112.110615967913176, 33.470811007530649 ] ], [ [ -112.106214223020999, 33.470818500979036 ], [ -112.106348970313604, 33.470533749484801 ], [ -112.106375919772134, 33.469956750167164 ] ], [ [ -112.105792014837448, 33.470631164574968 ], [ -112.10527099197266, 33.470189049055733 ] ], [ [ -112.10373487283681, 33.470556229899948 ], [ -112.102450281980524, 33.470548736428874 ] ], [ [ -112.101471118320831, 33.470556229899948 ], [ -112.102450281980524, 33.470548736428874 ] ], [ [ -112.102450281980524, 33.470548736428874 ], [ -112.102459265133362, 33.470121607507068 ] ], [ [ -112.101489084626522, 33.470129101015068 ], [ -112.102459265133362, 33.470121607507068 ] ], [ [ -112.102459265133362, 33.470121607507068 ], [ -112.104255895701598, 33.470114113998427 ] ], [ [ -112.102459265133362, 33.470121607507068 ], [ -112.102459265133362, 33.469956750167164 ], [ -112.10241434936917, 33.469926776071674 ] ], [ [ -112.104255895701598, 33.470114113998427 ], [ -112.104264878854451, 33.46994925664427 ], [ -112.10424691254876, 33.469941763120723 ] ] ] } }
]
}
