{
"type": "FeatureCollection",
"name": "gee_batch_1_39.91247_-75.17329",
"crs": { "type": "name", "properties": { "name": "urn:ogc:def:crs:OGC:1.3:CRS84" } },
"features": [
{ "type": "Feature", "properties": { "name": "road_network" }, "geometry": { "type": "MultiLineString", "coordinates": [ [ [ -75.176434482961255, 39.915995183341174 ], [ -75.176353634585681, 39.915953843611256 ], [ -75.176299735668636, 39.915809154359998 ] ], [ [ -75.174709717615741, 39.915995183341174 ], [ -75.174637852393019, 39.915981403433968 ], [ -75.174574970323121, 39.915933173736931 ], [ -75.174530054558915, 39.915871164076542 ], [ -75.174521071406062, 39.915795374415374 ], [ -75.174628869240166, 39.915209724205546 ], [ -75.174781582838463, 39.914617178896513 ] ], [ [ -75.169301859605341, 39.915995183341174 ], [ -75.169355758522386, 39.915960733567978 ], [ -75.169382707980901, 39.915898723932536 ], [ -75.169508472120697, 39.915505994937611 ], [ -75.169544404732051, 39.915216614237131 ] ], [ [ -75.169005415561585, 39.915981403433968 ], [ -75.169023381867262, 39.915974513479334 ], [ -75.169113213395676, 39.915450874898454 ], [ -75.16919406177125, 39.915195944140301 ] ], [ [ -75.168708971517816, 39.915981403433968 ], [ -75.168744904129184, 39.915678244774043 ], [ -75.168789819893391, 39.915581784919013 ], [ -75.168852701963274, 39.915264844438788 ], [ -75.168852701963274, 39.915168384001497 ], [ -75.168870668268951, 39.915147713890121 ] ], [ [ -75.17318258163273, 39.915974513479334 ], [ -75.173245463702628, 39.915940063695736 ], [ -75.173272413161143, 39.915781594467965 ], [ -75.173299362619673, 39.915740254609112 ] ], [ [ -75.171412900523023, 39.915974513479334 ], [ -75.171538664662791, 39.915898723932536 ], [ -75.171610529885527, 39.915657574816549 ], [ -75.171799176095192, 39.914734310352507 ], [ -75.17186205816509, 39.914541387847656 ], [ -75.171897990776444, 39.914252003071454 ] ], [ [ -75.177880770568677, 39.915884944005924 ], [ -75.177844837957309, 39.915850494177263 ], [ -75.176757876463526, 39.915712694689354 ], [ -75.176551263948184, 39.915719584670335 ], [ -75.176299735668636, 39.915809154359998 ] ], [ [ -75.173739537108887, 39.915843604209456 ], [ -75.173622756121958, 39.915795374415374 ], [ -75.173362244689557, 39.915774704493224 ], [ -75.173299362619673, 39.915740254609112 ] ], [ [ -75.176299735668636, 39.915809154359998 ], [ -75.176245836751576, 39.915788484442011 ], [ -75.176039224236234, 39.915512884939382 ], [ -75.175976342166351, 39.915361304740209 ] ], [ [ -75.173299362619673, 39.915740254609112 ], [ -75.173380210995234, 39.915257954412056 ], [ -75.173496991982176, 39.914803211115391 ], [ -75.173523941440706, 39.914596508618779 ], [ -75.173523941440706, 39.914513827445454 ], [ -75.173496991982176, 39.914486267032174 ] ], [ [ -75.175167858410646, 39.91562312487352 ], [ -75.175239723633368, 39.915175274037239 ], [ -75.175347521467458, 39.914692969861498 ] ], [ [ -75.177871787415839, 39.915478434923578 ], [ -75.177844837957309, 39.915450874898454 ], [ -75.177808905345941, 39.915443984890445 ], [ -75.177260933022637, 39.915375084772172 ], [ -75.177207034105592, 39.915333744667947 ] ], [ [ -75.175976342166351, 39.915361304740209 ], [ -75.176344651432842, 39.915195944140301 ], [ -75.176838724839115, 39.915016803039869 ], [ -75.17689262375616, 39.914982352774516 ], [ -75.176928556367514, 39.91491345219184 ] ], [ [ -75.175976342166351, 39.915361304740209 ], [ -75.175922443249306, 39.915333744667947 ], [ -75.175922443249306, 39.915237284327709 ], [ -75.175976342166351, 39.914947902491839 ], [ -75.175985325319189, 39.914768760742611 ] ], [ [ -75.169544404732051, 39.915216614237131 ], [ -75.16919406177125, 39.915195944140301 ] ], [ [ -75.169544404732051, 39.915216614237131 ], [ -75.169742034094554, 39.914286453704165 ], [ -75.169831865622967, 39.914003958004386 ] ], [ [ -75.16919406177125, 39.915195944140301 ], [ -75.168915584033172, 39.915147713890121 ] ], [ [ -75.168915584033172, 39.915147713890121 ], [ -75.168870668268951, 39.915147713890121 ] ], [ [ -75.168915584033172, 39.915147713890121 ], [ -75.168969482950217, 39.914899672066994 ] ], [ [ -75.168870668268951, 39.915147713890121 ], [ -75.168744904129184, 39.915127043772507 ], [ -75.168699988364978, 39.915085703518557 ] ], [ [ -75.177853821110148, 39.915009912988175 ], [ -75.177826871651632, 39.914982352774516 ], [ -75.177359747703889, 39.914947902491839 ], [ -75.177269916175476, 39.914906562129758 ] ], [ [ -75.176928556367514, 39.91491345219184 ], [ -75.177180084647063, 39.914920342253232 ], [ -75.177269916175476, 39.914906562129758 ] ], [ [ -75.176928556367514, 39.91491345219184 ], [ -75.176883640603307, 39.91487900187451 ], [ -75.176075156847602, 39.914789430968362 ], [ -75.176039224236234, 39.914768760742611 ] ], [ [ -75.177269916175476, 39.914906562129758 ], [ -75.177287882481153, 39.914816991259656 ] ], [ [ -75.168969482950217, 39.914899672066994 ], [ -75.168996432408747, 39.91486522174273 ], [ -75.169077280784308, 39.91452760764794 ], [ -75.169176095465559, 39.913962617072542 ], [ -75.169203044924089, 39.913907495791257 ] ], [ [ -75.168969482950217, 39.914899672066994 ], [ -75.168933550338849, 39.91487900187451 ], [ -75.168699988364978, 39.914858331675802 ] ], [ [ -75.177287882481153, 39.914816991259656 ], [ -75.177781955887426, 39.914658519433267 ] ], [ [ -75.177287882481153, 39.914816991259656 ], [ -75.177260933022637, 39.91478254089381 ], [ -75.177269916175476, 39.91468607977724 ], [ -75.17748551184367, 39.913680120037064 ] ], [ [ -75.176039224236234, 39.914768760742611 ], [ -75.175985325319189, 39.914768760742611 ] ], [ [ -75.175985325319189, 39.914768760742611 ], [ -75.175347521467458, 39.914692969861498 ] ], [ [ -75.176039224236234, 39.914768760742611 ], [ -75.176236853598738, 39.913914385953852 ], [ -75.176299735668636, 39.913542316182323 ] ], [ [ -75.175347521467458, 39.914692969861498 ], [ -75.17493429643676, 39.91463784916801 ], [ -75.17482649860267, 39.91463784916801 ], [ -75.174781582838463, 39.914617178896513 ] ], [ [ -75.175347521467458, 39.914692969861498 ], [ -75.175428369843033, 39.914410475838444 ], [ -75.175509218218608, 39.913941946597262 ], [ -75.175563117135653, 39.913783472746189 ], [ -75.175608032899859, 39.913445853319018 ] ], [ [ -75.174781582838463, 39.914617178896513 ], [ -75.174179711598114, 39.91452760764794 ] ], [ [ -75.174781582838463, 39.914617178896513 ], [ -75.174817515449831, 39.914541387847656 ], [ -75.174817515449831, 39.914431146172326 ], [ -75.174898363825406, 39.913948836756383 ], [ -75.175042094270864, 39.913390731621853 ] ], [ [ -75.173362244689557, 39.914582728430155 ], [ -75.173496991982176, 39.914486267032174 ] ], [ [ -75.174179711598114, 39.91452760764794 ], [ -75.173811402331623, 39.914513827445454 ], [ -75.17358682351059, 39.914493157136526 ], [ -75.173559874052074, 39.914472486821367 ] ], [ [ -75.174179711598114, 39.91452760764794 ], [ -75.174251576820836, 39.914100420081652 ], [ -75.174440223030501, 39.913308048992931 ] ], [ [ -75.173496991982176, 39.914486267032174 ], [ -75.173559874052074, 39.914472486821367 ] ], [ [ -75.173496991982176, 39.914486267032174 ], [ -75.173398177300925, 39.91444492639144 ], [ -75.172958002811711, 39.914403585725765 ], [ -75.172248333737244, 39.914293343828625 ], [ -75.171924940234973, 39.914272673453155 ], [ -75.171897990776444, 39.914252003071454 ] ], [ [ -75.173559874052074, 39.914472486821367 ], [ -75.17358682351059, 39.914424256061722 ], [ -75.173595806663428, 39.914279563579008 ], [ -75.173811402331623, 39.913211585799701 ] ], [ [ -75.171897990776444, 39.914252003071454 ], [ -75.171682395108249, 39.914231332683507 ], [ -75.171359001605978, 39.914169321482241 ], [ -75.170721197754247, 39.914100420081652 ], [ -75.170658315684364, 39.914079749647961 ] ], [ [ -75.171897990776444, 39.914252003071454 ], [ -75.171915957082135, 39.914079749647961 ], [ -75.17196985599918, 39.913941946597262 ] ], [ [ -75.170658315684364, 39.914079749647961 ], [ -75.169831865622967, 39.914003958004386 ] ], [ [ -75.170658315684364, 39.914079749647961 ], [ -75.170721197754247, 39.913755912039001 ] ], [ [ -75.169831865622967, 39.914003958004386 ], [ -75.16981389931729, 39.913962617072542 ] ], [ [ -75.16981389931729, 39.913962617072542 ], [ -75.169203044924089, 39.913907495791257 ] ], [ [ -75.16981389931729, 39.913962617072542 ], [ -75.169876781387174, 39.913659449476526 ] ], [ [ -75.17196985599918, 39.913941946597262 ], [ -75.172068670680432, 39.913879935133984 ], [ -75.172104603291785, 39.913742131681254 ], [ -75.172275283195773, 39.913349390319866 ], [ -75.172338165265671, 39.913080671248728 ], [ -75.172365114724187, 39.913039329759599 ] ], [ [ -75.17196985599918, 39.913941946597262 ], [ -75.171924940234973, 39.913914385953852 ], [ -75.171924940234973, 39.913811033442279 ], [ -75.172005788610534, 39.913542316182323 ], [ -75.17205070437474, 39.913170244389583 ], [ -75.172113586444624, 39.913004878499578 ] ], [ [ -75.169203044924089, 39.913907495791257 ], [ -75.169167112312721, 39.913886825299343 ], [ -75.1687718535877, 39.913838594127277 ], [ -75.168699988364978, 39.913783472746189 ] ], [ [ -75.171143405937784, 39.913783472746189 ], [ -75.171314085841772, 39.912929085666569 ], [ -75.171394934217332, 39.912846402480355 ] ], [ [ -75.170721197754247, 39.913755912039001 ], [ -75.170397804251962, 39.913721461139438 ], [ -75.170334922182079, 39.913700790591371 ] ], [ [ -75.170721197754247, 39.913755912039001 ], [ -75.170891877658235, 39.912880853820084 ], [ -75.170909843963912, 39.912832621939629 ], [ -75.170963742880957, 39.912791280300766 ] ], [ [ -75.177853821110148, 39.913742131681254 ], [ -75.177808905345941, 39.913721461139438 ], [ -75.177503478149347, 39.913693900407296 ], [ -75.17748551184367, 39.913680120037064 ] ], [ [ -75.17748551184367, 39.913680120037064 ], [ -75.176299735668636, 39.913542316182323 ] ], [ [ -75.17748551184367, 39.913680120037064 ], [ -75.177602292830599, 39.913108232227621 ], [ -75.177701107511851, 39.913025549257668 ] ], [ [ -75.170334922182079, 39.913700790591371 ], [ -75.169876781387174, 39.913659449476526 ] ], [ [ -75.170334922182079, 39.913700790591371 ], [ -75.170514585238891, 39.912784390025195 ], [ -75.170568484155936, 39.912736158076811 ] ], [ [ -75.169876781387174, 39.913659449476526 ], [ -75.169975596068426, 39.913073781002268 ], [ -75.170065427596839, 39.912736158076811 ] ], [ [ -75.176299735668636, 39.913542316182323 ], [ -75.176281769362959, 39.913507865175312 ] ], [ [ -75.176281769362959, 39.913507865175312 ], [ -75.176048207389073, 39.913500974971825 ], [ -75.175643965511213, 39.913445853319018 ] ], [ [ -75.176281769362959, 39.913507865175312 ], [ -75.176362617738519, 39.91319780533243 ], [ -75.176353634585681, 39.912991097990727 ], [ -75.176470415572609, 39.912873963553523 ] ], [ [ -75.175643965511213, 39.913445853319018 ], [ -75.175608032899859, 39.913445853319018 ] ], [ [ -75.175608032899859, 39.913445853319018 ], [ -75.175248706786221, 39.913397621836424 ], [ -75.175042094270864, 39.913390731621853 ] ], [ [ -75.175643965511213, 39.913445853319018 ], [ -75.175715830733964, 39.913115122470607 ], [ -75.175742780192479, 39.912880853820084 ], [ -75.175850578026569, 39.912791280300766 ] ], [ [ -75.175042094270864, 39.913390731621853 ], [ -75.175024127965173, 39.913356280538601 ] ], [ [ -75.175024127965173, 39.913356280538601 ], [ -75.175060060576541, 39.913308048992931 ], [ -75.175149892104969, 39.912832621939629 ], [ -75.175266673091897, 39.912722377513894 ] ], [ [ -75.175024127965173, 39.913356280538601 ], [ -75.174440223030501, 39.913308048992931 ] ], [ [ -75.174440223030501, 39.913308048992931 ], [ -75.17442225672481, 39.913287378320099 ] ], [ [ -75.17442225672481, 39.913287378320099 ], [ -75.173856318095815, 39.913232256495398 ], [ -75.173811402331623, 39.913211585799701 ] ], [ [ -75.17442225672481, 39.913287378320099 ], [ -75.174458189336178, 39.913225366264186 ], [ -75.174476155641869, 39.913066890755125 ] ], [ [ -75.173811402331623, 39.913211585799701 ], [ -75.173766486567416, 39.913190915097758 ], [ -75.173577840357751, 39.913184024862389 ], [ -75.173227497396937, 39.913128902954512 ] ], [ [ -75.173811402331623, 39.913211585799701 ], [ -75.1738293686373, 39.913025549257668 ], [ -75.173892250707183, 39.91280506084982 ], [ -75.173901233860022, 39.912660364946447 ], [ -75.173991065388449, 39.912577681435842 ] ], [ [ -75.177853821110148, 39.913149573675163 ], [ -75.177817888498794, 39.913101341983932 ], [ -75.177701107511851, 39.913025549257668 ] ], [ [ -75.173227497396937, 39.913128902954512 ], [ -75.172472912558277, 39.913039329759599 ] ], [ [ -75.172472912558277, 39.913039329759599 ], [ -75.172365114724187, 39.913039329759599 ] ], [ [ -75.172365114724187, 39.913039329759599 ], [ -75.172266300042921, 39.913011768752966 ], [ -75.172113586444624, 39.913004878499578 ] ], [ [ -75.172472912558277, 39.913039329759599 ], [ -75.172517828322484, 39.912963536964696 ], [ -75.172598676698058, 39.912501888130109 ], [ -75.172715457684987, 39.91239164317205 ] ], [ [ -75.177701107511851, 39.913025549257668 ], [ -75.177566360219245, 39.912984207735263 ] ], [ [ -75.172113586444624, 39.913004878499578 ], [ -75.172113586444624, 39.912977317479104 ] ], [ [ -75.177566360219245, 39.912984207735263 ], [ -75.177287882481153, 39.912970427222248 ], [ -75.176991438437412, 39.912929085666569 ], [ -75.176973472131721, 39.912915305142462 ] ], [ [ -75.177566360219245, 39.912984207735263 ], [ -75.177665174900497, 39.912908414879375 ], [ -75.177683141206174, 39.912867073286272 ], [ -75.177719073817542, 39.912529449341903 ] ], [ [ -75.172113586444624, 39.912977317479104 ], [ -75.171664428802572, 39.912929085666569 ], [ -75.171610529885527, 39.912901524615592 ], [ -75.171583580426997, 39.912860183018331 ] ], [ [ -75.172113586444624, 39.912977317479104 ], [ -75.172167485361683, 39.912743048357235 ], [ -75.172158502208831, 39.912639694078159 ] ], [ [ -75.176973472131721, 39.912915305142462 ], [ -75.176470415572609, 39.912873963553523 ] ], [ [ -75.176973472131721, 39.912915305142462 ], [ -75.177090253118649, 39.91281884139611 ], [ -75.177144152035709, 39.912508778434095 ], [ -75.177207034105592, 39.912446765673259 ] ], [ [ -75.176470415572609, 39.912873963553523 ], [ -75.176371600891358, 39.91283951221034 ] ], [ [ -75.171583580426997, 39.912860183018331 ], [ -75.171646462496881, 39.912811951123317 ], [ -75.171772226636676, 39.912798170575641 ], [ -75.171889007623605, 39.912763719194338 ], [ -75.17205070437474, 39.912667255234489 ], [ -75.172158502208831, 39.912639694078159 ] ], [ [ -75.171583580426997, 39.912860183018331 ], [ -75.171394934217332, 39.912846402480355 ] ], [ [ -75.171394934217332, 39.912846402480355 ], [ -75.171179338549152, 39.91280506084982 ], [ -75.170963742880957, 39.912791280300766 ] ], [ [ -75.176371600891358, 39.91283951221034 ], [ -75.175850578026569, 39.912791280300766 ] ], [ [ -75.176371600891358, 39.91283951221034 ], [ -75.176479398725462, 39.912756828915995 ], [ -75.176524314489654, 39.912460546291634 ], [ -75.176560247101023, 39.912364081904812 ] ], [ [ -75.173299362619673, 39.912825731668214 ], [ -75.173353261536718, 39.912584571732204 ], [ -75.173496991982176, 39.912467436599783 ] ], [ [ -75.175850578026569, 39.912791280300766 ], [ -75.175679898122581, 39.912756828915995 ], [ -75.175266673091897, 39.912722377513894 ] ], [ [ -75.170963742880957, 39.912791280300766 ], [ -75.170873911352544, 39.912763719194338 ], [ -75.170568484155936, 39.912736158076811 ] ], [ [ -75.170568484155936, 39.912736158076811 ], [ -75.170343905334917, 39.912701706664315 ] ], [ [ -75.170065427596839, 39.912736158076811 ], [ -75.170298989570711, 39.912736158076811 ], [ -75.170343905334917, 39.912701706664315 ] ], [ [ -75.170065427596839, 39.912736158076811 ], [ -75.170011528679794, 39.9127085969482 ], [ -75.169831865622967, 39.912681035808497 ] ], [ [ -75.175266673091897, 39.912722377513894 ], [ -75.175221757327691, 39.912701706664315 ], [ -75.174296492585043, 39.912591462027869 ], [ -75.173991065388449, 39.912577681435842 ] ], [ [ -75.170343905334917, 39.912701706664315 ], [ -75.170272040112195, 39.91262591349583 ], [ -75.170164242278091, 39.912598352322853 ], [ -75.170074410749692, 39.912508778434095 ], [ -75.170020511832647, 39.912481217213987 ] ], [ [ -75.1697061014832, 39.912701706664315 ], [ -75.169831865622967, 39.912681035808497 ] ], [ [ -75.169831865622967, 39.912681035808497 ], [ -75.169786949858761, 39.91260524261714 ], [ -75.169490505815006, 39.912488107520062 ], [ -75.169418640592269, 39.912481217213987 ] ], [ [ -75.172158502208831, 39.912639694078159 ], [ -75.172194434820199, 39.912550120243466 ], [ -75.172203417973037, 39.912432985052121 ], [ -75.172284266348612, 39.912343410947102 ] ], [ [ -75.173991065388449, 39.912577681435842 ], [ -75.173955132777067, 39.912550120243466 ], [ -75.17372157080321, 39.912474326907237 ] ], [ [ -75.177719073817542, 39.912529449341903 ], [ -75.177683141206174, 39.912481217213987 ] ], [ [ -75.177683141206174, 39.912481217213987 ], [ -75.177710090664704, 39.912412314115208 ], [ -75.177772972734587, 39.911950661565392 ], [ -75.177808905345941, 39.911916209757806 ], [ -75.177862804263, 39.911351197640961 ], [ -75.177844837957309, 39.911034237583607 ], [ -75.177880770568677, 39.910724166543098 ], [ -75.177790939040264, 39.910641480695247 ], [ -75.177584326524922, 39.910613918723776 ] ], [ [ -75.177683141206174, 39.912481217213987 ], [ -75.177207034105592, 39.912446765673259 ] ], [ [ -75.17372157080321, 39.912474326907237 ], [ -75.173496991982176, 39.912467436599783 ] ], [ [ -75.17372157080321, 39.912474326907237 ], [ -75.17380241917877, 39.912308959337061 ], [ -75.173784452873093, 39.912219385069861 ], [ -75.173793436025932, 39.91208846862245 ], [ -75.1738293686373, 39.912019565128581 ] ], [ [ -75.173496991982176, 39.912467436599783 ], [ -75.173092750104331, 39.912439875363042 ], [ -75.172715457684987, 39.91239164317205 ] ], [ [ -75.177207034105592, 39.912446765673259 ], [ -75.177198050952754, 39.912419204428204 ] ], [ [ -75.177198050952754, 39.912419204428204 ], [ -75.177233983564108, 39.91239164317205 ], [ -75.177251949869799, 39.912343410947102 ], [ -75.177251949869799, 39.912240056064995 ], [ -75.177332798245359, 39.911895538664936 ], [ -75.177350764551051, 39.91165437545385 ] ], [ [ -75.177198050952754, 39.912419204428204 ], [ -75.176829741686262, 39.912384752856283 ], [ -75.176802792227733, 39.912364081904812 ] ], [ [ -75.172715457684987, 39.91239164317205 ], [ -75.172634609309426, 39.912357191586267 ] ], [ [ -75.176802792227733, 39.912364081904812 ], [ -75.176560247101023, 39.912364081904812 ] ], [ [ -75.176560247101023, 39.912364081904812 ], [ -75.176452449266932, 39.912329630305166 ], [ -75.175706847581111, 39.912240056064995 ], [ -75.175643965511213, 39.912219385069861 ], [ -75.17471870076858, 39.912129810685499 ], [ -75.17442225672481, 39.912081578276187 ], [ -75.174009031694126, 39.912040236184019 ], [ -75.173973099082758, 39.912019565128581 ] ], [ [ -75.176802792227733, 39.912364081904812 ], [ -75.176928556367514, 39.911833525348889 ], [ -75.176937539520353, 39.911626813889946 ], [ -75.176910590061837, 39.911592361919475 ] ], [ [ -75.172634609309426, 39.912357191586267 ], [ -75.172284266348612, 39.912343410947102 ] ], [ [ -75.172634609309426, 39.912357191586267 ], [ -75.172724440837825, 39.912267617382135 ], [ -75.172769356602032, 39.911909319394205 ], [ -75.172796306060562, 39.911881757932882 ] ], [ [ -75.172284266348612, 39.912343410947102 ], [ -75.172266300042921, 39.912322739983161 ], [ -75.172194434820199, 39.912302069012974 ] ], [ [ -75.172194434820199, 39.912302069012974 ], [ -75.170613399920157, 39.912129810685499 ], [ -75.170568484155936, 39.912102249312909 ], [ -75.170478652627537, 39.912081578276187 ], [ -75.168987449255894, 39.91192310012071 ], [ -75.168924567186011, 39.911881757932882 ] ], [ [ -75.172194434820199, 39.912302069012974 ], [ -75.172275283195773, 39.912219385069861 ], [ -75.172311215807142, 39.91192310012071 ] ], [ [ -75.173973099082758, 39.912019565128581 ], [ -75.1738293686373, 39.912019565128581 ] ], [ [ -75.1738293686373, 39.912019565128581 ], [ -75.173775469720255, 39.911998894066905 ], [ -75.173514958287868, 39.911985113355655 ], [ -75.173020884881595, 39.911902429029915 ], [ -75.172796306060562, 39.911881757932882 ] ], [ [ -75.173973099082758, 39.912019565128581 ], [ -75.174044964305494, 39.911757731219708 ], [ -75.174116829528216, 39.911688827393128 ] ], [ [ -75.172311215807142, 39.91192310012071 ], [ -75.172329182112833, 39.911812854231066 ], [ -75.172365114724187, 39.911764621598557 ] ], [ [ -75.172311215807142, 39.91192310012071 ], [ -75.172239350584405, 39.91192310012071 ], [ -75.172230367431567, 39.911929990482918 ], [ -75.172140535903154, 39.911929990482918 ], [ -75.172131552750315, 39.911936880844429 ], [ -75.171646462496881, 39.91192310012071 ], [ -75.171143405937784, 39.911895538664936 ], [ -75.171026624950841, 39.911881757932882 ], [ -75.170999675492325, 39.911861086829617 ] ], [ [ -75.174592936628812, 39.911909319394205 ], [ -75.174574970323121, 39.911854196460482 ], [ -75.174503105100385, 39.911799073482392 ], [ -75.174296492585043, 39.911723279315083 ], [ -75.174116829528216, 39.911688827393128 ] ], [ [ -75.168924567186011, 39.911881757932882 ], [ -75.169068297631469, 39.91177151197671 ], [ -75.169095247089999, 39.91177151197671 ] ], [ [ -75.168924567186011, 39.911881757932882 ], [ -75.168852701963274, 39.911867977198071 ], [ -75.168699988364978, 39.911723279315083 ] ], [ [ -75.172796306060562, 39.911881757932882 ], [ -75.172778339754871, 39.911805963857077 ] ], [ [ -75.17081102928266, 39.911854196460482 ], [ -75.170712214601409, 39.911861086829617 ], [ -75.170406787404801, 39.911826634976975 ], [ -75.169903730845689, 39.911819744604372 ] ], [ [ -75.172778339754871, 39.911805963857077 ], [ -75.1728052892134, 39.911764621598557 ], [ -75.172931053353182, 39.911089361177204 ] ], [ [ -75.172778339754871, 39.911805963857077 ], [ -75.172365114724187, 39.911764621598557 ] ], [ [ -75.172365114724187, 39.911764621598557 ], [ -75.172356131571348, 39.911695717778905 ] ], [ [ -75.172356131571348, 39.911695717778905 ], [ -75.172383081029878, 39.911661265843087 ], [ -75.172445963099761, 39.911413211393679 ], [ -75.172643592462265, 39.910820633239446 ], [ -75.172688508226472, 39.91058635674122 ] ], [ [ -75.172356131571348, 39.911695717778905 ], [ -75.172257316890082, 39.911668156231642 ], [ -75.172140535903154, 39.911661265843087 ], [ -75.171754260330985, 39.911585471523303 ], [ -75.17156561412132, 39.911564800330623 ], [ -75.171511715204275, 39.911537238730673 ] ], [ [ -75.174116829528216, 39.911688827393128 ], [ -75.17409886322254, 39.911585471523303 ], [ -75.174107846375378, 39.911447663454254 ], [ -75.174197677903791, 39.911123813400671 ] ], [ [ -75.17094577657528, 39.911668156231642 ], [ -75.170775096671292, 39.911633704281968 ], [ -75.169068297631469, 39.911420101807181 ], [ -75.168960499797379, 39.911392540149009 ], [ -75.168861685116113, 39.911296074258082 ], [ -75.168861685116113, 39.911268512550009 ] ], [ [ -75.176910590061837, 39.911592361919475 ], [ -75.176982455284559, 39.911544129131698 ], [ -75.17700042159025, 39.911509677119632 ], [ -75.177036354201604, 39.911206498666289 ] ], [ [ -75.176910590061837, 39.911592361919475 ], [ -75.176712960699319, 39.911585471523303 ], [ -75.176443466114094, 39.911544129131698 ] ], [ [ -75.176443466114094, 39.911544129131698 ], [ -75.176362617738519, 39.911482115497513 ], [ -75.176326685127165, 39.911475225090243 ] ], [ [ -75.171511715204275, 39.911537238730673 ], [ -75.171556630968482, 39.911482115497513 ], [ -75.171736294025308, 39.910689714118625 ], [ -75.17183510870656, 39.910407203584292 ] ], [ [ -75.171511715204275, 39.911537238730673 ], [ -75.171359001605978, 39.911530348328952 ], [ -75.171179338549152, 39.911502786715147 ], [ -75.171143405937784, 39.911482115497513 ] ], [ [ -75.171143405937784, 39.911482115497513 ], [ -75.171170355396313, 39.911426992219987 ], [ -75.17118832170199, 39.911254731691812 ], [ -75.171394934217332, 39.910338298399175 ] ], [ [ -75.171143405937784, 39.911482115497513 ], [ -75.170784079824145, 39.911454553864289 ], [ -75.170730180907086, 39.911426992219987 ] ], [ [ -75.170730180907086, 39.911426992219987 ], [ -75.170775096671292, 39.911364978479753 ], [ -75.170900860811074, 39.910786180863482 ], [ -75.170918827116751, 39.910737947508039 ], [ -75.17094577657528, 39.910724166543098 ] ], [ [ -75.170730180907086, 39.911426992219987 ], [ -75.170541534697421, 39.911420101807181 ], [ -75.170379837946285, 39.911392540149009 ], [ -75.170370854793447, 39.911378759315767 ] ], [ [ -75.17740466346811, 39.911399430564593 ], [ -75.177422629773787, 39.911378759315767 ], [ -75.177449579232302, 39.911151375166966 ], [ -75.177557377066407, 39.910648371186376 ], [ -75.177584326524922, 39.910613918723776 ] ], [ [ -75.170370854793447, 39.911378759315767 ], [ -75.169903730845689, 39.911344307220531 ], [ -75.169140162854205, 39.911247841261677 ], [ -75.168906600880334, 39.911240950830837 ], [ -75.168861685116113, 39.911268512550009 ] ], [ [ -75.170370854793447, 39.911378759315767 ], [ -75.17043373686333, 39.910992894859305 ], [ -75.170559501003098, 39.910482999207879 ], [ -75.170586450461641, 39.910269393144738 ], [ -75.170622383072995, 39.910234940491534 ] ], [ [ -75.175778712803847, 39.911378759315767 ], [ -75.175805662262363, 39.911275402978063 ] ], [ [ -75.175805662262363, 39.911275402978063 ], [ -75.175742780192479, 39.911247841261677 ], [ -75.175509218218608, 39.911213389100588 ], [ -75.174494121947546, 39.911096251623277 ], [ -75.174296492585043, 39.911089361177204 ], [ -75.174197677903791, 39.911123813400671 ] ], [ [ -75.168861685116113, 39.911268512550009 ], [ -75.168699988364978, 39.911151375166966 ] ], [ [ -75.177036354201604, 39.911206498666289 ], [ -75.177090253118649, 39.911054908936407 ], [ -75.177162118341386, 39.91055879474758 ], [ -75.177189067799901, 39.910524342239924 ] ], [ [ -75.177036354201604, 39.911206498666289 ], [ -75.176946522673205, 39.911206498666289 ], [ -75.176919573214676, 39.911213389100588 ], [ -75.176730927004996, 39.911192717795622 ], [ -75.176632112323759, 39.911158265606808 ], [ -75.176623129170906, 39.911061799385948 ], [ -75.176721943852158, 39.910724166543098 ] ], [ [ -75.174197677903791, 39.911123813400671 ], [ -75.17409886322254, 39.91102045667828 ] ], [ [ -75.172221384278728, 39.911110032513363 ], [ -75.172221384278728, 39.910992894859305 ], [ -75.17232019895998, 39.910482999207879 ] ], [ [ -75.172931053353182, 39.911089361177204 ], [ -75.173056817492963, 39.911027347131295 ], [ -75.17310173325717, 39.910958442569985 ], [ -75.173173598479892, 39.910896428405557 ], [ -75.173308345772512, 39.910834414184976 ], [ -75.173416143606602, 39.91081374276564 ] ], [ [ -75.172931053353182, 39.911089361177204 ], [ -75.172922070200343, 39.910958442569985 ], [ -75.173011901728756, 39.910620809217683 ] ], [ [ -75.173910217012875, 39.91081374276564 ], [ -75.173784452873093, 39.910731057025913 ], [ -75.17372157080321, 39.910648371186376 ] ], [ [ -75.17482649860267, 39.910772399908254 ], [ -75.174871414366876, 39.910799961815954 ], [ -75.175661931816904, 39.910903318871036 ], [ -75.175859561179408, 39.910910209335839 ], [ -75.176003291624866, 39.910889537939376 ], [ -75.176120072611809, 39.910841304656707 ], [ -75.17620092098737, 39.910772399908254 ], [ -75.176272786210106, 39.910648371186376 ], [ -75.176326685127165, 39.910469218191643 ], [ -75.176326685127165, 39.910400313068898 ], [ -75.176353634585681, 39.91035896996199 ] ], [ [ -75.17482649860267, 39.910772399908254 ], [ -75.174476155641869, 39.910744837989462 ], [ -75.17396411592992, 39.910648371186376 ], [ -75.173793436025932, 39.910634590203415 ], [ -75.17372157080321, 39.910648371186376 ] ], [ [ -75.17482649860267, 39.910772399908254 ], [ -75.174925313283921, 39.910241831023562 ], [ -75.174979212200967, 39.910172925672086 ] ], [ [ -75.17372157080321, 39.910648371186376 ], [ -75.173065800645801, 39.910579466243853 ] ], [ [ -75.173011901728756, 39.910620809217683 ], [ -75.173065800645801, 39.910579466243853 ] ], [ [ -75.173011901728756, 39.910620809217683 ], [ -75.172940036506034, 39.910600137733887 ], [ -75.172778339754871, 39.910600137733887 ], [ -75.172724440837825, 39.910579466243853 ] ], [ [ -75.177584326524922, 39.910613918723776 ], [ -75.177575343372084, 39.91058635674122 ] ], [ [ -75.177575343372084, 39.91058635674122 ], [ -75.17762025913629, 39.910538123245068 ], [ -75.177647208594806, 39.910434765638939 ], [ -75.177665174900497, 39.910193597284803 ], [ -75.177728056970381, 39.910055786415512 ], [ -75.177763989581749, 39.909842179020188 ], [ -75.177790939040264, 39.909793945000025 ], [ -75.177808905345941, 39.909676805095373 ], [ -75.177835854804471, 39.909649242735767 ], [ -75.177835854804471, 39.909532102583661 ], [ -75.177871787415839, 39.909435634072707 ], [ -75.177880770568677, 39.909318493555332 ] ], [ [ -75.177575343372084, 39.91058635674122 ], [ -75.177242966716946, 39.910551904247434 ], [ -75.177189067799901, 39.910524342239924 ] ], [ [ -75.172688508226472, 39.91058635674122 ], [ -75.172724440837825, 39.910579466243853 ] ], [ [ -75.172688508226472, 39.91058635674122 ], [ -75.172535794628175, 39.910510561232016 ], [ -75.17232019895998, 39.910482999207879 ] ], [ [ -75.173065800645801, 39.910579466243853 ], [ -75.173065800645801, 39.910372751000395 ], [ -75.173146649021376, 39.909993771433882 ], [ -75.173155632174215, 39.909855960162567 ], [ -75.173236480549775, 39.909601008579749 ], [ -75.173272413161143, 39.90928404042387 ] ], [ [ -75.172724440837825, 39.910579466243853 ], [ -75.172940036506034, 39.909649242735767 ], [ -75.172958002811711, 39.909490758952749 ], [ -75.172993935423079, 39.909401181000156 ], [ -75.172993935423079, 39.909325384179546 ], [ -75.173020884881595, 39.909270259166426 ] ], [ [ -75.177189067799901, 39.910524342239924 ], [ -75.177225000411269, 39.910482999207879 ], [ -75.177269916175476, 39.910159144593479 ] ], [ [ -75.177189067799901, 39.910524342239924 ], [ -75.177135168882856, 39.91049678022133 ], [ -75.176964488978882, 39.910476108700102 ], [ -75.176650078629436, 39.910393422552815 ], [ -75.176353634585681, 39.91035896996199 ] ], [ [ -75.17232019895998, 39.910482999207879 ], [ -75.172266300042921, 39.910455437172637 ], [ -75.172095620138947, 39.910427875126324 ], [ -75.17183510870656, 39.910407203584292 ] ], [ [ -75.17183510870656, 39.910407203584292 ], [ -75.17180815924803, 39.91037964151856 ] ], [ [ -75.17180815924803, 39.91037964151856 ], [ -75.171394934217332, 39.910338298399175 ] ], [ [ -75.17180815924803, 39.91037964151856 ], [ -75.17183510870656, 39.910324517353835 ], [ -75.17186205816509, 39.910090239158833 ], [ -75.171987822304857, 39.909552774389766 ], [ -75.172041721221902, 39.909208243473643 ], [ -75.17207765383327, 39.909146227724719 ] ], [ [ -75.176353634585681, 39.91035896996199 ], [ -75.176317701974313, 39.910338298399175 ], [ -75.176057190541911, 39.910310736305718 ], [ -75.175967359013512, 39.910283174201169 ] ], [ [ -75.171394934217332, 39.910338298399175 ], [ -75.171341035300287, 39.910317626830121 ], [ -75.17105357440937, 39.910296955254836 ], [ -75.170999675492325, 39.910276283673305 ] ], [ [ -75.171394934217332, 39.910338298399175 ], [ -75.171412900523023, 39.910145363512086 ], [ -75.171574597274159, 39.909518321376133 ], [ -75.171655445649733, 39.909097993214516 ] ], [ [ -75.175967359013512, 39.910283174201169 ], [ -75.175778712803847, 39.910276283673305 ], [ -75.175176841563484, 39.910186706747929 ], [ -75.174979212200967, 39.910172925672086 ] ], [ [ -75.175967359013512, 39.910283174201169 ], [ -75.176030241083396, 39.909993771433882 ] ], [ [ -75.170999675492325, 39.910276283673305 ], [ -75.170685265142893, 39.910255612085543 ], [ -75.170622383072995, 39.910234940491534 ] ], [ [ -75.170999675492325, 39.910276283673305 ], [ -75.17105357440937, 39.910131582427937 ], [ -75.171071540715047, 39.909973099760855 ], [ -75.171278153230404, 39.909049758670342 ] ], [ [ -75.170622383072995, 39.910234940491534 ], [ -75.170245090653665, 39.910179816210352 ] ], [ [ -75.170622383072995, 39.910234940491534 ], [ -75.170649332531525, 39.910186706747929 ], [ -75.170730180907086, 39.909690586271026 ], [ -75.170873911352544, 39.909049758670342 ], [ -75.170909843963912, 39.909008414748321 ], [ -75.171116456479254, 39.909008414748321 ], [ -75.171269170077565, 39.909035977365775 ], [ -75.171278153230404, 39.909049758670342 ] ], [ [ -75.174979212200967, 39.910172925672086 ], [ -75.174997178506658, 39.909959318642038 ], [ -75.175051077423703, 39.909821507301423 ] ], [ [ -75.177269916175476, 39.910159144593479 ], [ -75.177225000411269, 39.910131582427937 ], [ -75.177054320507295, 39.910124691884818 ], [ -75.176982455284559, 39.910104020251303 ] ], [ [ -75.177269916175476, 39.910159144593479 ], [ -75.177287882481153, 39.91013847297036 ], [ -75.177332798245359, 39.909855960162567 ], [ -75.177332798245359, 39.909780163845177 ], [ -75.177305848786844, 39.909752601527138 ] ], [ [ -75.176982455284559, 39.910104020251303 ], [ -75.176308718821474, 39.910035114761207 ], [ -75.176111089458956, 39.909959318642038 ] ], [ [ -75.176982455284559, 39.910104020251303 ], [ -75.177009404743089, 39.910083348611558 ], [ -75.177027371048766, 39.909973099760855 ] ], [ [ -75.176030241083396, 39.909993771433882 ], [ -75.176111089458956, 39.909959318642038 ] ], [ [ -75.176030241083396, 39.909993771433882 ], [ -75.175976342166351, 39.909966209201798 ], [ -75.175131925799278, 39.909862850732722 ], [ -75.175051077423703, 39.909821507301423 ] ], [ [ -75.176111089458956, 39.909959318642038 ], [ -75.176129055764648, 39.909849069591722 ], [ -75.176209904140208, 39.909821507301423 ] ], [ [ -75.177045337354457, 39.909835288447958 ], [ -75.177189067799901, 39.909821507301423 ], [ -75.177305848786844, 39.909752601527138 ] ], [ [ -75.177045337354457, 39.909835288447958 ], [ -75.176919573214676, 39.909800835576419 ], [ -75.17689262375616, 39.909773273266701 ], [ -75.176928556367514, 39.909463196518274 ] ], [ [ -75.175051077423703, 39.909821507301423 ], [ -75.175060060576541, 39.909656133326699 ] ], [ [ -75.177305848786844, 39.909752601527138 ], [ -75.177395680315243, 39.909408071616049 ], [ -75.177458562385155, 39.909339165425898 ], [ -75.177494494996509, 39.909215134108955 ], [ -75.1775124613022, 39.909022196058437 ] ], [ [ -75.172472912558277, 39.909731929781344 ], [ -75.172499862016807, 39.909697476857815 ], [ -75.172544777781013, 39.909532102583661 ], [ -75.172571727239529, 39.90928404042387 ], [ -75.172625626156574, 39.909215134108955 ] ], [ [ -75.175320572008943, 39.909656133326699 ], [ -75.175060060576541, 39.909656133326699 ] ], [ [ -75.175060060576541, 39.909656133326699 ], [ -75.175006161659496, 39.909621680365056 ], [ -75.174799549144154, 39.909587227386076 ] ], [ [ -75.176928556367514, 39.909463196518274 ], [ -75.176982455284559, 39.909277149795493 ], [ -75.17700042159025, 39.909104883860913 ], [ -75.177036354201604, 39.908973961460902 ], [ -75.177063303660134, 39.908960180141079 ] ], [ [ -75.176928556367514, 39.909463196518274 ], [ -75.176605162865229, 39.909428743459578 ], [ -75.176542280795346, 39.909401181000156 ] ], [ [ -75.176542280795346, 39.909401181000156 ], [ -75.176236853598738, 39.909373618529635 ], [ -75.175859561179408, 39.909318493555332 ], [ -75.175814645415215, 39.909297821678535 ] ], [ [ -75.176542280795346, 39.909401181000156 ], [ -75.176632112323759, 39.908994633435434 ], [ -75.176668044935113, 39.908967070801339 ] ], [ [ -75.175814645415215, 39.909297821678535 ], [ -75.175491251912916, 39.909277149795493 ], [ -75.175122942646425, 39.909228915377476 ], [ -75.175095993187909, 39.909194462200958 ], [ -75.175104976340748, 39.909111774506606 ], [ -75.175131925799278, 39.908994633435434 ], [ -75.175176841563484, 39.908960180141079 ] ], [ [ -75.175814645415215, 39.909297821678535 ], [ -75.175841594873731, 39.90924958727507 ], [ -75.175877527485099, 39.909001524092218 ], [ -75.175904476943614, 39.908973961460902 ] ], [ [ -75.173272413161143, 39.90928404042387 ], [ -75.173299362619673, 39.909256477906219 ], [ -75.173326312078188, 39.909029086712451 ], [ -75.1734790256765, 39.908953289480131 ] ], [ [ -75.173272413161143, 39.90928404042387 ], [ -75.173020884881595, 39.909270259166426 ] ], [ [ -75.173020884881595, 39.909270259166426 ], [ -75.172993935423079, 39.909242696643233 ] ], [ [ -75.172993935423079, 39.909242696643233 ], [ -75.172625626156574, 39.909215134108955 ] ], [ [ -75.172993935423079, 39.909242696643233 ], [ -75.173047834340124, 39.908994633435434 ], [ -75.17310173325717, 39.908967070801339 ] ], [ [ -75.172625626156574, 39.909215134108955 ], [ -75.172580710392381, 39.909194462200958 ], [ -75.17232019895998, 39.90916000900711 ], [ -75.17207765383327, 39.909146227724719 ] ], [ [ -75.17207765383327, 39.909146227724719 ], [ -75.17186205816509, 39.909104883860913 ], [ -75.171655445649733, 39.909097993214516 ] ], [ [ -75.171655445649733, 39.909097993214516 ], [ -75.171583580426997, 39.909070430622009 ], [ -75.171278153230404, 39.909049758670342 ] ], [ [ -75.1775124613022, 39.909022196058437 ], [ -75.177467545537993, 39.908994633435434 ], [ -75.177395680315243, 39.908980852119768 ] ] ] } }
]
}
