{
"type": "FeatureCollection",
"name": "gee_batch_9_41.83409_-87.61108",
"crs": { "type": "name", "properties": { "name": "urn:ogc:def:crs:OGC:1.3:CRS84" } },
"features": [
{ "type": "Feature", "properties": { "weight": 206.02438661763955, "nodes": "0-13" }, "geometry": { "type": "LineString", "coordinates": [ [ -87.610236344676593, 41.837512175966943 ], [ -87.610191428912387, 41.837498790358964 ], [ -87.610065664772605, 41.83729131307738 ], [ -87.610029732161237, 41.83717084208908 ], [ -87.609948883785677, 41.837030292316115 ], [ -87.609894984868632, 41.836842892138669 ], [ -87.609859052257264, 41.836789349130044 ], [ -87.60968837235329, 41.836314152965514 ] ] } },
{ "type": "Feature", "properties": { "weight": 980.49956672411145, "nodes": "1-66" }, "geometry": { "type": "LineString", "coordinates": [ [ -87.608304966815737, 41.837485404748193 ], [ -87.608269034204369, 41.837458633518246 ], [ -87.608260051051531, 41.837425169465078 ], [ -87.608161236370279, 41.836849585011599 ], [ -87.608161236370279, 41.836200373078626 ], [ -87.608089371147543, 41.835323591871116 ], [ -87.608026489077659, 41.834801533233339 ], [ -87.607891741785039, 41.834152300525268 ], [ -87.607685129269697, 41.833543220554297 ], [ -87.607379702073104, 41.832900668368396 ], [ -87.607092241182173, 41.832425443331466 ], [ -87.60670596560999, 41.831889974273629 ], [ -87.606544268858855, 41.831695865633961 ], [ -87.60649036994181, 41.831488369540629 ] ] } },
{ "type": "Feature", "properties": { "weight": 901.41630560342628, "nodes": "2-64" }, "geometry": { "type": "LineString", "coordinates": [ [ -87.607999539619144, 41.837485404748193 ], [ -87.607954623854937, 41.837458633518246 ], [ -87.607945640702098, 41.837425169465078 ], [ -87.607873775479362, 41.836976749464263 ], [ -87.607819876562303, 41.836213758958166 ], [ -87.607792927103787, 41.836126750691093 ], [ -87.607783943950935, 41.835832260294048 ], [ -87.607739028186742, 41.835631470610046 ], [ -87.607748011339581, 41.8354708384093 ], [ -87.607694112422536, 41.834727909236676 ], [ -87.607550381977077, 41.834038516795111 ], [ -87.607433600990149, 41.833677084781115 ], [ -87.607155123252056, 41.833074693555673 ], [ -87.606903594972508, 41.832646323012824 ], [ -87.606643083540106, 41.832264803084456 ], [ -87.606544268858855, 41.83215101599891 ], [ -87.606481386788971, 41.831930134608349 ] ] } },
{ "type": "Feature", "properties": { "weight": 120.54977647648455, "nodes": "3-10" }, "geometry": { "type": "LineString", "coordinates": [ [ -87.607083258029334, 41.837485404748193 ], [ -87.607083258029334, 41.837150763568992 ], [ -87.607056308570805, 41.836862970755355 ], [ -87.607029359112289, 41.836735806076611 ], [ -87.606993426500921, 41.836709034533101 ] ] } },
{ "type": "Feature", "properties": { "weight": 196.31370849898477, "nodes": "4-8" }, "geometry": { "type": "LineString", "coordinates": [ [ -87.614548258040358, 41.837478711941763 ], [ -87.614548258040358, 41.837003520895792 ], [ -87.614521308581843, 41.836976749464263 ], [ -87.613461296546575, 41.836970056604635 ] ] } },
{ "type": "Feature", "properties": { "weight": 73.828427124746185, "nodes": "5-8" }, "geometry": { "type": "LineString", "coordinates": [ [ -87.613461296546575, 41.837458633518246 ], [ -87.613461296546575, 41.836970056604635 ] ] } },
{ "type": "Feature", "properties": { "weight": 39.071067811865476, "nodes": "6-7" }, "geometry": { "type": "LineString", "coordinates": [ [ -87.607595297741284, 41.837371626943593 ], [ -87.607622247199799, 41.837123992199061 ] ] } },
{ "type": "Feature", "properties": { "weight": 137.65685424949237, "nodes": "8-16" }, "geometry": { "type": "LineString", "coordinates": [ [ -87.613461296546575, 41.836970056604635 ], [ -87.613452313393736, 41.836354310524349 ], [ -87.613425363935207, 41.836059821174388 ] ] } },
{ "type": "Feature", "properties": { "weight": 32.071067811865476, "nodes": "9-10" }, "geometry": { "type": "LineString", "coordinates": [ [ -87.606723931915681, 41.836742498960746 ], [ -87.606993426500921, 41.836709034533101 ] ] } },
{ "type": "Feature", "properties": { "weight": 47.485281374238568, "nodes": "10-12" }, "geometry": { "type": "LineString", "coordinates": [ [ -87.606993426500921, 41.836709034533101 ], [ -87.606984443348082, 41.836575176647571 ], [ -87.606957493889553, 41.836501554691189 ], [ -87.606975460195244, 41.836407853896944 ] ] } },
{ "type": "Feature", "properties": { "weight": 225.40916292848976, "nodes": "11-26" }, "geometry": { "type": "LineString", "coordinates": [ [ -87.607119190640688, 41.836575176647571 ], [ -87.607092241182173, 41.83643462556644 ], [ -87.606948510736714, 41.836073207083324 ], [ -87.606822746596947, 41.835838953272663 ], [ -87.606508336247501, 41.835383829132219 ], [ -87.606481386788971, 41.835263354553312 ] ] } },
{ "type": "Feature", "properties": { "weight": 52.041630560342611, "nodes": "14-17" }, "geometry": { "type": "LineString", "coordinates": [ [ -87.606894611819669, 41.836307460036586 ], [ -87.606858679208301, 41.836267302448348 ], [ -87.606840712902624, 41.836186987196278 ], [ -87.606741898221372, 41.836006277510627 ] ] } },
{ "type": "Feature", "properties": { "weight": 36.556349186104043, "nodes": "15-18" }, "geometry": { "type": "LineString", "coordinates": [ [ -87.609616507130553, 41.836180294254056 ], [ -87.609616507130553, 41.836120057742569 ], [ -87.609553625060656, 41.836053128218865 ], [ -87.609535658754979, 41.835966119733406 ] ] } },
{ "type": "Feature", "properties": { "weight": 285.21320343559643, "nodes": "16-21" }, "geometry": { "type": "LineString", "coordinates": [ [ -87.613425363935207, 41.836059821174388 ], [ -87.612994172598846, 41.836073207083324 ], [ -87.612428233969851, 41.836053128218865 ], [ -87.6113053398647, 41.836053128218865 ], [ -87.61125144094764, 41.836012970471039 ], [ -87.611224491489125, 41.835772023454979 ] ] } },
{ "type": "Feature", "properties": { "weight": 112.48528137423857, "nodes": "16-25" }, "geometry": { "type": "LineString", "coordinates": [ [ -87.613425363935207, 41.836059821174388 ], [ -87.613434347088059, 41.83565824260431 ], [ -87.61340739762953, 41.835323591871116 ] ] } },
{ "type": "Feature", "properties": { "weight": 44.041630560342611, "nodes": "20-23" }, "geometry": { "type": "LineString", "coordinates": [ [ -87.606643083540106, 41.835798795390453 ], [ -87.606517319400339, 41.835664935601123 ], [ -87.606481386788971, 41.835557847568083 ] ] } },
{ "type": "Feature", "properties": { "weight": 66.307135789365262, "nodes": "21-24" }, "geometry": { "type": "LineString", "coordinates": [ [ -87.611224491489125, 41.835772023454979 ], [ -87.611233474641963, 41.83541060123008 ], [ -87.61127839040617, 41.835343670964455 ] ] } },
{ "type": "Feature", "properties": { "weight": 253.82337649086287, "nodes": "22-39" }, "geometry": { "type": "LineString", "coordinates": [ [ -87.609302096781107, 41.835584619593142 ], [ -87.609167349488487, 41.835196424133706 ], [ -87.60901463589019, 41.834881850224015 ], [ -87.608888871750409, 41.834533809203172 ], [ -87.608825989680525, 41.834440105528046 ], [ -87.608808023374834, 41.834339708581034 ], [ -87.608727174999274, 41.834219232036745 ], [ -87.608691242387906, 41.834118834743272 ], [ -87.608646326623699, 41.834092062105086 ] ] } },
{ "type": "Feature", "properties": { "weight": 239.89949493661166, "nodes": "24-25" }, "geometry": { "type": "LineString", "coordinates": [ [ -87.61127839040617, 41.835343670964455 ], [ -87.61340739762953, 41.835323591871116 ] ] } },
{ "type": "Feature", "properties": { "weight": 94.242640687119291, "nodes": "24-29" }, "geometry": { "type": "LineString", "coordinates": [ [ -87.61127839040617, 41.835343670964455 ], [ -87.611269407253332, 41.834721216141872 ] ] } },
{ "type": "Feature", "properties": { "weight": 287.11269837220811, "nodes": "25-38" }, "geometry": { "type": "LineString", "coordinates": [ [ -87.61340739762953, 41.835323591871116 ], [ -87.61340739762953, 41.834881850224015 ], [ -87.613425363935207, 41.834774760880713 ], [ -87.613461296546575, 41.834707829950162 ], [ -87.613497229157943, 41.834687750657352 ], [ -87.613596043839209, 41.834674364458643 ], [ -87.614224864538087, 41.834681057558349 ], [ -87.614458426511959, 41.834660978257133 ], [ -87.614494359123313, 41.834607433423109 ], [ -87.614485375970474, 41.834158993679566 ] ] } },
{ "type": "Feature", "properties": { "weight": 63.740115370177612, "nodes": "27-28" }, "geometry": { "type": "LineString", "coordinates": [ [ -87.606849696055463, 41.8351228005913 ], [ -87.606553252011693, 41.834848384823481 ], [ -87.60649036994181, 41.834814919405453 ] ] } },
{ "type": "Feature", "properties": { "weight": 110.01219330881976, "nodes": "29-35" }, "geometry": { "type": "LineString", "coordinates": [ [ -87.611269407253332, 41.834721216141872 ], [ -87.611502969227203, 41.834707829950162 ], [ -87.611565851297087, 41.834687750657352 ], [ -87.611637716519823, 41.834634205845724 ], [ -87.611709581742545, 41.834533809203172 ], [ -87.611754497506752, 41.834426719277545 ], [ -87.61176348065959, 41.834252697766246 ] ] } },
{ "type": "Feature", "properties": { "weight": 101.47870866461906, "nodes": "29-31" }, "geometry": { "type": "LineString", "coordinates": [ [ -87.611269407253332, 41.834721216141872 ], [ -87.610371091969213, 41.834721216141872 ] ] } },
{ "type": "Feature", "properties": { "weight": 71.892922226992169, "nodes": "30-31" }, "geometry": { "type": "LineString", "coordinates": [ [ -87.609742271270335, 41.834727909236676 ], [ -87.610083631078282, 41.834734602330784 ], [ -87.610371091969213, 41.834721216141872 ] ] } },
{ "type": "Feature", "properties": { "weight": 222.55634918610406, "nodes": "31-35" }, "geometry": { "type": "LineString", "coordinates": [ [ -87.610371091969213, 41.834721216141872 ], [ -87.610371091969213, 41.834366481115644 ], [ -87.61038905827489, 41.834286163478232 ], [ -87.610442957191935, 41.834252697766246 ], [ -87.61176348065959, 41.834252697766246 ] ] } },
{ "type": "Feature", "properties": { "weight": 59.89949493661166, "nodes": "32-34" }, "geometry": { "type": "LineString", "coordinates": [ [ -87.60649036994181, 41.834707829950162 ], [ -87.606517319400339, 41.834507036738565 ], [ -87.606481386788971, 41.834326322309536 ] ] } },
{ "type": "Feature", "properties": { "weight": 54.485281374238568, "nodes": "33-37" }, "geometry": { "type": "LineString", "coordinates": [ [ -87.609850069104425, 41.834553888544285 ], [ -87.609850069104425, 41.834205845740051 ] ] } },
{ "type": "Feature", "properties": { "weight": 90.627416997969519, "nodes": "35-42" }, "geometry": { "type": "LineString", "coordinates": [ [ -87.61176348065959, 41.834252697766246 ], [ -87.61176348065959, 41.834145607370267 ], [ -87.611736531201075, 41.834125527901065 ], [ -87.611682632284015, 41.833991664612142 ], [ -87.611619750214132, 41.833690471188405 ] ] } },
{ "type": "Feature", "properties": { "weight": 136.31370849898474, "nodes": "36-38" }, "geometry": { "type": "LineString", "coordinates": [ [ -87.615671152145509, 41.834205845740051 ], [ -87.615626236381303, 41.83416568683316 ], [ -87.615150129280721, 41.834152300525268 ], [ -87.614485375970474, 41.834158993679566 ] ] } },
{ "type": "Feature", "properties": { "weight": 76.064495102245985, "nodes": "38-43" }, "geometry": { "type": "LineString", "coordinates": [ [ -87.614485375970474, 41.834158993679566 ], [ -87.614458426511959, 41.833657005164945 ] ] } },
{ "type": "Feature", "properties": { "weight": 27.727922061357855, "nodes": "40-41" }, "geometry": { "type": "LineString", "coordinates": [ [ -87.608610394012345, 41.833911346504394 ], [ -87.60852954563677, 41.833750709986539 ] ] } },
{ "type": "Feature", "properties": { "weight": 200.54320376686505, "nodes": "42-44" }, "geometry": { "type": "LineString", "coordinates": [ [ -87.611619750214132, 41.833690471188405 ], [ -87.611664665978338, 41.833677084781115 ], [ -87.613245700878394, 41.833670391576426 ], [ -87.613398414476691, 41.833657005164945 ] ] } },
{ "type": "Feature", "properties": { "weight": 129.56196978530431, "nodes": "42-51" }, "geometry": { "type": "LineString", "coordinates": [ [ -87.611619750214132, 41.833690471188405 ], [ -87.61152093553288, 41.833576686637244 ], [ -87.611359238781745, 41.833094773354524 ], [ -87.611314323017538, 41.83298768102118 ], [ -87.611269407253332, 41.832934134787315 ] ] } },
{ "type": "Feature", "properties": { "weight": 131.31370849898477, "nodes": "43-45" }, "geometry": { "type": "LineString", "coordinates": [ [ -87.614458426511959, 41.833657005164945 ], [ -87.614494359123313, 41.833643618750664 ], [ -87.614853685236966, 41.833623539123984 ], [ -87.615608270075626, 41.833603459491009 ] ] } },
{ "type": "Feature", "properties": { "weight": 120.48528137423857, "nodes": "43-44" }, "geometry": { "type": "LineString", "coordinates": [ [ -87.614458426511959, 41.833657005164945 ], [ -87.613398414476691, 41.833657005164945 ] ] } },
{ "type": "Feature", "properties": { "weight": 362.55634918610406, "nodes": "44-69" }, "geometry": { "type": "LineString", "coordinates": [ [ -87.613398414476691, 41.833657005164945 ], [ -87.613371465018162, 41.833027840667185 ], [ -87.613380448171014, 41.832432136666341 ], [ -87.613344515559646, 41.831381274519615 ], [ -87.613317566101117, 41.831260792406795 ] ] } },
{ "type": "Feature", "properties": { "weight": 131.87005768508882, "nodes": "46-48" }, "geometry": { "type": "LineString", "coordinates": [ [ -87.609930917479986, 41.833469595110202 ], [ -87.610047698466929, 41.833476288335895 ], [ -87.610272277287962, 41.833422742510784 ], [ -87.611044828432298, 41.833355810166402 ] ] } },
{ "type": "Feature", "properties": { "weight": 42.213203435596419, "nodes": "47-49" }, "geometry": { "type": "LineString", "coordinates": [ [ -87.608358865732782, 41.833442822200446 ], [ -87.608224118440162, 41.833201865508691 ] ] } },
{ "type": "Feature", "properties": { "weight": 227.37820360123072, "nodes": "50-51" }, "geometry": { "type": "LineString", "coordinates": [ [ -87.609266164169739, 41.832967601188727 ], [ -87.610721434930028, 41.832940828068992 ], [ -87.611098727349344, 41.832940828068992 ], [ -87.611215508336272, 41.832954214630263 ], [ -87.611269407253332, 41.832934134787315 ] ] } },
{ "type": "Feature", "properties": { "weight": 287.33809511662429, "nodes": "51-74" }, "geometry": { "type": "LineString", "coordinates": [ [ -87.611269407253332, 41.832934134787315 ], [ -87.611152626266389, 41.832532536605491 ], [ -87.610990929515253, 41.832177789448998 ], [ -87.610721434930028, 41.831461595802168 ], [ -87.610685502318645, 41.831280872774677 ], [ -87.610694485471484, 41.831193857801694 ] ] } },
{ "type": "Feature", "properties": { "weight": 100.29646455628168, "nodes": "52-61" }, "geometry": { "type": "LineString", "coordinates": [ [ -87.608026489077659, 41.832907361653582 ], [ -87.608008522771982, 41.832860508642611 ], [ -87.607703095575374, 41.832485683320158 ], [ -87.607568348282754, 41.832385283307502 ] ] } },
{ "type": "Feature", "properties": { "weight": 72.899494936611674, "nodes": "53-54" }, "geometry": { "type": "LineString", "coordinates": [ [ -87.608790057069157, 41.832887281795941 ], [ -87.608825989680525, 41.832873895220672 ], [ -87.609418877768036, 41.83286720193199 ] ] } },
{ "type": "Feature", "properties": { "weight": 130.31370849898477, "nodes": "55-56" }, "geometry": { "type": "LineString", "coordinates": [ [ -87.609841085951587, 41.832853815352522 ], [ -87.610532788720349, 41.832833735478083 ], [ -87.610981946362415, 41.832840428770261 ] ] } },
{ "type": "Feature", "properties": { "weight": 225.97056274847716, "nodes": "58-60" }, "geometry": { "type": "LineString", "coordinates": [ [ -87.608655309776537, 41.832519149956042 ], [ -87.609050568501559, 41.832492376648737 ], [ -87.609724304964644, 41.832499069976606 ], [ -87.610640586554439, 41.832465603330228 ] ] } },
{ "type": "Feature", "properties": { "weight": 31.071067811865476, "nodes": "62-63" }, "geometry": { "type": "LineString", "coordinates": [ [ -87.615419623865961, 41.832311656531481 ], [ -87.615599286922787, 41.832311656531481 ], [ -87.615653185839832, 41.832304963184001 ], [ -87.615671152145509, 41.832284883137376 ] ] } },
{ "type": "Feature", "properties": { "weight": 55.828427124746192, "nodes": "65-68" }, "geometry": { "type": "LineString", "coordinates": [ [ -87.615239960809149, 41.831628931483792 ], [ -87.615221994503443, 41.831260792406795 ] ] } },
{ "type": "Feature", "properties": { "weight": 211.24826128631952, "nodes": "67-72" }, "geometry": { "type": "LineString", "coordinates": [ [ -87.606481386788971, 41.831428128613354 ], [ -87.606535285706016, 41.831367887629384 ], [ -87.607020375959451, 41.831267485863457 ], [ -87.607352752614574, 41.83124071203261 ], [ -87.608071404841866, 41.83124071203261 ], [ -87.608179202675956, 41.831234018573156 ], [ -87.608242084745839, 41.831207244728311 ] ] } },
{ "type": "Feature", "properties": { "weight": 84.727922061357873, "nodes": "68-70" }, "geometry": { "type": "LineString", "coordinates": [ [ -87.615221994503443, 41.831260792406795 ], [ -87.61464707272161, 41.831267485863457 ], [ -87.614557241193197, 41.831254098949437 ], [ -87.614494359123313, 41.831213938190572 ] ] } },
{ "type": "Feature", "properties": { "weight": 15.785844453984343, "nodes": "68-76" }, "geometry": { "type": "LineString", "coordinates": [ [ -87.615221994503443, 41.831260792406795 ], [ -87.615311826031871, 41.831180470872269 ] ] } },
{ "type": "Feature", "properties": { "weight": 256.58483432720772, "nodes": "69-71" }, "geometry": { "type": "LineString", "coordinates": [ [ -87.613317566101117, 41.831260792406795 ], [ -87.613263667184071, 41.831280872774677 ], [ -87.613048071515891, 41.831287566229243 ], [ -87.612347385594262, 41.831287566229243 ], [ -87.612203655148818, 41.831274179319415 ], [ -87.611359238781745, 41.831287566229243 ], [ -87.611224491489125, 41.831280872774677 ], [ -87.611107710502182, 41.831200551265354 ] ] } },
{ "type": "Feature", "properties": { "weight": 11.892922226992169, "nodes": "69-73" }, "geometry": { "type": "LineString", "coordinates": [ [ -87.613317566101117, 41.831260792406795 ], [ -87.613362481865323, 41.831193857801694 ] ] } },
{ "type": "Feature", "properties": { "weight": 101.34219364008838, "nodes": "70-75" }, "geometry": { "type": "LineString", "coordinates": [ [ -87.614494359123313, 41.831213938190572 ], [ -87.6144045275949, 41.831260792406795 ], [ -87.61378469004886, 41.831260792406795 ], [ -87.613739774284667, 41.831247405491382 ], [ -87.613667909061931, 41.831187164337329 ] ] } },
{ "type": "Feature", "properties": { "weight": 11.23606797749979, "nodes": "70-78" }, "geometry": { "type": "LineString", "coordinates": [ [ -87.614494359123313, 41.831213938190572 ], [ -87.614503342276151, 41.831140310067212 ] ] } },
{ "type": "Feature", "properties": { "weight": 262.76955262170048, "nodes": "71-73" }, "geometry": { "type": "LineString", "coordinates": [ [ -87.611107710502182, 41.831200551265354 ], [ -87.611206525183434, 41.831133616597249 ], [ -87.612158739384611, 41.831140310067212 ], [ -87.612419250817013, 41.831120229655234 ], [ -87.613128919891466, 41.831120229655234 ], [ -87.613281633489763, 41.831133616597249 ], [ -87.613362481865323, 41.831193857801694 ] ] } },
{ "type": "Feature", "properties": { "weight": 46.414213562373092, "nodes": "71-74" }, "geometry": { "type": "LineString", "coordinates": [ [ -87.611107710502182, 41.831200551265354 ], [ -87.610694485471484, 41.831193857801694 ] ] } },
{ "type": "Feature", "properties": { "weight": 262.97056274847716, "nodes": "72-77" }, "geometry": { "type": "LineString", "coordinates": [ [ -87.608242084745839, 41.831207244728311 ], [ -87.608799040221996, 41.831213938190572 ], [ -87.609886001715779, 41.831180470872269 ], [ -87.61017346260671, 41.831187164337329 ], [ -87.610451940344774, 41.831180470872269 ], [ -87.61052380556751, 41.831173777406512 ], [ -87.610559738178878, 41.831153697005028 ] ] } },
{ "type": "Feature", "properties": { "weight": 103.8111831820431, "nodes": "72-86" }, "geometry": { "type": "LineString", "coordinates": [ [ -87.608242084745839, 41.831207244728311 ], [ -87.608215135287324, 41.831106842710412 ], [ -87.60790970809073, 41.83070523306403 ], [ -87.607810893409464, 41.830665071960809 ] ] } },
{ "type": "Feature", "properties": { "weight": 34.414213562373092, "nodes": "73-75" }, "geometry": { "type": "LineString", "coordinates": [ [ -87.613362481865323, 41.831193857801694 ], [ -87.613667909061931, 41.831187164337329 ] ] } },
{ "type": "Feature", "properties": { "weight": 17.485281374238571, "nodes": "74-77" }, "geometry": { "type": "LineString", "coordinates": [ [ -87.610694485471484, 41.831193857801694 ], [ -87.610559738178878, 41.831153697005028 ] ] } },
{ "type": "Feature", "properties": { "weight": 101.20390822051101, "nodes": "75-78" }, "geometry": { "type": "LineString", "coordinates": [ [ -87.613667909061931, 41.831187164337329 ], [ -87.613766723743183, 41.831120229655234 ], [ -87.614413510747752, 41.831100149236953 ], [ -87.614503342276151, 41.831140310067212 ] ] } },
{ "type": "Feature", "properties": { "weight": 41.556349186104036, "nodes": "76-79" }, "geometry": { "type": "LineString", "coordinates": [ [ -87.615311826031871, 41.831180470872269 ], [ -87.615536404852904, 41.831180470872269 ], [ -87.615635219534141, 41.831100149236953 ] ] } },
{ "type": "Feature", "properties": { "weight": 96.449271413096213, "nodes": "76-78" }, "geometry": { "type": "LineString", "coordinates": [ [ -87.615311826031871, 41.831180470872269 ], [ -87.615213011350605, 41.831113536183175 ], [ -87.614566224346049, 41.831106842710412 ], [ -87.614503342276151, 41.831140310067212 ] ] } },
{ "type": "Feature", "properties": { "weight": 89.012193308819747, "nodes": "77-83" }, "geometry": { "type": "LineString", "coordinates": [ [ -87.610559738178878, 41.831153697005028 ], [ -87.61052380556751, 41.831006440535035 ], [ -87.61038905827489, 41.830738700630803 ], [ -87.610254310982285, 41.830671765479764 ] ] } },
{ "type": "Feature", "properties": { "weight": 149.21320343559643, "nodes": "78-85" }, "geometry": { "type": "LineString", "coordinates": [ [ -87.614503342276151, 41.831140310067212 ], [ -87.614503342276151, 41.830725313606195 ], [ -87.614530291734681, 41.83070523306403 ], [ -87.614674022180154, 41.830678458998015 ], [ -87.614880634695496, 41.830691846032423 ], [ -87.615230977656296, 41.830665071960809 ] ] } },
{ "type": "Feature", "properties": { "weight": 77.384776310850228, "nodes": "80-82" }, "geometry": { "type": "LineString", "coordinates": [ [ -87.609499726143611, 41.830812329216101 ], [ -87.609760237576012, 41.830819022719659 ], [ -87.61014651314818, 41.830792248701236 ] ] } },
{ "type": "Feature", "properties": { "weight": 140.8700576850888, "nodes": "81-84" }, "geometry": { "type": "LineString", "coordinates": [ [ -87.609257181016901, 41.830812329216101 ], [ -87.608358865732782, 41.830812329216101 ], [ -87.608287000510046, 41.830792248701236 ], [ -87.608197168981633, 41.830698539548578 ], [ -87.608098354300395, 41.830671765479764 ] ] } }
]
}
