{
"type": "FeatureCollection",
"name": "gee_batch_6_29.71529_-95.39379",
"crs": { "type": "name", "properties": { "name": "urn:ogc:def:crs:OGC:1.3:CRS84" } },
"features": [
{ "type": "Feature", "properties": { "weight": 563.25749600230915, "nodes": "0-28" }, "geometry": { "type": "LineString", "coordinates": [ [ -95.394660700551682, 29.719283472776347 ], [ -95.394732565774405, 29.719267869672613 ], [ -95.394795447844302, 29.719228861902678 ], [ -95.395478167460226, 29.718472108166004 ], [ -95.395810544115349, 29.718035216813089 ], [ -95.396133937617634, 29.717559315139823 ], [ -95.397032252901752, 29.716482676798904 ], [ -95.397229882264256, 29.716194010932817 ], [ -95.397337680098346, 29.716076983993883 ], [ -95.397409545321096, 29.715913146050163 ] ] } },
{ "type": "Feature", "properties": { "weight": 29.21320343559643, "nodes": "1-5" }, "geometry": { "type": "LineString", "coordinates": [ [ -95.393762385267564, 29.719283472776347 ], [ -95.393825267337448, 29.719244465012473 ], [ -95.393915098865861, 29.719119640066182 ] ] } },
{ "type": "Feature", "properties": { "weight": 122.3903969100505, "nodes": "2-9" }, "geometry": { "type": "LineString", "coordinates": [ [ -95.393618654822106, 29.719283472776347 ], [ -95.39341204230675, 29.718830981783341 ], [ -95.39330424447266, 29.71865154513506 ], [ -95.393259328708453, 29.71845650493615 ] ] } },
{ "type": "Feature", "properties": { "weight": 83.242640687119277, "nodes": "3-6" }, "geometry": { "type": "LineString", "coordinates": [ [ -95.391085405720872, 29.719267869672613 ], [ -95.391076422568034, 29.7186671483346 ], [ -95.391094388873725, 29.718628140331202 ] ] } },
{ "type": "Feature", "properties": { "weight": 242.52033922496167, "nodes": "4-6" }, "geometry": { "type": "LineString", "coordinates": [ [ -95.390779978524279, 29.719267869672613 ], [ -95.390788961677131, 29.718713957918673 ], [ -95.390762012218602, 29.718518917841035 ], [ -95.390762012218602, 29.718183448020966 ], [ -95.390815911135647, 29.718128836548797 ], [ -95.390986591039621, 29.718113233265573 ], [ -95.391031506803827, 29.718128836548797 ], [ -95.391076422568034, 29.718183448020966 ], [ -95.391076422568034, 29.718526719451418 ], [ -95.391094388873725, 29.718628140331202 ] ] } },
{ "type": "Feature", "properties": { "weight": 250.11269837220811, "nodes": "6-9" }, "geometry": { "type": "LineString", "coordinates": [ [ -95.391094388873725, 29.718628140331202 ], [ -95.391696260114074, 29.718589132312641 ], [ -95.392495760716955, 29.718573529100972 ], [ -95.393259328708453, 29.71845650493615 ] ] } },
{ "type": "Feature", "properties": { "weight": 49.526911934581186, "nodes": "7-10" }, "geometry": { "type": "LineString", "coordinates": [ [ -95.39378933472608, 29.718596933917567 ], [ -95.393636621127783, 29.718487711393443 ], [ -95.393438991765279, 29.718409695232012 ] ] } },
{ "type": "Feature", "properties": { "weight": 188.84062043356596, "nodes": "8-17" }, "geometry": { "type": "LineString", "coordinates": [ [ -95.389468438209477, 29.71856572749423 ], [ -95.38953132027936, 29.718167844746233 ], [ -95.38953132027936, 29.717730952069005 ], [ -95.389495387667992, 29.71762172860257 ], [ -95.389477421362315, 29.717450091486629 ], [ -95.389432505598094, 29.717387677917159 ], [ -95.389207926777075, 29.717301859195771 ] ] } },
{ "type": "Feature", "properties": { "weight": 22.485281374238568, "nodes": "9-10" }, "geometry": { "type": "LineString", "coordinates": [ [ -95.393259328708453, 29.71845650493615 ], [ -95.393349160236866, 29.718417496850886 ], [ -95.393438991765279, 29.718409695232012 ] ] } },
{ "type": "Feature", "properties": { "weight": 50.934552787334781, "nodes": "10-11" }, "geometry": { "type": "LineString", "coordinates": [ [ -95.393438991765279, 29.718409695232012 ], [ -95.393492890682325, 29.718347282259217 ], [ -95.39378933472608, 29.718214654563162 ] ] } },
{ "type": "Feature", "properties": { "weight": 25.727922061357855, "nodes": "12-14" }, "geometry": { "type": "LineString", "coordinates": [ [ -95.394570869023269, 29.717894787045807 ], [ -95.394651717398844, 29.717723150396772 ] ] } },
{ "type": "Feature", "properties": { "weight": 60.284271247461895, "nodes": "13-16" }, "geometry": { "type": "LineString", "coordinates": [ [ -95.394786464691464, 29.717793365425031 ], [ -95.394966127748276, 29.717387677917159 ] ] } },
{ "type": "Feature", "properties": { "weight": 341.445742854949, "nodes": "15-32" }, "geometry": { "type": "LineString", "coordinates": [ [ -95.395082908735205, 29.717489099947848 ], [ -95.395388335931813, 29.716857161009827 ], [ -95.395747662045466, 29.716334443079464 ], [ -95.395900375643762, 29.716147200173619 ], [ -95.396268684910254, 29.715593271198909 ], [ -95.396403432202874, 29.715421630614621 ], [ -95.396502246884125, 29.71533581021243 ] ] } },
{ "type": "Feature", "properties": { "weight": 33.384776310850235, "nodes": "18-19" }, "geometry": { "type": "LineString", "coordinates": [ [ -95.395002060359644, 29.717294057490189 ], [ -95.395118841346573, 29.717075609487697 ] ] } },
{ "type": "Feature", "properties": { "weight": 56.627416997969512, "nodes": "20-23" }, "geometry": { "type": "LineString", "coordinates": [ [ -95.389198943624237, 29.716935178377923 ], [ -95.389270808846959, 29.716677720833083 ], [ -95.389270808846959, 29.716646513813085 ], [ -95.389198943624237, 29.716545090931071 ] ] } },
{ "type": "Feature", "properties": { "weight": 122.43860018001261, "nodes": "21-30" }, "geometry": { "type": "LineString", "coordinates": [ [ -95.395343420167606, 29.716669919078996 ], [ -95.395585965294316, 29.716279830601337 ], [ -95.395873426185247, 29.715905344236649 ] ] } },
{ "type": "Feature", "properties": { "weight": 839.83766184073579, "nodes": "22-53" }, "geometry": { "type": "LineString", "coordinates": [ [ -95.389630134960612, 29.716552892694864 ], [ -95.389845730628792, 29.71651388386984 ], [ -95.390025393685633, 29.716435866174301 ], [ -95.390088275755517, 29.716381253751358 ], [ -95.390160140978239, 29.716264227030699 ], [ -95.390196073589607, 29.716061380391718 ], [ -95.390097258908355, 29.715913146050163 ], [ -95.389935562157206, 29.715772713314152 ], [ -95.389297758305489, 29.715382621349995 ], [ -95.389207926777075, 29.715296800914452 ], [ -95.389279791999797, 29.71481308436017 ], [ -95.389270808846959, 29.713923663967979 ], [ -95.389342674069681, 29.71357257480194 ], [ -95.389549286585037, 29.713049839768715 ], [ -95.389935562157206, 29.712324247823592 ], [ -95.39028590511802, 29.711723484933042 ], [ -95.390474551327685, 29.711348981572002 ], [ -95.390564382856084, 29.711309970724894 ] ] } },
{ "type": "Feature", "properties": { "weight": 69.071067811865476, "nodes": "24-25" }, "geometry": { "type": "LineString", "coordinates": [ [ -95.392046603074888, 29.716373451974224 ], [ -95.392585592245368, 29.716389055527877 ], [ -95.392648474315251, 29.716365650196487 ] ] } },
{ "type": "Feature", "properties": { "weight": 119.41983416157336, "nodes": "24-27" }, "geometry": { "type": "LineString", "coordinates": [ [ -95.392046603074888, 29.716373451974224 ], [ -95.391732192725456, 29.716381253751358 ], [ -95.391471681293055, 29.716357848418138 ], [ -95.391265068777713, 29.716303235952747 ], [ -95.391076422568034, 29.716186209141135 ] ] } },
{ "type": "Feature", "properties": { "weight": 159.71067811865476, "nodes": "24-33" }, "geometry": { "type": "LineString", "coordinates": [ [ -95.392046603074888, 29.716373451974224 ], [ -95.39203761992205, 29.716272028816324 ], [ -95.391759142183972, 29.715897542422528 ], [ -95.391669310655558, 29.715718100530424 ], [ -95.391642361197029, 29.715569865681967 ], [ -95.391642361197029, 29.715398225057665 ], [ -95.391615411738513, 29.715320206495061 ], [ -95.391579479127145, 29.715304602775266 ] ] } },
{ "type": "Feature", "properties": { "weight": 186.62236636408619, "nodes": "25-31" }, "geometry": { "type": "LineString", "coordinates": [ [ -95.392648474315251, 29.716365650196487 ], [ -95.392891019441976, 29.716350046639185 ], [ -95.393025766734581, 29.716311037735338 ], [ -95.393160514027201, 29.716240821670205 ], [ -95.393492890682325, 29.715905344236649 ], [ -95.393663570586313, 29.715671289549292 ], [ -95.393771368420403, 29.715562063841773 ], [ -95.39378933472608, 29.715507450943456 ] ] } },
{ "type": "Feature", "properties": { "weight": 133.1862870792076, "nodes": "28-32" }, "geometry": { "type": "LineString", "coordinates": [ [ -95.397409545321096, 29.715913146050163 ], [ -95.397373612709714, 29.715858533342836 ], [ -95.397023269748914, 29.715655685884069 ], [ -95.396843606692102, 29.715523054631717 ], [ -95.396502246884125, 29.71533581021243 ] ] } },
{ "type": "Feature", "properties": { "weight": 134.32879990153887, "nodes": "32-34" }, "geometry": { "type": "LineString", "coordinates": [ [ -95.396502246884125, 29.71533581021243 ], [ -95.3965830952597, 29.715281197191018 ], [ -95.396645977329584, 29.715164169187943 ], [ -95.396861572997778, 29.714906707100962 ], [ -95.397014286596075, 29.714664848175346 ], [ -95.397158017041534, 29.714540017534151 ] ] } },
{ "type": "Feature", "properties": { "weight": 741.92654356062121, "nodes": "32-52" }, "geometry": { "type": "LineString", "coordinates": [ [ -95.396502246884125, 29.71533581021243 ], [ -95.395397319084651, 29.714633640529602 ], [ -95.394427138577811, 29.714103109067594 ], [ -95.394103745075526, 29.713853446232996 ], [ -95.39389713256017, 29.713611584769907 ], [ -95.393816284184609, 29.713463346810979 ], [ -95.393717469503358, 29.71313566212509 ], [ -95.393600688516415, 29.712589518605203 ], [ -95.393555772752222, 29.712534904089807 ], [ -95.393483907529486, 29.712371060365395 ], [ -95.393438991765279, 29.71221501847451 ], [ -95.393331193931175, 29.711973153064346 ], [ -95.392908985747653, 29.711380190238781 ], [ -95.392729322690812, 29.711309970724894 ] ] } },
{ "type": "Feature", "properties": { "weight": 29.556349186104047, "nodes": "35-36" }, "geometry": { "type": "LineString", "coordinates": [ [ -95.39378933472608, 29.714415186737725 ], [ -95.393771368420403, 29.714391780946119 ], [ -95.393573739057899, 29.714321563538551 ] ] } },
{ "type": "Feature", "properties": { "weight": 42.112698372208087, "nodes": "37-39" }, "geometry": { "type": "LineString", "coordinates": [ [ -95.397409545321096, 29.714212336362483 ], [ -95.397607174683586, 29.713954871834428 ] ] } },
{ "type": "Feature", "properties": { "weight": 42.526911934581186, "nodes": "38-40" }, "geometry": { "type": "LineString", "coordinates": [ [ -95.39731073063983, 29.714110911021169 ], [ -95.397517343155187, 29.713853446232996 ] ] } },
{ "type": "Feature", "properties": { "weight": 57.254833995939038, "nodes": "41-43" }, "geometry": { "type": "LineString", "coordinates": [ [ -95.397705989364837, 29.713658396711459 ], [ -95.397697006211999, 29.713642792733364 ], [ -95.397858702963134, 29.713447742802575 ], [ -95.397993450255768, 29.713330712662202 ] ] } },
{ "type": "Feature", "properties": { "weight": 70.254833995939038, "nodes": "43-44" }, "geometry": { "type": "LineString", "coordinates": [ [ -95.397993450255768, 29.713330712662202 ], [ -95.398110231242697, 29.713244890472552 ], [ -95.398164130159742, 29.713174672262827 ], [ -95.3983078606052, 29.7129094030273 ] ] } },
{ "type": "Feature", "properties": { "weight": 177.50966799187808, "nodes": "45-49" }, "geometry": { "type": "LineString", "coordinates": [ [ -95.39203761992205, 29.712519299937096 ], [ -95.392109485144772, 29.712043372114419 ], [ -95.392199316673185, 29.711793704157721 ], [ -95.39230711450729, 29.71166106780321 ], [ -95.392612541703883, 29.711442607543219 ], [ -95.392639491162413, 29.711403596732485 ], [ -95.392630508009574, 29.711387992403953 ] ] } },
{ "type": "Feature", "properties": { "weight": 140.09545442950503, "nodes": "46-51" }, "geometry": { "type": "LineString", "coordinates": [ [ -95.398388708980775, 29.711910736089731 ], [ -95.398325826910892, 29.711762495619485 ], [ -95.398164130159742, 29.71162205707736 ], [ -95.39793056818587, 29.711497222652778 ], [ -95.397705989364837, 29.711348981572002 ], [ -95.397490393696657, 29.711309970724894 ] ] } },
{ "type": "Feature", "properties": { "weight": 84.396969619669989, "nodes": "47-50" }, "geometry": { "type": "LineString", "coordinates": [ [ -95.394364256507913, 29.711731287071544 ], [ -95.394310357590868, 29.711668869946564 ], [ -95.393852216795963, 29.711427003220749 ], [ -95.393807301031757, 29.711364585906601 ] ] } }
]
}
