{
"type": "FeatureCollection",
"name": "gee_batch_8_29.46958_-98.53074",
"crs": { "type": "name", "properties": { "name": "urn:ogc:def:crs:OGC:1.3:CRS84" } },
"features": [
{ "type": "Feature", "properties": { "name": "road_network" }, "geometry": { "type": "MultiLineString", "coordinates": [ [ [ -98.535304094954427, 29.473583044592676 ], [ -98.53504358352204, 29.473504838793207 ], [ -98.534926802535111, 29.473379709388563 ], [ -98.53490883622942, 29.473309324030584 ] ], [ [ -98.534109335626553, 29.473583044592676 ], [ -98.534244082919173, 29.473551762280124 ], [ -98.534702223714064, 29.473215476810598 ] ], [ [ -98.530453192420183, 29.473583044592676 ], [ -98.530525057642919, 29.473575224015441 ], [ -98.530587939712802, 29.473543941700481 ] ], [ [ -98.530587939712802, 29.473543941700481 ], [ -98.530704720699731, 29.473543941700481 ], [ -98.531126928883282, 29.473364068202127 ], [ -98.531504221302612, 29.473192014992023 ], [ -98.532007277861723, 29.472926114002089 ], [ -98.532097109390122, 29.472902652116549 ], [ -98.53213304200149, 29.472863548961922 ] ], [ [ -98.530587939712802, 29.473543941700481 ], [ -98.530552007101434, 29.473426632933407 ], [ -98.530255563057679, 29.472847907695851 ] ], [ [ -98.532591182796395, 29.473536121120233 ], [ -98.532716946936162, 29.473504838793207 ], [ -98.532986441521402, 29.473348427013274 ], [ -98.533516447539029, 29.473004320247984 ], [ -98.534091369320862, 29.47259764711049 ] ], [ [ -98.532591182796395, 29.473536121120233 ], [ -98.532546267032188, 29.473442274110191 ], [ -98.53213304200149, 29.472863548961922 ] ], [ [ -98.527506718288279, 29.473520479957926 ], [ -98.527731297109298, 29.473497018209937 ], [ -98.528692494463314, 29.473317144628329 ], [ -98.528899106978656, 29.473270221032816 ], [ -98.528944022742863, 29.47323111801996 ] ], [ [ -98.527506718288279, 29.473520479957926 ], [ -98.527416886759852, 29.473543941700481 ], [ -98.527129425868949, 29.473559582859171 ], [ -98.526222127431978, 29.473567403437606 ], [ -98.52618619482061, 29.473559582859171 ], [ -98.526150262209256, 29.473504838793207 ] ], [ [ -98.527506718288279, 29.473520479957926 ], [ -98.527488751982602, 29.47329368283329 ], [ -98.527380954148498, 29.472738418765765 ] ], [ [ -98.53490883622942, 29.473309324030584 ], [ -98.53504358352204, 29.473207656205009 ] ], [ [ -98.53490883622942, 29.473309324030584 ], [ -98.534863920465213, 29.473301503432239 ], [ -98.534783072089638, 29.473238938623737 ], [ -98.534702223714064, 29.473215476810598 ] ], [ [ -98.528944022742863, 29.47323111801996 ], [ -98.529060803729791, 29.473223297415579 ], [ -98.529384197232091, 29.47313727072758 ], [ -98.530255563057679, 29.472847907695851 ] ], [ [ -98.528944022742863, 29.47323111801996 ], [ -98.528665545004785, 29.472488157910135 ] ], [ [ -98.534702223714064, 29.473215476810598 ], [ -98.534675274255548, 29.473121629503733 ], [ -98.53450459435156, 29.472941755256091 ], [ -98.534163234543598, 29.472613288415172 ], [ -98.534091369320862, 29.47259764711049 ] ], [ [ -98.526150262209256, 29.47313727072758 ], [ -98.526159245362095, 29.472847907695851 ], [ -98.526195177973449, 29.472800983883154 ], [ -98.526599419851308, 29.472793163245587 ], [ -98.527380954148498, 29.472738418765765 ] ], [ [ -98.53213304200149, 29.472863548961922 ], [ -98.532851694228782, 29.472425592599702 ], [ -98.533471531774822, 29.471995455045299 ] ], [ [ -98.53213304200149, 29.472863548961922 ], [ -98.53162100228954, 29.472183151657095 ] ], [ [ -98.530255563057679, 29.472847907695851 ], [ -98.530255563057679, 29.472816625156465 ] ], [ [ -98.530255563057679, 29.472816625156465 ], [ -98.530417259808829, 29.472769701329291 ], [ -98.531189810953165, 29.472417771933184 ], [ -98.531576086525334, 29.472222255074144 ], [ -98.53162100228954, 29.472183151657095 ] ], [ [ -98.530255563057679, 29.472816625156465 ], [ -98.530210647293472, 29.472769701329291 ], [ -98.530183697834943, 29.47268367425638 ], [ -98.529869287485511, 29.472089303394633 ] ], [ [ -98.527380954148498, 29.472738418765765 ], [ -98.527389937301336, 29.472714956836789 ] ], [ [ -98.527389937301336, 29.472714956836789 ], [ -98.527946892777493, 29.472636750367677 ], [ -98.528665545004785, 29.472488157910135 ] ], [ [ -98.527389937301336, 29.472714956836789 ], [ -98.527371970995645, 29.472691494902392 ], [ -98.527371970995645, 29.472589826457245 ], [ -98.527264173161555, 29.471917248021157 ] ], [ [ -98.534091369320862, 29.47259764711049 ], [ -98.534064419862347, 29.472511619891595 ], [ -98.533830857888475, 29.472276999832683 ], [ -98.53377695897143, 29.472112765468392 ] ], [ [ -98.528665545004785, 29.472488157910135 ], [ -98.528674528157637, 29.472464695923247 ] ], [ [ -98.528674528157637, 29.472464695923247 ], [ -98.528800292297404, 29.472449054595639 ], [ -98.529357247773561, 29.472284820510065 ], [ -98.529815388568466, 29.472128406847883 ], [ -98.529869287485511, 29.472089303394633 ] ], [ [ -98.528674528157637, 29.472464695923247 ], [ -98.528647578699108, 29.47244123393093 ], [ -98.528629612393431, 29.472339565234819 ], [ -98.528440966183751, 29.471807758086015 ], [ -98.528431983030913, 29.471729550917086 ], [ -98.528405033572383, 29.471706088754647 ] ], [ [ -98.535331044412942, 29.47224571711714 ], [ -98.535241212884543, 29.472167510286049 ], [ -98.534369847058954, 29.472081482702169 ], [ -98.533848824194166, 29.472065841315448 ], [ -98.53377695897143, 29.472112765468392 ] ], [ [ -98.53162100228954, 29.472183151657095 ], [ -98.532303721905464, 29.471760833791894 ], [ -98.53251033442082, 29.471604419321331 ], [ -98.532788812158898, 29.471440183867529 ], [ -98.532905593145827, 29.471338514167563 ] ], [ [ -98.53162100228954, 29.472183151657095 ], [ -98.531117945730429, 29.471502749786055 ] ], [ [ -98.53377695897143, 29.472112765468392 ], [ -98.533660177984487, 29.472073662009109 ], [ -98.533552380150397, 29.472011096442884 ], [ -98.533471531774822, 29.471995455045299 ] ], [ [ -98.529869287485511, 29.472089303394633 ], [ -98.530327428280415, 29.471909427315431 ], [ -98.530704720699731, 29.471737371636699 ], [ -98.531073029966223, 29.471549674199629 ], [ -98.531117945730429, 29.471502749786055 ] ], [ [ -98.529869287485511, 29.472089303394633 ], [ -98.529833354874143, 29.472058020621173 ], [ -98.529806405415627, 29.471964172242878 ], [ -98.529536910830387, 29.471448004609456 ], [ -98.529527927677535, 29.471385438657137 ], [ -98.529491995066181, 29.4713541556665 ] ], [ [ -98.533471531774822, 29.471995455045299 ], [ -98.533426616010615, 29.471870323777718 ], [ -98.533022374132756, 29.47147146683162 ], [ -98.532959492062872, 29.471338514167563 ] ], [ [ -98.526177211667772, 29.471987634345595 ], [ -98.526617386157, 29.471979813645294 ], [ -98.527264173161555, 29.471917248021157 ] ], [ [ -98.527264173161555, 29.471917248021157 ], [ -98.527812145484873, 29.471831220224928 ], [ -98.528405033572383, 29.471706088754647 ] ], [ [ -98.527264173161555, 29.471917248021157 ], [ -98.527138409021788, 29.471119532929063 ] ], [ [ -98.528405033572383, 29.471706088754647 ], [ -98.528970972201392, 29.471541853465538 ], [ -98.529491995066181, 29.4713541556665 ] ], [ [ -98.528405033572383, 29.471706088754647 ], [ -98.528180454751364, 29.470963117469132 ], [ -98.528153505292849, 29.470931834348196 ] ], [ [ -98.531117945730429, 29.471502749786055 ], [ -98.531288625634417, 29.471416721638125 ], [ -98.531944395791811, 29.471002221356738 ], [ -98.53226778929411, 29.470744135419846 ] ], [ [ -98.531117945730429, 29.471502749786055 ], [ -98.530614889171332, 29.470822343348893 ] ], [ [ -98.535277145495897, 29.471448004609456 ], [ -98.533767975818591, 29.471322872666214 ], [ -98.5333996665521, 29.471307231162456 ], [ -98.533130171966874, 29.471268127392481 ], [ -98.533049323591285, 29.471268127392481 ], [ -98.532959492062872, 29.471338514167563 ] ], [ [ -98.529491995066181, 29.4713541556665 ], [ -98.529527927677535, 29.471322872666214 ], [ -98.529599792900271, 29.471307231162456 ], [ -98.530237596751988, 29.471025683682061 ], [ -98.530614889171332, 29.470822343348893 ] ], [ [ -98.529491995066181, 29.4713541556665 ], [ -98.529177584716734, 29.470728493826801 ], [ -98.529168601563896, 29.470665927430485 ], [ -98.529123685799689, 29.470619002607911 ] ], [ [ -98.532959492062872, 29.471338514167563 ], [ -98.532905593145827, 29.471338514167563 ] ], [ [ -98.532905593145827, 29.471338514167563 ], [ -98.532438469198084, 29.470869268077351 ], [ -98.532402536586716, 29.470751956215462 ] ], [ [ -98.52618619482061, 29.471189919807305 ], [ -98.527138409021788, 29.471119532929063 ] ], [ [ -98.527138409021788, 29.471119532929063 ], [ -98.528153505292849, 29.470931834348196 ] ], [ [ -98.527138409021788, 29.471119532929063 ], [ -98.527048577493375, 29.470400019815404 ], [ -98.527012644882006, 29.470313990731814 ] ], [ [ -98.528153505292849, 29.470931834348196 ], [ -98.529078770035483, 29.470650285825368 ], [ -98.529123685799689, 29.470619002607911 ] ], [ [ -98.528153505292849, 29.470931834348196 ], [ -98.528126555834319, 29.470916192784102 ], [ -98.52809960637579, 29.47084580571584 ], [ -98.527901977013286, 29.47016539487004 ] ], [ [ -98.530614889171332, 29.470822343348893 ], [ -98.531055063660546, 29.47056425695412 ], [ -98.531656934900909, 29.470149753187709 ] ], [ [ -98.530614889171332, 29.470822343348893 ], [ -98.530569973407125, 29.470791060184514 ], [ -98.530426242961667, 29.470556436144026 ], [ -98.530129798917898, 29.470157574029177 ] ], [ [ -98.532402536586716, 29.470751956215462 ], [ -98.53275287954753, 29.470446944739322 ], [ -98.532905593145827, 29.470345274043382 ], [ -98.533076273049815, 29.470274886578771 ], [ -98.53315712142539, 29.470267065746359 ], [ -98.533426616010615, 29.470274886578771 ], [ -98.533758992665753, 29.470313990731814 ], [ -98.534163234543598, 29.470400019815404 ], [ -98.534297981836218, 29.470462586375806 ], [ -98.53450459435156, 29.470611181802035 ], [ -98.53461239218565, 29.470650285825368 ], [ -98.534792055242477, 29.470665927430485 ], [ -98.53504358352204, 29.470658106628228 ], [ -98.535250196037381, 29.470634644217846 ], [ -98.535313078107265, 29.47057989857251 ] ], [ [ -98.532402536586716, 29.470751956215462 ], [ -98.53226778929411, 29.470744135419846 ] ], [ [ -98.53226778929411, 29.470744135419846 ], [ -98.532213890377065, 29.470642465021907 ], [ -98.531863547416251, 29.470290528241794 ], [ -98.531719816970792, 29.47016539487004 ], [ -98.531656934900909, 29.470149753187709 ] ], [ [ -98.529123685799689, 29.470619002607911 ], [ -98.529527927677535, 29.470446944739322 ], [ -98.529995051625278, 29.470204499065304 ], [ -98.530129798917898, 29.470157574029177 ] ], [ [ -98.529123685799689, 29.470619002607911 ], [ -98.529078770035483, 29.470572077763617 ], [ -98.529051820576953, 29.470478228009874 ], [ -98.528746393380359, 29.469876023356353 ] ], [ [ -98.526177211667772, 29.470384378169271 ], [ -98.526922813353607, 29.470337453216398 ], [ -98.527012644882006, 29.470313990731814 ] ], [ [ -98.527012644882006, 29.470313990731814 ], [ -98.527327055231439, 29.470274886578771 ], [ -98.527901977013286, 29.47016539487004 ] ], [ [ -98.527012644882006, 29.470313990731814 ], [ -98.526877897589401, 29.469516263025575 ] ], [ [ -98.527901977013286, 29.47016539487004 ], [ -98.527946892777493, 29.470134111502972 ], [ -98.528414016725236, 29.470001157085232 ], [ -98.528620629240592, 29.469922948522779 ], [ -98.528692494463314, 29.469915127663221 ], [ -98.528746393380359, 29.469876023356353 ] ], [ [ -98.530129798917898, 29.470157574029177 ], [ -98.530129798917898, 29.470118469815812 ] ], [ [ -98.531656934900909, 29.470149753187709 ], [ -98.531629985442379, 29.470063723891769 ], [ -98.531531170761127, 29.469954231955004 ], [ -98.531162861494636, 29.469586651016826 ], [ -98.531117945730429, 29.469547546583271 ], [ -98.531046080507707, 29.469531904805628 ] ], [ [ -98.535295111801588, 29.470126290659692 ], [ -98.53528612864875, 29.470110648971325 ], [ -98.5351244318976, 29.470087186434263 ], [ -98.534477644893045, 29.47003244049333 ], [ -98.53428899868338, 29.470001157085232 ], [ -98.533552380150397, 29.469954231955004 ], [ -98.533076273049815, 29.469891665080912 ], [ -98.532258806141272, 29.469829098168205 ] ], [ [ -98.530129798917898, 29.470118469815812 ], [ -98.530480141878712, 29.469930769381744 ], [ -98.531046080507707, 29.469531904805628 ] ], [ [ -98.530129798917898, 29.470118469815812 ], [ -98.530084883153691, 29.470087186434263 ], [ -98.529626742358786, 29.469484979458226 ] ], [ [ -98.528746393380359, 29.469876023356353 ], [ -98.529177584716734, 29.469696143350518 ], [ -98.529545893983226, 29.46950062124311 ], [ -98.529626742358786, 29.469484979458226 ] ], [ [ -98.528746393380359, 29.469876023356353 ], [ -98.528701477616153, 29.469829098168205 ], [ -98.528656561851946, 29.469688322473463 ], [ -98.528494865100797, 29.469391128698273 ], [ -98.528387067266706, 29.469133038660488 ] ], [ [ -98.532258806141272, 29.469829098168205 ], [ -98.532258806141272, 29.469688322473463 ], [ -98.532285755599787, 29.469602292786014 ] ], [ [ -98.526177211667772, 29.469563188358507 ], [ -98.526877897589401, 29.469516263025575 ] ], [ [ -98.531046080507707, 29.469531904805628 ], [ -98.531010147896339, 29.469438054089107 ], [ -98.530767602769629, 29.469187785087026 ], [ -98.530507091337228, 29.468937515467235 ], [ -98.530444209267344, 29.468921873595487 ] ], [ [ -98.526877897589401, 29.469516263025575 ], [ -98.527767229720666, 29.469344203285718 ], [ -98.528333168349661, 29.46915650141834 ], [ -98.528360117808191, 29.469133038660488 ] ], [ [ -98.529626742358786, 29.469484979458226 ], [ -98.529671658122993, 29.469422412294577 ], [ -98.530066916848014, 29.469179964170767 ], [ -98.530147765223575, 29.46915650141834 ] ], [ [ -98.530336411433254, 29.46935202418932 ], [ -98.530147765223575, 29.46915650141834 ] ], [ [ -98.534181200849275, 29.46933638238152 ], [ -98.534226116613482, 29.46936766599471 ], [ -98.534315948141909, 29.469383307797685 ], [ -98.534881886770904, 29.469422412294577 ], [ -98.534944768840788, 29.469391128698273 ], [ -98.534953751993626, 29.469305098758671 ], [ -98.534980701452156, 29.469258173306304 ], [ -98.535088499286246, 29.469234710571975 ], [ -98.535313078107265, 29.469250352395463 ] ], [ [ -98.534181200849275, 29.46933638238152 ], [ -98.534046453556655, 29.469320740571302 ], [ -98.533893739958359, 29.469265994216535 ], [ -98.533750009512914, 29.469242531484017 ], [ -98.533058306744124, 29.469195606002696 ] ], [ [ -98.534181200849275, 29.46933638238152 ], [ -98.534244082919173, 29.469023545718709 ], [ -98.534297981836218, 29.468546467949672 ] ], [ [ -98.530147765223575, 29.46915650141834 ], [ -98.530219630446311, 29.469078292204383 ], [ -98.530444209267344, 29.468921873595487 ] ], [ [ -98.528387067266706, 29.469133038660488 ], [ -98.528360117808191, 29.469133038660488 ] ], [ [ -98.528387067266706, 29.469133038660488 ], [ -98.528422999878075, 29.469101754974904 ], [ -98.528548764017842, 29.469062650354349 ], [ -98.528872157520141, 29.468914052658711 ], [ -98.529249449939471, 29.46870288713767 ], [ -98.529671658122993, 29.468421332425553 ], [ -98.529878270638349, 29.468257091815779 ] ], [ [ -98.528360117808191, 29.469133038660488 ], [ -98.528027741153068, 29.468491721176875 ], [ -98.528018758000229, 29.468436974374516 ], [ -98.527982825388847, 29.468397869497586 ] ], [ [ -98.526797049213812, 29.469062650354349 ], [ -98.526743150296767, 29.468726349995055 ] ], [ [ -98.530444209267344, 29.468921873595487 ], [ -98.530399293503137, 29.468812380425703 ], [ -98.529878270638349, 29.468257091815779 ] ], [ [ -98.526743150296767, 29.468726349995055 ], [ -98.52618619482061, 29.468749812847015 ], [ -98.526150262209256, 29.468718529043198 ] ], [ [ -98.526743150296767, 29.468726349995055 ], [ -98.526761116602444, 29.468710708090736 ], [ -98.527336038384291, 29.46861685661414 ], [ -98.527946892777493, 29.468429153400336 ], [ -98.527982825388847, 29.468397869497586 ] ], [ [ -98.535331044412942, 29.468679424274853 ], [ -98.53528612864875, 29.468632498532937 ], [ -98.534297981836218, 29.468546467949672 ] ], [ [ -98.534297981836218, 29.468546467949672 ], [ -98.531234726717372, 29.468272733790077 ] ], [ [ -98.534297981836218, 29.468546467949672 ], [ -98.534360863906116, 29.468061566933482 ] ], [ [ -98.527982825388847, 29.468397869497586 ], [ -98.528018758000229, 29.468366585585187 ], [ -98.528171471598526, 29.468319659698491 ], [ -98.52855774717068, 29.468124134936843 ], [ -98.529006904812746, 29.467850399637143 ], [ -98.529240466786632, 29.467670516037849 ] ], [ [ -98.527982825388847, 29.468397869497586 ], [ -98.527677398192253, 29.467803473511569 ], [ -98.527641465580899, 29.467686158102627 ], [ -98.52761451612237, 29.467662695004552 ] ], [ [ -98.531234726717372, 29.468272733790077 ], [ -98.530821501686674, 29.468257091815779 ], [ -98.530632855477009, 29.468217986869483 ], [ -98.530183697834943, 29.468178881908109 ], [ -98.529959119013924, 29.468178881908109 ], [ -98.529878270638349, 29.468257091815779 ] ], [ [ -98.531234726717372, 29.468272733790077 ], [ -98.531297608787256, 29.467756547364274 ] ], [ [ -98.529878270638349, 29.468257091815779 ], [ -98.529860304332672, 29.468217986869483 ], [ -98.529743523345729, 29.468147597928141 ], [ -98.529590809747432, 29.468014640905633 ], [ -98.529240466786632, 29.467670516037849 ] ], [ [ -98.534360863906116, 29.468061566933482 ], [ -98.531342524551462, 29.467780010440634 ], [ -98.531297608787256, 29.467756547364274 ] ], [ [ -98.534360863906116, 29.468061566933482 ], [ -98.534423745976, 29.467561021516826 ] ], [ [ -98.526177211667772, 29.467936430810958 ], [ -98.526644335615515, 29.467905146756198 ], [ -98.526886880742239, 29.467866041674174 ], [ -98.52761451612237, 29.467662695004552 ] ], [ [ -98.531297608787256, 29.467756547364274 ], [ -98.530767602769629, 29.467709621195272 ] ], [ [ -98.531297608787256, 29.467756547364274 ], [ -98.531369474009978, 29.467263821506641 ] ], [ [ -98.530767602769629, 29.467709621195272 ], [ -98.530605906018479, 29.467717442224952 ], [ -98.530246579904826, 29.467678337070538 ], [ -98.529779455957097, 29.467654873970655 ], [ -98.529518944524696, 29.467607947754598 ], [ -98.529339281467884, 29.467607947754598 ], [ -98.529240466786632, 29.467670516037849 ] ], [ [ -98.530767602769629, 29.467709621195272 ], [ -98.530740653311099, 29.467615768792115 ], [ -98.530776585922467, 29.467209074041342 ] ], [ [ -98.529240466786632, 29.467670516037849 ], [ -98.528908090131495, 29.467334211061459 ], [ -98.528836224908773, 29.467099579022069 ] ], [ [ -98.52761451612237, 29.467662695004552 ], [ -98.527650448733738, 29.467631410865341 ], [ -98.52783011179055, 29.467568842557956 ], [ -98.528162488445687, 29.46739677951361 ], [ -98.528638595546269, 29.467068294709122 ] ], [ [ -98.52761451612237, 29.467662695004552 ], [ -98.527291122620085, 29.467044831468087 ], [ -98.527246206855878, 29.466919694090869 ] ], [ [ -98.53528612864875, 29.467631410865341 ], [ -98.534423745976, 29.467561021516826 ] ], [ [ -98.534423745976, 29.467561021516826 ], [ -98.534414762823161, 29.467545379432735 ], [ -98.534172217696437, 29.467537558389793 ], [ -98.531369474009978, 29.467263821506641 ] ], [ [ -98.534423745976, 29.467561021516826 ], [ -98.53450459435156, 29.467044831468087 ], [ -98.534549510115767, 29.466536459912518 ] ], [ [ -98.531369474009978, 29.467263821506641 ], [ -98.530776585922467, 29.467209074041342 ] ], [ [ -98.531369474009978, 29.467263821506641 ], [ -98.531432356079875, 29.466716345523537 ] ], [ [ -98.530776585922467, 29.467209074041342 ], [ -98.52896198904854, 29.467037010386534 ] ], [ [ -98.526150262209256, 29.467162147618989 ], [ -98.52618619482061, 29.467130863325355 ], [ -98.526392807335966, 29.467115221174911 ], [ -98.526779082908135, 29.467044831468087 ], [ -98.527093493257581, 29.466958799537835 ], [ -98.527147392174626, 29.466958799537835 ], [ -98.52721027424451, 29.466919694090869 ] ], [ [ -98.528836224908773, 29.467099579022069 ], [ -98.52896198904854, 29.467037010386534 ] ], [ [ -98.528836224908773, 29.467099579022069 ], [ -98.528728427074682, 29.467068294709122 ], [ -98.528638595546269, 29.467068294709122 ] ], [ [ -98.528638595546269, 29.467068294709122 ], [ -98.528135538987158, 29.466567744389529 ], [ -98.528063673764436, 29.466505175425862 ], [ -98.527991808541685, 29.466489533178908 ] ], [ [ -98.52896198904854, 29.467037010386534 ], [ -98.529015887965585, 29.466544281032675 ] ], [ [ -98.527246206855878, 29.466919694090869 ], [ -98.527677398192253, 29.466700703309151 ], [ -98.527991808541685, 29.466489533178908 ] ], [ [ -98.527246206855878, 29.466919694090869 ], [ -98.52721027424451, 29.466919694090869 ] ], [ [ -98.52721027424451, 29.466919694090869 ], [ -98.527003661729168, 29.466481712054524 ] ], [ [ -98.531432356079875, 29.466716345523537 ], [ -98.531486254996921, 29.466270541468255 ], [ -98.531504221302612, 29.466247078042638 ] ], [ [ -98.531432356079875, 29.466716345523537 ], [ -98.531037097354869, 29.466692882201059 ], [ -98.530866417450881, 29.466700703309151 ], [ -98.529033854271276, 29.466520817670393 ] ], [ [ -98.535304094954427, 29.466622492201079 ], [ -98.535241212884543, 29.466599028856891 ], [ -98.534549510115767, 29.466536459912518 ] ], [ [ -98.534549510115767, 29.466536459912518 ], [ -98.531504221302612, 29.466247078042638 ] ], [ [ -98.534549510115767, 29.466536459912518 ], [ -98.534603409032812, 29.466028085808407 ] ], [ [ -98.529015887965585, 29.466544281032675 ], [ -98.529033854271276, 29.466520817670393 ] ], [ [ -98.529015887965585, 29.466544281032675 ], [ -98.528396050419545, 29.466481712054524 ] ], [ [ -98.529033854271276, 29.466520817670393 ], [ -98.529087753188321, 29.466028085808407 ] ], [ [ -98.527991808541685, 29.466489533178908 ], [ -98.52796485908317, 29.466403500777552 ], [ -98.527605532969531, 29.466043728126539 ], [ -98.527578583511001, 29.465965516511766 ], [ -98.527542650899647, 29.465926410681767 ] ], [ [ -98.527003661729168, 29.466481712054524 ], [ -98.526662301921192, 29.466512996548428 ], [ -98.52621314427914, 29.466512996548428 ], [ -98.526150262209256, 29.466458248677768 ] ], [ [ -98.527003661729168, 29.466481712054524 ], [ -98.527183324785995, 29.466184508881113 ], [ -98.527327055231439, 29.466012443487866 ], [ -98.527434853065543, 29.465918589513954 ] ], [ [ -98.531504221302612, 29.466247078042638 ], [ -98.530552007101434, 29.466145403135556 ], [ -98.529959119013924, 29.466106297374925 ], [ -98.529689624428684, 29.466067191599205 ], [ -98.529087753188321, 29.466028085808407 ] ], [ [ -98.531504221302612, 29.466247078042638 ], [ -98.53154015391398, 29.465762166031077 ], [ -98.531567103372495, 29.465621384690195 ], [ -98.531585069678172, 29.465613563498852 ] ], [ [ -98.535169347661807, 29.466090655066441 ], [ -98.534810021548168, 29.466067191599205 ], [ -98.534603409032812, 29.466028085808407 ] ], [ [ -98.534603409032812, 29.466028085808407 ], [ -98.534585442727135, 29.466012443487866 ], [ -98.534369847058954, 29.466012443487866 ], [ -98.534064419862347, 29.465965516511766 ], [ -98.533561363303235, 29.465942053015581 ], [ -98.53350746438619, 29.465918589513954 ] ], [ [ -98.534603409032812, 29.466028085808407 ], [ -98.534648324797018, 29.465613563498852 ] ], [ [ -98.529087753188321, 29.466028085808407 ], [ -98.529051820576953, 29.466004622326693 ], [ -98.528908090131495, 29.466004622326693 ], [ -98.527955875930331, 29.465902947176524 ], [ -98.527596549816693, 29.465887304836684 ], [ -98.527542650899647, 29.465926410681767 ] ], [ [ -98.529087753188321, 29.466028085808407 ], [ -98.529150635258219, 29.465613563498852 ] ], [ [ -98.527542650899647, 29.465926410681767 ], [ -98.527434853065543, 29.465918589513954 ] ], [ [ -98.53350746438619, 29.465918589513954 ], [ -98.533013390979917, 29.465895126006906 ], [ -98.53264508171344, 29.465832556628225 ], [ -98.53251033442082, 29.465832556628225 ] ], [ [ -98.53350746438619, 29.465918589513954 ], [ -98.533597295914603, 29.465597921114373 ] ], [ [ -98.527434853065543, 29.465918589513954 ], [ -98.527362987842807, 29.465777808390222 ], [ -98.527201291091671, 29.465629205880923 ], [ -98.527039594340536, 29.465582278727481 ] ], [ [ -98.535322061260104, 29.465637027071054 ], [ -98.535277145495897, 29.465605742306916 ], [ -98.534827987853859, 29.465590099921226 ] ] ] } }
]
}
