{
"type": "FeatureCollection",
"name": "gee_batch_0_29.80176_-95.41734",
"crs": { "type": "name", "properties": { "name": "urn:ogc:def:crs:OGC:1.3:CRS84" } },
"features": [
{ "type": "Feature", "properties": { "name": "road_network" }, "geometry": { "type": "MultiLineString", "coordinates": [ [ [ -95.41424215272437, 29.805746245886539 ], [ -95.41507758593859, 29.805715066593997 ], [ -95.417871346472211, 29.80572286141804 ], [ -95.418095925293244, 29.805707271769339 ] ], [ [ -95.418095925293244, 29.805707271769339 ], [ -95.420611208088772, 29.805707271769339 ], [ -95.421877832639382, 29.805683887291732 ] ], [ [ -95.418095925293244, 29.805707271769339 ], [ -95.418077958987567, 29.804701734295378 ] ], [ [ -95.412759932505566, 29.80528635033593 ], [ -95.414044523361852, 29.805262965759916 ], [ -95.414152321195957, 29.805247376039532 ] ], [ [ -95.412777898811242, 29.804771888400658 ], [ -95.414646394602215, 29.804764093502506 ], [ -95.418077958987567, 29.804701734295378 ] ], [ [ -95.418077958987567, 29.804701734295378 ], [ -95.420503410254682, 29.80467834958268 ], [ -95.420880702673998, 29.804654964864522 ], [ -95.421895798945059, 29.804654964864522 ] ], [ [ -95.418077958987567, 29.804701734295378 ], [ -95.418068975834714, 29.803742956591936 ] ], [ [ -95.413676214095375, 29.804273013693997 ], [ -95.412768915658404, 29.804257423819315 ] ], [ [ -95.412786881964095, 29.803766341523314 ], [ -95.413424685815812, 29.803742956591936 ], [ -95.415544709886333, 29.803750751569666 ], [ -95.416263362113625, 29.803727366634647 ], [ -95.418042026376185, 29.803719571655094 ] ], [ [ -95.418068975834714, 29.803742956591936 ], [ -95.418338470419954, 29.803727366634647 ], [ -95.419560179206357, 29.803727366634647 ], [ -95.41975780856886, 29.80371177667493 ], [ -95.421877832639382, 29.80371177667493 ] ], [ [ -95.418068975834714, 29.803742956591936 ], [ -95.418042026376185, 29.803719571655094 ] ], [ [ -95.418042026376185, 29.803719571655094 ], [ -95.418051009529023, 29.803220691700112 ], [ -95.418024060070508, 29.802721809257076 ] ], [ [ -95.421877832639382, 29.80371177667493 ], [ -95.421904782097897, 29.803665006781202 ], [ -95.421877832639382, 29.803142741482393 ], [ -95.421895798945059, 29.802768579591799 ], [ -95.421859866333705, 29.802706219140635 ], [ -95.42156342228995, 29.802690629021775 ], [ -95.418042026376185, 29.802706219140635 ] ], [ [ -95.413523500497064, 29.803251871770186 ], [ -95.412759932505566, 29.803251871770186 ] ], [ [ -95.418024060070508, 29.802721809257076 ], [ -95.418042026376185, 29.802706219140635 ] ], [ [ -95.418024060070508, 29.802721809257076 ], [ -95.415257248995431, 29.802714014199157 ] ], [ [ -95.412777898811242, 29.802729604314383 ], [ -95.414790125047688, 29.802729604314383 ], [ -95.415257248995431, 29.802714014199157 ] ], [ [ -95.415257248995431, 29.802714014199157 ], [ -95.41521233323121, 29.801708446635011 ] ], [ [ -95.418042026376185, 29.802706219140635 ], [ -95.418024060070508, 29.802542522771379 ], [ -95.418033043223346, 29.801973480927483 ], [ -95.418015076917669, 29.801708446635011 ] ], [ [ -95.418015076917669, 29.801708446635011 ], [ -95.419946454778525, 29.801677266083857 ], [ -95.42177901795813, 29.801677266083857 ], [ -95.42188681579222, 29.801700651498138 ] ], [ [ -95.418015076917669, 29.801708446635011 ], [ -95.417997110611978, 29.801692856360649 ] ], [ [ -95.41521233323121, 29.801708446635011 ], [ -95.417997110611978, 29.801692856360649 ] ], [ [ -95.41521233323121, 29.801708446635011 ], [ -95.414071472820382, 29.801708446635011 ], [ -95.413927742374923, 29.801724036906947 ], [ -95.412867730339656, 29.801724036906947 ], [ -95.412804848269772, 29.801716241771285 ], [ -95.412750949352727, 29.801669470944542 ] ], [ [ -95.417997110611978, 29.801692856360649 ], [ -95.417988127459139, 29.800679483315331 ] ], [ [ -95.412786881964095, 29.800702868962855 ], [ -95.415679457178953, 29.800679483315331 ] ], [ [ -95.417988127459139, 29.800679483315331 ], [ -95.415679457178953, 29.800679483315331 ] ], [ [ -95.417988127459139, 29.800679483315331 ], [ -95.421545455984258, 29.800663892880607 ], [ -95.421823933722337, 29.800656097662337 ], [ -95.421904782097897, 29.800632712003878 ] ], [ [ -95.417988127459139, 29.800679483315331 ], [ -95.417961178000624, 29.799666100004895 ] ], [ [ -95.415679457178953, 29.800679483315331 ], [ -95.415670474026115, 29.800024682965155 ] ], [ [ -95.416766418672736, 29.800149407171805 ], [ -95.416766418672736, 29.799666100004895 ] ], [ [ -95.412786881964095, 29.799697281182898 ], [ -95.413280955370354, 29.799673895300312 ] ], [ [ -95.417961178000624, 29.799666100004895 ], [ -95.416766418672736, 29.799666100004895 ] ], [ [ -95.417961178000624, 29.799666100004895 ], [ -95.418024060070508, 29.799650509412256 ], [ -95.420081202071145, 29.79963491881718 ], [ -95.421904782097897, 29.79964271411502 ] ], [ [ -95.417961178000624, 29.799666100004895 ], [ -95.417943211694933, 29.798668297177706 ] ], [ [ -95.416766418672736, 29.799666100004895 ], [ -95.416335227336361, 29.799673895300312 ], [ -95.416290311572155, 29.799658304708881 ] ], [ [ -95.414071472820382, 29.799673895300312 ], [ -95.415095552244281, 29.799650509412256 ], [ -95.416290311572155, 29.799658304708881 ] ], [ [ -95.414071472820382, 29.799673895300312 ], [ -95.413280955370354, 29.799673895300312 ] ], [ [ -95.414071472820382, 29.799673895300312 ], [ -95.414062489667543, 29.798676092550863 ] ], [ [ -95.413280955370354, 29.799673895300312 ], [ -95.413236039606147, 29.798738455514247 ], [ -95.413236039606147, 29.797826393301822 ] ], [ [ -95.416290311572155, 29.799658304708881 ], [ -95.416299294724993, 29.799307515759402 ], [ -95.416272345266478, 29.798909953463117 ] ], [ [ -95.416254378960787, 29.798676092550863 ], [ -95.416452008323304, 29.798660501803941 ] ], [ [ -95.416254378960787, 29.798676092550863 ], [ -95.415086569091443, 29.798676092550863 ], [ -95.414978771257339, 29.798691683295356 ], [ -95.414062489667543, 29.798676092550863 ] ], [ [ -95.417943211694933, 29.798668297177706 ], [ -95.419955437931364, 29.798652706429575 ] ], [ [ -95.417943211694933, 29.798668297177706 ], [ -95.417916262236417, 29.798660501803941 ], [ -95.416865233353988, 29.798676092550863 ], [ -95.416452008323304, 29.798660501803941 ] ], [ [ -95.417943211694933, 29.798668297177706 ], [ -95.417934228542094, 29.797982301961476 ] ], [ [ -95.414062489667543, 29.798676092550863 ], [ -95.414044523361852, 29.798605934170592 ], [ -95.414026557056175, 29.797826393301822 ] ], [ [ -95.421895798945059, 29.798660501803941 ], [ -95.421141214106399, 29.798660501803941 ] ], [ [ -95.421141214106399, 29.798660501803941 ], [ -95.419955437931364, 29.798652706429575 ] ], [ [ -95.421141214106399, 29.798660501803941 ], [ -95.421141214106399, 29.798325300157522 ] ], [ [ -95.416452008323304, 29.798660501803941 ], [ -95.416434042017627, 29.7978108024225 ] ], [ [ -95.419955437931364, 29.798652706429575 ], [ -95.419964421084217, 29.798325300157522 ] ], [ [ -95.421931731556427, 29.79840325412901 ], [ -95.421904782097897, 29.7983720725477 ], [ -95.421788001110968, 29.7983720725477 ], [ -95.421590371748465, 29.798333095557407 ], [ -95.421141214106399, 29.798325300157522 ] ], [ [ -95.421141214106399, 29.798325300157522 ], [ -95.419964421084217, 29.798325300157522 ] ], [ [ -95.421141214106399, 29.798325300157522 ], [ -95.421141214106399, 29.798013483664249 ], [ -95.421114264647883, 29.797974506534263 ] ], [ [ -95.419964421084217, 29.798325300157522 ], [ -95.419685943346124, 29.798317504757041 ] ], [ [ -95.419964421084217, 29.798325300157522 ], [ -95.419955437931364, 29.798029074511994 ], [ -95.419973404237055, 29.797982301961476 ] ], [ [ -95.419506280289312, 29.798325300157522 ], [ -95.419632044429079, 29.798333095557407 ], [ -95.419685943346124, 29.798317504757041 ] ], [ [ -95.419685943346124, 29.798317504757041 ], [ -95.419667977040447, 29.797990097388084 ] ], [ [ -95.419173903634174, 29.798099233296778 ], [ -95.419173903634174, 29.797982301961476 ] ], [ [ -95.419667977040447, 29.797990097388084 ], [ -95.419173903634174, 29.797982301961476 ] ], [ [ -95.419667977040447, 29.797990097388084 ], [ -95.419658993887609, 29.79783418874058 ] ], [ [ -95.419973404237055, 29.797982301961476 ], [ -95.421114264647883, 29.797974506534263 ] ], [ [ -95.419173903634174, 29.797982301961476 ], [ -95.417934228542094, 29.797982301961476 ] ], [ [ -95.417934228542094, 29.797982301961476 ], [ -95.417925245389256, 29.797841984178721 ], [ -95.417898295930726, 29.7978108024225 ], [ -95.417835413860843, 29.797803006981923 ], [ -95.416434042017627, 29.7978108024225 ] ], [ [ -95.421114264647883, 29.797974506534263 ], [ -95.42113223095356, 29.79783418874058 ] ], [ [ -95.412741966199889, 29.797904347662016 ], [ -95.412822814575449, 29.79783418874058 ], [ -95.413236039606147, 29.797826393301822 ] ], [ [ -95.414026557056175, 29.797826393301822 ], [ -95.416434042017627, 29.7978108024225 ] ], [ [ -95.414026557056175, 29.797826393301822 ], [ -95.413236039606147, 29.797826393301822 ] ] ] } }
]
}
