{
"type": "FeatureCollection",
"name": "gee_batch_1_29.47167_-98.50573",
"crs": { "type": "name", "properties": { "name": "urn:ogc:def:crs:OGC:1.3:CRS84" } },
"features": [
{ "type": "Feature", "properties": { "name": "road_network" }, "geometry": { "type": "MultiLineString", "coordinates": [ [ [ -98.509646813088835, 29.475674579217472 ], [ -98.50959291417179, 29.475627656713129 ], [ -98.50959291417179, 29.475095866812648 ] ], [ [ -98.505164219821083, 29.475674579217472 ], [ -98.504993539917095, 29.475651117968024 ], [ -98.504445567593791, 29.475385223428031 ] ], [ [ -98.504113190938668, 29.475674579217472 ], [ -98.504203022467081, 29.475627656713129 ], [ -98.504355736065378, 29.47542432561 ], [ -98.504445567593791, 29.475385223428031 ] ], [ [ -98.50359216807388, 29.475674579217472 ], [ -98.503511319698305, 29.475658938385109 ], [ -98.503448437628421, 29.475612015873526 ] ], [ [ -98.501669773365848, 29.475674579217472 ], [ -98.501310447252209, 29.475549452490963 ] ], [ [ -98.507859165673437, 29.475619836293632 ], [ -98.507859165673437, 29.475095866812648 ] ], [ [ -98.503448437628421, 29.475612015873526 ], [ -98.503412505017039, 29.475612015873526 ], [ -98.503107077820445, 29.475416505174817 ], [ -98.502927414763633, 29.475338300789755 ], [ -98.50256808864998, 29.475220994099036 ], [ -98.501885369034056, 29.475088046352123 ], [ -98.501463160850506, 29.475064584966916 ] ], [ [ -98.503448437628421, 29.475612015873526 ], [ -98.503762847977853, 29.475260096344353 ], [ -98.503969460493195, 29.474970739371805 ], [ -98.504220988772758, 29.474517151104067 ], [ -98.50431980345401, 29.474212150955289 ] ], [ [ -98.501310447252209, 29.475549452490963 ], [ -98.501283497793693, 29.475549452490963 ], [ -98.50116671680675, 29.475447786911946 ], [ -98.501130784195382, 29.475377402989828 ] ], [ [ -98.501310447252209, 29.475549452490963 ], [ -98.501355363016415, 29.47549470949955 ], [ -98.501382312474945, 29.475307019018832 ], [ -98.501463160850506, 29.475064584966916 ] ], [ [ -98.504445567593791, 29.475385223428031 ], [ -98.504463533899468, 29.475283557684307 ], [ -98.504795910554591, 29.474853432255756 ], [ -98.504975573611418, 29.474665740587714 ], [ -98.50507438829267, 29.474642279104774 ] ], [ [ -98.50959291417179, 29.475095866812648 ], [ -98.510275633787728, 29.475095866812648 ] ], [ [ -98.50959291417179, 29.475095866812648 ], [ -98.507859165673437, 29.475095866812648 ] ], [ [ -98.50959291417179, 29.475095866812648 ], [ -98.50959291417179, 29.474180868836861 ] ], [ [ -98.507859165673437, 29.475095866812648 ], [ -98.506376945454647, 29.475088046352123 ], [ -98.506044568799524, 29.475048944040427 ], [ -98.505622360615988, 29.474939457487466 ], [ -98.505173202973936, 29.47472048402679 ], [ -98.50507438829267, 29.474642279104774 ] ], [ [ -98.507859165673437, 29.475095866812648 ], [ -98.507868148826276, 29.474173048305754 ] ], [ [ -98.501463160850506, 29.475064584966916 ], [ -98.501427228239152, 29.475041123576283 ], [ -98.501175699959589, 29.475017662180214 ], [ -98.501130784195382, 29.474978559841382 ] ], [ [ -98.50507438829267, 29.474642279104774 ], [ -98.505092354598347, 29.474579715123728 ], [ -98.505245068196658, 29.474454587045795 ], [ -98.505343882877909, 29.474266894639307 ] ], [ [ -98.505343882877909, 29.474266894639307 ], [ -98.505703208991548, 29.474212150955289 ], [ -98.506026602493833, 29.474204330426591 ] ], [ [ -98.505343882877909, 29.474266894639307 ], [ -98.505263034502335, 29.474219971483389 ], [ -98.505182186126774, 29.474204330426591 ], [ -98.50431980345401, 29.474212150955289 ] ], [ [ -98.50431980345401, 29.474212150955289 ], [ -98.501490110309035, 29.474204330426591 ] ], [ [ -98.50431980345401, 29.474212150955289 ], [ -98.50431980345401, 29.473304965601933 ] ], [ [ -98.506026602493833, 29.474204330426591 ], [ -98.507041698764894, 29.474196509897283 ], [ -98.507176446057514, 29.474180868836861 ] ], [ [ -98.506026602493833, 29.474204330426591 ], [ -98.506035585646686, 29.473320606797486 ] ], [ [ -98.501490110309035, 29.474204330426591 ], [ -98.501202649418119, 29.474212150955289 ], [ -98.50116671680675, 29.474180868836861 ] ], [ [ -98.501490110309035, 29.474204330426591 ], [ -98.501499093461874, 29.473297145003244 ] ], [ [ -98.50959291417179, 29.474180868836861 ], [ -98.51026665063489, 29.474173048305754 ] ], [ [ -98.50959291417179, 29.474180868836861 ], [ -98.507868148826276, 29.474173048305754 ] ], [ [ -98.50959291417179, 29.474180868836861 ], [ -98.509601897324629, 29.47327368320358 ] ], [ [ -98.507176446057514, 29.474180868836861 ], [ -98.507868148826276, 29.474173048305754 ] ], [ [ -98.507868148826276, 29.474173048305754 ], [ -98.507868148826276, 29.473688174198404 ] ], [ [ -98.507176446057514, 29.474180868836861 ], [ -98.507167462904675, 29.473695994766921 ] ], [ [ -98.507167462904675, 29.473695994766921 ], [ -98.507418991184224, 29.47368035362928 ], [ -98.507868148826276, 29.473688174198404 ] ], [ [ -98.507167462904675, 29.473695994766921 ], [ -98.507158479751823, 29.471693909534718 ], [ -98.507176446057514, 29.471521853490248 ] ], [ [ -98.507868148826276, 29.473688174198404 ], [ -98.507877131979114, 29.473258042000783 ] ], [ [ -98.50431980345401, 29.473304965601933 ], [ -98.503762847977853, 29.473289324403957 ] ], [ [ -98.50431980345401, 29.473304965601933 ], [ -98.504310820301171, 29.472405592798744 ] ], [ [ -98.501175699959589, 29.473304965601933 ], [ -98.501499093461874, 29.473297145003244 ] ], [ [ -98.501499093461874, 29.473297145003244 ], [ -98.503762847977853, 29.473289324403957 ] ], [ [ -98.501499093461874, 29.473297145003244 ], [ -98.501499093461874, 29.472405592798744 ] ], [ [ -98.503762847977853, 29.473289324403957 ], [ -98.503771831130692, 29.472569826688684 ], [ -98.503753864825015, 29.472429054799314 ] ], [ [ -98.509601897324629, 29.47327368320358 ], [ -98.509646813088835, 29.473258042000783 ], [ -98.510284616940567, 29.473250221398477 ] ], [ [ -98.509601897324629, 29.47327368320358 ], [ -98.509547998407584, 29.473258042000783 ], [ -98.507877131979114, 29.473258042000783 ] ], [ [ -98.507877131979114, 29.473258042000783 ], [ -98.507868148826276, 29.472436875464961 ] ], [ [ -98.510320549551935, 29.472475978784153 ], [ -98.510275633787728, 29.472429054799314 ], [ -98.509341385892242, 29.472444696130008 ], [ -98.507868148826276, 29.472436875464961 ] ], [ [ -98.507868148826276, 29.472436875464961 ], [ -98.507841199367761, 29.472030200051289 ], [ -98.507850182520599, 29.471600060819384 ] ], [ [ -98.503753864825015, 29.472429054799314 ], [ -98.504310820301171, 29.472405592798744 ] ], [ [ -98.503753864825015, 29.472429054799314 ], [ -98.502586054955657, 29.472429054799314 ], [ -98.501499093461874, 29.472405592798744 ] ], [ [ -98.504310820301171, 29.472405592798744 ], [ -98.50431980345401, 29.471514032754019 ] ], [ [ -98.501499093461874, 29.472405592798744 ], [ -98.501175699959589, 29.472405592798744 ] ], [ [ -98.501499093461874, 29.472405592798744 ], [ -98.501481127156197, 29.472241358642762 ], [ -98.501481127156197, 29.471514032754019 ] ], [ [ -98.510284616940567, 29.47161570227798 ], [ -98.508748497804717, 29.471623523006365 ], [ -98.508461036913801, 29.471607881548977 ], [ -98.507886115131967, 29.47161570227798 ], [ -98.507850182520599, 29.471600060819384 ] ], [ [ -98.507850182520599, 29.471600060819384 ], [ -98.507589671088212, 29.471576598626978 ], [ -98.507347125961488, 29.47152967422587 ], [ -98.507176446057514, 29.471521853490248 ] ], [ [ -98.507850182520599, 29.471600060819384 ], [ -98.507868148826276, 29.471146457470642 ], [ -98.507859165673437, 29.470606823257384 ] ], [ [ -98.507176446057514, 29.471521853490248 ], [ -98.507149496598984, 29.471506212017182 ] ], [ [ -98.50431980345401, 29.471514032754019 ], [ -98.506089484563731, 29.471506212017182 ] ], [ [ -98.50431980345401, 29.471514032754019 ], [ -98.501481127156197, 29.471514032754019 ] ], [ [ -98.50431980345401, 29.471514032754019 ], [ -98.504310820301171, 29.470622464869209 ] ], [ [ -98.50116671680675, 29.471521853490248 ], [ -98.501481127156197, 29.471514032754019 ] ], [ [ -98.501481127156197, 29.471514032754019 ], [ -98.501472144003358, 29.470622464869209 ] ], [ [ -98.507149496598984, 29.471506212017182 ], [ -98.506089484563731, 29.471506212017182 ] ], [ [ -98.507149496598984, 29.471506212017182 ], [ -98.507158479751823, 29.470614644063598 ] ], [ [ -98.506089484563731, 29.471506212017182 ], [ -98.506080501410878, 29.470606823257384 ] ], [ [ -98.510284616940567, 29.470872730330111 ], [ -98.508829346180292, 29.470864909543799 ], [ -98.508784430416085, 29.470825805603241 ], [ -98.508775447263247, 29.470286169683373 ], [ -98.508820363027453, 29.470239244685036 ], [ -98.508892228250176, 29.470231423849874 ], [ -98.510293600093405, 29.470239244685036 ] ], [ [ -98.504310820301171, 29.470622464869209 ], [ -98.506080501410878, 29.470606823257384 ] ], [ [ -98.501472144003358, 29.470622464869209 ], [ -98.504310820301171, 29.470622464869209 ] ], [ [ -98.504310820301171, 29.470622464869209 ], [ -98.504310820301171, 29.469723068270088 ] ], [ [ -98.501472144003358, 29.470622464869209 ], [ -98.501175699959589, 29.470622464869209 ] ], [ [ -98.501472144003358, 29.470622464869209 ], [ -98.501481127156197, 29.469723068270088 ] ], [ [ -98.507158479751823, 29.470614644063598 ], [ -98.507203395516029, 29.470599002450573 ] ], [ [ -98.507158479751823, 29.470614644063598 ], [ -98.506080501410878, 29.470606823257384 ] ], [ [ -98.507859165673437, 29.470606823257384 ], [ -98.507257294433074, 29.470614644063598 ], [ -98.507203395516029, 29.470599002450573 ] ], [ [ -98.507859165673437, 29.470606823257384 ], [ -98.507877131979114, 29.470403482084187 ], [ -98.507868148826276, 29.469660501253355 ] ], [ [ -98.506080501410878, 29.470606823257384 ], [ -98.506080501410878, 29.469715247395104 ] ], [ [ -98.507203395516029, 29.470599002450573 ], [ -98.507230344974559, 29.470497331907108 ], [ -98.507338142808649, 29.470380019614883 ], [ -98.507410008031371, 29.470247065519608 ], [ -98.507418991184224, 29.469699605643338 ] ], [ [ -98.504310820301171, 29.469723068270088 ], [ -98.506080501410878, 29.469715247395104 ] ], [ [ -98.504310820301171, 29.469723068270088 ], [ -98.501481127156197, 29.469723068270088 ] ], [ [ -98.504310820301171, 29.469723068270088 ], [ -98.504310820301171, 29.468831484636791 ] ], [ [ -98.501184683112442, 29.469730889144468 ], [ -98.501481127156197, 29.469723068270088 ] ], [ [ -98.501481127156197, 29.469723068270088 ], [ -98.501481127156197, 29.468823663693037 ] ], [ [ -98.507418991184224, 29.469699605643338 ], [ -98.507221361821721, 29.469715247395104 ], [ -98.506080501410878, 29.469715247395104 ] ], [ [ -98.506080501410878, 29.469715247395104 ], [ -98.506080501410878, 29.468823663693037 ] ], [ [ -98.507418991184224, 29.469699605643338 ], [ -98.507868148826276, 29.469660501253355 ] ], [ [ -98.507418991184224, 29.469699605643338 ], [ -98.507418991184224, 29.468815842748686 ], [ -98.507401024878533, 29.468776738017873 ] ], [ [ -98.507868148826276, 29.469660501253355 ], [ -98.507877131979114, 29.469605755082036 ] ], [ [ -98.507877131979114, 29.469605755082036 ], [ -98.509547998407584, 29.469605755082036 ], [ -98.509601897324629, 29.469590113313373 ] ], [ [ -98.507877131979114, 29.469605755082036 ], [ -98.507868148826276, 29.468573393174527 ] ], [ [ -98.510284616940567, 29.469597934198006 ], [ -98.509637829935997, 29.469605755082036 ], [ -98.509601897324629, 29.469590113313373 ] ], [ [ -98.509601897324629, 29.469590113313373 ], [ -98.509610880477467, 29.468557751246607 ] ], [ [ -98.504310820301171, 29.468831484636791 ], [ -98.506080501410878, 29.468823663693037 ] ], [ [ -98.504310820301171, 29.468831484636791 ], [ -98.50267588648407, 29.468831484636791 ], [ -98.502262661453372, 29.468839305579934 ], [ -98.501481127156197, 29.468823663693037 ] ], [ [ -98.504310820301171, 29.468831484636791 ], [ -98.504310820301171, 29.467978998217404 ] ], [ [ -98.501481127156197, 29.468823663693037 ], [ -98.501175699959589, 29.468831484636791 ], [ -98.501139767348221, 29.468800200858173 ] ], [ [ -98.501481127156197, 29.468823663693037 ], [ -98.501481127156197, 29.467994640234593 ] ], [ [ -98.506080501410878, 29.468823663693037 ], [ -98.507140513446146, 29.468815842748686 ], [ -98.507401024878533, 29.468776738017873 ] ], [ [ -98.506080501410878, 29.468823663693037 ], [ -98.506080501410878, 29.467978998217404 ] ], [ [ -98.507401024878533, 29.468776738017873 ], [ -98.507463906948431, 29.468706349464401 ] ], [ [ -98.507463906948431, 29.468706349464401 ], [ -98.507517805865476, 29.468698528510998 ], [ -98.507679502616625, 29.468612497983759 ], [ -98.507868148826276, 29.468573393174527 ] ], [ [ -98.507463906948431, 29.468706349464401 ], [ -98.507427974337077, 29.468667244691357 ], [ -98.507427974337077, 29.468503004479896 ] ], [ [ -98.507868148826276, 29.468573393174527 ], [ -98.507886115131967, 29.468557751246607 ], [ -98.508443070608109, 29.468549930281743 ], [ -98.509610880477467, 29.468557751246607 ] ], [ [ -98.507868148826276, 29.468573393174527 ], [ -98.507868148826276, 29.467978998217404 ] ], [ [ -98.509610880477467, 29.468557751246607 ], [ -98.510275633787728, 29.468549930281743 ] ], [ [ -98.509610880477467, 29.468557751246607 ], [ -98.509610880477467, 29.467728725614133 ], [ -98.509655796241674, 29.467697441495289 ] ], [ [ -98.501481127156197, 29.467994640234593 ], [ -98.501184683112442, 29.467994640234593 ], [ -98.501130784195382, 29.467947714175772 ] ], [ [ -98.501481127156197, 29.467994640234593 ], [ -98.504310820301171, 29.467978998217404 ] ], [ [ -98.501481127156197, 29.467994640234593 ], [ -98.501481127156197, 29.467767830749107 ], [ -98.501499093461874, 29.467713083555914 ] ], [ [ -98.506080501410878, 29.467978998217404 ], [ -98.507868148826276, 29.467978998217404 ] ], [ [ -98.504310820301171, 29.467978998217404 ], [ -98.506080501410878, 29.467978998217404 ] ], [ [ -98.506080501410878, 29.467978998217404 ], [ -98.506080501410878, 29.467720904585327 ], [ -98.506026602493833, 29.467681799432249 ] ], [ [ -98.504310820301171, 29.467978998217404 ], [ -98.504310820301171, 29.467760009723321 ], [ -98.504301837148333, 29.467720904585327 ], [ -98.504247938231288, 29.467681799432249 ] ], [ [ -98.507868148826276, 29.467978998217404 ], [ -98.507877131979114, 29.467932072151338 ] ], [ [ -98.507877131979114, 29.467932072151338 ], [ -98.507877131979114, 29.467736546642332 ] ] ] } }
]
}
