{
"type": "FeatureCollection",
"name": "gee_batch_7_30.31364_-97.71976",
"crs": { "type": "name", "properties": { "name": "urn:ogc:def:crs:OGC:1.3:CRS84" } },
"features": [
{ "type": "Feature", "properties": { "name": "road_network" }, "geometry": { "type": "MultiLineString", "coordinates": [ [ [ -97.720072629953748, 30.317609592952472 ], [ -97.720126528870793, 30.317578574464115 ], [ -97.72025229301056, 30.31733042620376 ], [ -97.720315175080458, 30.31727614368803 ] ], [ [ -97.718877870625874, 30.317609592952472 ], [ -97.71893176954292, 30.317586329087128 ], [ -97.719264146198043, 30.317066767988518 ], [ -97.719425842949178, 30.316865146521696 ] ], [ [ -97.718249049926982, 30.317609592952472 ], [ -97.717835824896284, 30.317532046713165 ] ], [ [ -97.717710060756517, 30.317609592952472 ], [ -97.717835824896284, 30.317532046713165 ] ], [ [ -97.716497335122952, 30.317609592952472 ], [ -97.716569200345688, 30.317578574464115 ], [ -97.71688361069512, 30.317074522652039 ], [ -97.716928526459341, 30.317035749328319 ] ], [ [ -97.715742750284292, 30.317609592952472 ], [ -97.715760716589969, 30.31733042620376 ], [ -97.715715800825762, 30.316857391841609 ] ], [ [ -97.717835824896284, 30.317532046713165 ], [ -97.717835824896284, 30.317477764309142 ] ], [ [ -97.717835824896284, 30.317477764309142 ], [ -97.718518544512222, 30.316399864630224 ] ], [ [ -97.717835824896284, 30.317477764309142 ], [ -97.716928526459341, 30.317035749328319 ] ], [ [ -97.72076433272251, 30.317454500412495 ], [ -97.72079128218104, 30.317501028200262 ], [ -97.720908063167983, 30.317563065216255 ], [ -97.721150608294693, 30.317601838331306 ], [ -97.721285355587312, 30.317578574464115 ], [ -97.721509934408346, 30.31719859718482 ], [ -97.7218962099805, 30.31664026055002 ] ], [ [ -97.72076433272251, 30.317454500412495 ], [ -97.720863147403762, 30.317268389040471 ], [ -97.720979928390719, 30.317113295960414 ], [ -97.721096709377647, 30.317020239994537 ], [ -97.721267389281621, 30.316741071566664 ], [ -97.721429086032757, 30.316554958839532 ], [ -97.721491968102669, 30.316446392918795 ] ], [ [ -97.72076433272251, 30.317454500412495 ], [ -97.72065653488842, 30.317438991144996 ], [ -97.720315175080458, 30.31727614368803 ] ], [ [ -97.720315175080458, 30.31727614368803 ], [ -97.720315175080458, 30.317245125094111 ] ], [ [ -97.720315175080458, 30.317245125094111 ], [ -97.720351107691826, 30.317221861142229 ], [ -97.720387040303194, 30.317136559938071 ], [ -97.721015861002073, 30.316182732324766 ] ], [ [ -97.720315175080458, 30.317245125094111 ], [ -97.720198394093515, 30.317214106490376 ], [ -97.719919916355451, 30.317082277314945 ], [ -97.719866017438406, 30.317027994661732 ] ], [ [ -97.719866017438406, 30.317027994661732 ], [ -97.720539753901491, 30.315981109038869 ] ], [ [ -97.719866017438406, 30.317027994661732 ], [ -97.719785169062831, 30.317020239994537 ], [ -97.719605506006005, 30.316919429265109 ], [ -97.719425842949178, 30.316865146521696 ] ], [ [ -97.716928526459341, 30.317035749328319 ], [ -97.716928526459341, 30.316996975989259 ] ], [ [ -97.716928526459341, 30.316996975989259 ], [ -97.716964459070695, 30.316973711978463 ], [ -97.71701835798774, 30.316857391841609 ], [ -97.717566330311058, 30.316012128032934 ], [ -97.717620229228103, 30.315965599538153 ] ], [ [ -97.716928526459341, 30.316996975989259 ], [ -97.716784796013869, 30.316950447962135 ], [ -97.716093093245092, 30.316601487054463 ], [ -97.716111059550784, 30.316500675894197 ], [ -97.716236823690551, 30.316299053262522 ], [ -97.716632082415572, 30.315701937650417 ], [ -97.716766829708178, 30.31555459687473 ] ], [ [ -97.722551980137908, 30.316934938614853 ], [ -97.7218962099805, 30.31664026055002 ] ], [ [ -97.719425842949178, 30.316865146521696 ], [ -97.71941685979634, 30.316803109063816 ] ], [ [ -97.71941685979634, 30.316803109063816 ], [ -97.719695337534418, 30.316438638205565 ], [ -97.719830084827038, 30.31617497759067 ], [ -97.719973815272496, 30.315996618537127 ], [ -97.720126528870793, 30.315748466270389 ] ], [ [ -97.71941685979634, 30.316803109063816 ], [ -97.719273129350881, 30.316764335632701 ], [ -97.718518544512222, 30.316399864630224 ] ], [ [ -97.7218962099805, 30.31664026055002 ], [ -97.7218962099805, 30.316609241754801 ] ], [ [ -97.7218962099805, 30.316609241754801 ], [ -97.721995024661751, 30.316492921185269 ], [ -97.722596895902129, 30.315562351657928 ] ], [ [ -97.7218962099805, 30.316609241754801 ], [ -97.721491968102669, 30.316446392918795 ] ], [ [ -97.722821474723148, 30.316454147631408 ], [ -97.723180800836801, 30.315864787723676 ] ], [ [ -97.721491968102669, 30.316446392918795 ], [ -97.721447052338448, 30.316392109913316 ], [ -97.721015861002073, 30.316182732324766 ] ], [ [ -97.718518544512222, 30.316399864630224 ], [ -97.718563460276428, 30.316361091039532 ], [ -97.71901261791848, 30.315663163783558 ], [ -97.71912041575257, 30.315546842090928 ], [ -97.719210247280998, 30.315360727095509 ], [ -97.719255163045204, 30.31532195309363 ] ], [ [ -97.718518544512222, 30.316399864630224 ], [ -97.718482611900853, 30.316361091039532 ], [ -97.718123285787215, 30.316198241791113 ], [ -97.71806938687017, 30.316151713384706 ] ], [ [ -97.71564393560304, 30.31638435519579 ], [ -97.715599019838834, 30.315670918558155 ], [ -97.715545120921789, 30.315345217496596 ], [ -97.715545120921789, 30.315097063580211 ], [ -97.715491222004744, 30.315027270178003 ] ], [ [ -97.721015861002073, 30.316182732324766 ], [ -97.721015861002073, 30.316159468120642 ] ], [ [ -97.721015861002073, 30.316159468120642 ], [ -97.720908063167983, 30.316136203910993 ], [ -97.720539753901491, 30.315981109038869 ] ], [ [ -97.721015861002073, 30.316159468120642 ], [ -97.721707563770849, 30.315097063580211 ] ], [ [ -97.71806938687017, 30.316151713384706 ], [ -97.718114302634376, 30.316112939695827 ], [ -97.718410746678131, 30.315639899456084 ] ], [ [ -97.71806938687017, 30.316151713384706 ], [ -97.717620229228103, 30.315965599538153 ] ], [ [ -97.72433962755332, 30.316151713384706 ], [ -97.724285728636261, 30.316097430215983 ], [ -97.723629958478853, 30.315988863788309 ], [ -97.723270632365214, 30.315872542482317 ], [ -97.723180800836801, 30.315864787723676 ] ], [ [ -97.720539753901491, 30.315981109038869 ], [ -97.720503821290123, 30.315942335282479 ], [ -97.720126528870793, 30.315748466270389 ] ], [ [ -97.717620229228103, 30.315965599538153 ], [ -97.717620229228103, 30.315911316266323 ] ], [ [ -97.717620229228103, 30.315911316266323 ], [ -97.717808875437768, 30.31567867333214 ], [ -97.71815023524573, 30.315112573218396 ], [ -97.71831193199688, 30.314887683224452 ] ], [ [ -97.717620229228103, 30.315911316266323 ], [ -97.71753039769969, 30.315895806754558 ], [ -97.717215987350244, 30.315732956732855 ], [ -97.716766829708178, 30.31555459687473 ] ], [ [ -97.723180800836801, 30.315864787723676 ], [ -97.723135885072594, 30.315802749632439 ], [ -97.722983171474297, 30.315732956732855 ], [ -97.722938255710091, 30.315670918558155 ] ], [ [ -97.720126528870793, 30.315748466270389 ], [ -97.720773315875363, 30.314717076677852 ], [ -97.720818231639555, 30.314678302421296 ] ], [ [ -97.720126528870793, 30.315748466270389 ], [ -97.719255163045204, 30.31532195309363 ] ], [ [ -97.722938255710091, 30.315670918558155 ], [ -97.723019104085651, 30.315562351657928 ], [ -97.723081986155549, 30.315399501082045 ], [ -97.723225716601007, 30.315159102118223 ], [ -97.723531143797601, 30.314693812125764 ], [ -97.723611992173176, 30.314624018436337 ] ], [ [ -97.722938255710091, 30.315670918558155 ], [ -97.722830457876, 30.315655409008343 ], [ -97.722596895902129, 30.315562351657928 ] ], [ [ -97.715167828502445, 30.315593370784548 ], [ -97.715212744266651, 30.315422765466593 ], [ -97.715356474712124, 30.315190121372503 ], [ -97.715392407323492, 30.315035025002921 ] ], [ [ -97.722596895902129, 30.315562351657928 ], [ -97.722489098068024, 30.315484803798402 ], [ -97.722471131762347, 30.315446029845624 ] ], [ [ -97.716766829708178, 30.31555459687473 ], [ -97.716757846555339, 30.315500313375214 ] ], [ [ -97.716757846555339, 30.315500313375214 ], [ -97.717162088433199, 30.314879928387864 ], [ -97.717215987350244, 30.314779115456439 ], [ -97.717224970503082, 30.314678302421296 ] ], [ [ -97.716757846555339, 30.315500313375214 ], [ -97.716596149804204, 30.315453784637402 ], [ -97.71588648072975, 30.315104818399615 ], [ -97.715787666048499, 30.315035025002921 ], [ -97.715751733437131, 30.314957476726082 ] ], [ [ -97.722471131762347, 30.315446029845624 ], [ -97.723001137779974, 30.314523205241635 ], [ -97.723477244880556, 30.313856284571859 ], [ -97.723764705771487, 30.313383233438334 ], [ -97.723818604688532, 30.313344458654001 ] ], [ [ -97.722471131762347, 30.315446029845624 ], [ -97.722318418164051, 30.315407255877503 ], [ -97.721707563770849, 30.315097063580211 ] ], [ [ -97.719255163045204, 30.31532195309363 ], [ -97.719803135368522, 30.314430146816008 ], [ -97.719857034285567, 30.314275049243573 ], [ -97.719910933202613, 30.314228519923976 ] ], [ [ -97.719255163045204, 30.31532195309363 ], [ -97.718473628748015, 30.314941967063348 ], [ -97.71831193199688, 30.314887683224452 ] ], [ [ -97.721707563770849, 30.315097063580211 ], [ -97.722336384469727, 30.314150971008893 ], [ -97.722399266539611, 30.31400362790114 ] ], [ [ -97.721707563770849, 30.315097063580211 ], [ -97.721267389281621, 30.314872173550668 ] ], [ [ -97.715194777960974, 30.31505828947401 ], [ -97.715275626336549, 30.315019515352464 ], [ -97.715392407323492, 30.315035025002921 ] ], [ [ -97.715392407323492, 30.315035025002921 ], [ -97.715491222004744, 30.315027270178003 ] ], [ [ -97.715491222004744, 30.315027270178003 ], [ -97.715590036685995, 30.314949721895019 ] ], [ [ -97.715751733437131, 30.314957476726082 ], [ -97.71580563235419, 30.314910947730517 ], [ -97.716075126939415, 30.314841154195737 ] ], [ [ -97.715751733437131, 30.314957476726082 ], [ -97.715590036685995, 30.314949721895019 ] ], [ [ -97.715590036685995, 30.314949721895019 ], [ -97.715572070380304, 30.314112196528328 ], [ -97.715599019838834, 30.313677921297892 ], [ -97.715634952450188, 30.313561597248661 ] ], [ [ -97.71831193199688, 30.314887683224452 ], [ -97.71831193199688, 30.31485666387443 ] ], [ [ -97.721267389281621, 30.314872173550668 ], [ -97.721950108897559, 30.31382526489536 ] ], [ [ -97.721267389281621, 30.314872173550668 ], [ -97.720818231639555, 30.314678302421296 ] ], [ [ -97.71831193199688, 30.31485666387443 ], [ -97.718410746678131, 30.314755850919067 ], [ -97.71852752766506, 30.31454646983423 ], [ -97.718518544512222, 30.31443790168818 ] ], [ [ -97.71831193199688, 30.31485666387443 ], [ -97.717862774354813, 30.31466279271438 ] ], [ [ -97.716075126939415, 30.314841154195737 ], [ -97.716227840537712, 30.314833399355475 ], [ -97.717117172668992, 30.314678302421296 ], [ -97.717224970503082, 30.314678302421296 ] ], [ [ -97.716075126939415, 30.314841154195737 ], [ -97.716102076397931, 30.31470932182777 ], [ -97.716560217192836, 30.314026892617093 ] ], [ [ -97.724043183509551, 30.314833399355475 ], [ -97.723611992173176, 30.314624018436337 ] ], [ [ -97.720818231639555, 30.314678302421296 ], [ -97.721285355587312, 30.313957098452672 ] ], [ [ -97.720818231639555, 30.314678302421296 ], [ -97.720153478329308, 30.314344843181544 ], [ -97.719964832119658, 30.314275049243573 ], [ -97.719910933202613, 30.314228519923976 ] ], [ [ -97.717224970503082, 30.314678302421296 ], [ -97.717377684101379, 30.314631773293172 ], [ -97.717458532476954, 30.314561979559556 ] ], [ [ -97.717862774354813, 30.31466279271438 ], [ -97.717844808049122, 30.314577489282435 ] ], [ [ -97.723611992173176, 30.314624018436337 ], [ -97.723656907937382, 30.314499940643508 ], [ -97.724195897107847, 30.313677921297892 ], [ -97.724249796024893, 30.313538332422247 ] ], [ [ -97.717844808049122, 30.314577489282435 ], [ -97.717584296616735, 30.31458524414295 ], [ -97.717458532476954, 30.314561979559556 ] ], [ [ -97.717844808049122, 30.314577489282435 ], [ -97.717889723813329, 30.31454646983423 ], [ -97.718033454258787, 30.314515450376206 ], [ -97.718518544512222, 30.31443790168818 ] ], [ [ -97.717458532476954, 30.314561979559556 ], [ -97.717422599865586, 30.314453411430691 ], [ -97.717386667254232, 30.314414637069813 ], [ -97.716560217192836, 30.314026892617093 ] ], [ [ -97.718518544512222, 30.31443790168818 ], [ -97.71868922441621, 30.314383617570051 ] ], [ [ -97.71868922441621, 30.314383617570051 ], [ -97.718823971708829, 30.314383617570051 ], [ -97.719497708171914, 30.314275049243573 ], [ -97.719677371228727, 30.31423627481211 ], [ -97.719722286992933, 30.314197500365303 ] ], [ [ -97.71868922441621, 30.314383617570051 ], [ -97.718734140180416, 30.314228519923976 ], [ -97.718940752695758, 30.313933833720149 ], [ -97.718976685307126, 30.313848529653651 ], [ -97.719021601071319, 30.31380975505343 ] ], [ [ -97.719910933202613, 30.314228519923976 ], [ -97.720369073997517, 30.313577107129873 ], [ -97.720629585429904, 30.313150584502196 ] ], [ [ -97.719910933202613, 30.314228519923976 ], [ -97.719875000591244, 30.314205255255896 ], [ -97.719722286992933, 30.314197500365303 ] ], [ [ -97.719722286992933, 30.314197500365303 ], [ -97.71965940492305, 30.314104441630377 ], [ -97.719021601071319, 30.31380975505343 ] ], [ [ -97.716560217192836, 30.314026892617093 ], [ -97.716560217192836, 30.313995872994603 ] ], [ [ -97.722399266539611, 30.31400362790114 ], [ -97.722498081220863, 30.313910568982106 ], [ -97.722659777972012, 30.313677921297892 ], [ -97.723099952461226, 30.312956709966851 ], [ -97.723126901919741, 30.312879160045316 ] ], [ [ -97.722399266539611, 30.31400362790114 ], [ -97.722021974120281, 30.313833019815405 ], [ -97.721950108897559, 30.31382526489536 ] ], [ [ -97.716560217192836, 30.313995872994603 ], [ -97.717242936808773, 30.312941199987463 ] ], [ [ -97.716560217192836, 30.313995872994603 ], [ -97.715715800825762, 30.313623636758763 ], [ -97.715634952450188, 30.313561597248661 ] ], [ [ -97.718365830913925, 30.313941588631604 ], [ -97.718599392887782, 30.313608126884922 ] ], [ [ -97.715167828502445, 30.313910568982106 ], [ -97.715221727419504, 30.313592617008631 ], [ -97.71526664318371, 30.312995484904608 ], [ -97.71529359264224, 30.312956709966851 ], [ -97.715329525253594, 30.312685284973004 ], [ -97.715356474712124, 30.312142432730056 ], [ -97.715374441017801, 30.312119167566735 ] ], [ [ -97.721950108897559, 30.31382526489536 ], [ -97.721869260521984, 30.313763225512901 ], [ -97.721554850172552, 30.313623636758763 ], [ -97.721518917561184, 30.313577107129873 ] ], [ [ -97.719021601071319, 30.31380975505343 ], [ -97.719021601071319, 30.313786490285928 ] ], [ [ -97.719021601071319, 30.313786490285928 ], [ -97.719201264128159, 30.313553842307137 ], [ -97.719686354381565, 30.312708550001933 ] ], [ [ -97.719021601071319, 30.313786490285928 ], [ -97.718599392887782, 30.313608126884922 ] ], [ [ -97.72207587303734, 30.313631391694766 ], [ -97.722390283386773, 30.31313507455349 ] ], [ [ -97.718599392887782, 30.313608126884922 ], [ -97.718599392887782, 30.313577107129873 ] ], [ [ -97.721518917561184, 30.313577107129873 ], [ -97.721932142591868, 30.313026504843769 ], [ -97.72207587303734, 30.312786100058478 ], [ -97.722093839343017, 30.312716305010351 ], [ -97.722264519247005, 30.312452634379945 ] ], [ [ -97.721518917561184, 30.313577107129873 ], [ -97.720665518041258, 30.313189359363253 ], [ -97.720629585429904, 30.313150584502196 ] ], [ [ -97.718599392887782, 30.313577107129873 ], [ -97.719102449446893, 30.312801610062422 ] ], [ [ -97.718599392887782, 30.313577107129873 ], [ -97.718267016232673, 30.313437518110632 ], [ -97.71815023524573, 30.313344458654001 ] ], [ [ -97.715634952450188, 30.313561597248661 ], [ -97.715652918755879, 30.313352213612092 ] ], [ [ -97.724249796024893, 30.313538332422247 ], [ -97.723818604688532, 30.313344458654001 ] ], [ [ -97.715652918755879, 30.313352213612092 ], [ -97.715841564965544, 30.31327466400354 ], [ -97.716012244869532, 30.313096299670967 ], [ -97.716371570983185, 30.312491409517147 ] ], [ [ -97.715652918755879, 30.313352213612092 ], [ -97.715688851367233, 30.312669774950649 ], [ -97.715751733437131, 30.312243248373967 ] ], [ [ -97.71815023524573, 30.313344458654001 ], [ -97.718832954861668, 30.312313043759001 ] ], [ [ -97.71815023524573, 30.313344458654001 ], [ -97.717988538494581, 30.313297928892553 ], [ -97.717701077603678, 30.31314282952815 ] ], [ [ -97.723818604688532, 30.313344458654001 ], [ -97.7238545372999, 30.313228134208952 ], [ -97.72396233513399, 30.31313507455349 ], [ -97.724240812872054, 30.312762835047955 ], [ -97.724357593858997, 30.312468144436664 ] ], [ [ -97.720629585429904, 30.313150584502196 ], [ -97.721204507211738, 30.312297533677732 ], [ -97.721267389281621, 30.31218120798999 ], [ -97.721285355587312, 30.312095902397882 ] ], [ [ -97.720629585429904, 30.313150584502196 ], [ -97.720207377246368, 30.312948954977458 ], [ -97.72014449517647, 30.312886915040227 ] ], [ [ -97.717701077603678, 30.31314282952815 ], [ -97.71779989228493, 30.313026504843769 ], [ -97.71817718470426, 30.312421614259144 ] ], [ [ -97.717701077603678, 30.31314282952815 ], [ -97.717242936808773, 30.312941199987463 ] ], [ [ -97.717242936808773, 30.312941199987463 ], [ -97.717512431394013, 30.31256120472543 ], [ -97.717934639577535, 30.31187100548096 ] ], [ [ -97.717242936808773, 30.312941199987463 ], [ -97.717207004197405, 30.312902425028224 ], [ -97.716407503594539, 30.312530184638998 ], [ -97.716371570983185, 30.312491409517147 ] ], [ [ -97.72014449517647, 30.312886915040227 ], [ -97.720063646800909, 30.312879160045316 ], [ -97.719686354381565, 30.312708550001933 ] ], [ [ -97.72014449517647, 30.312886915040227 ], [ -97.720342124538988, 30.312537939661532 ], [ -97.720719416958318, 30.311995086602398 ] ], [ [ -97.723126901919741, 30.312879160045316 ], [ -97.723180800836801, 30.312848140059522 ], [ -97.723629958478853, 30.312134677676227 ], [ -97.723890469911254, 30.311785699618852 ] ], [ [ -97.723126901919741, 30.312879160045316 ], [ -97.722291468705521, 30.312483654490929 ], [ -97.722264519247005, 30.312452634379945 ] ], [ [ -97.719686354381565, 30.312708550001933 ], [ -97.719677371228727, 30.312654264925836 ] ], [ [ -97.719677371228727, 30.312654264925836 ], [ -97.71974025329861, 30.312514674592101 ], [ -97.719758219604316, 30.312351818951431 ] ], [ [ -97.719677371228727, 30.312654264925836 ], [ -97.719344994573618, 30.312545694683443 ], [ -97.718940752695758, 30.312328553837816 ], [ -97.718832954861668, 30.312313043759001 ] ], [ [ -97.716371570983185, 30.312491409517147 ], [ -97.717027341140579, 30.311483250963946 ], [ -97.717117172668992, 30.311436720318802 ] ], [ [ -97.716371570983185, 30.312491409517147 ], [ -97.716326655218964, 30.312452634379945 ], [ -97.715967329105325, 30.312297533677732 ], [ -97.715778682895646, 30.312266513507836 ], [ -97.715751733437131, 30.312243248373967 ] ], [ [ -97.722264519247005, 30.312452634379945 ], [ -97.72269571058338, 30.311777944536793 ], [ -97.723010120932813, 30.311335903845215 ] ], [ [ -97.722264519247005, 30.312452634379945 ], [ -97.721761462687894, 30.312204473138582 ], [ -97.72138417026855, 30.312057127104204 ] ], [ [ -97.718832954861668, 30.312313043759001 ], [ -97.71877007279177, 30.312243248373967 ], [ -97.71817718470426, 30.311948556200274 ], [ -97.718042437411626, 30.311886515629737 ], [ -97.717934639577535, 30.31187100548096 ] ], [ [ -97.715751733437131, 30.312243248373967 ], [ -97.715751733437131, 30.312219983234581 ] ], [ [ -97.715751733437131, 30.312219983234581 ], [ -97.715769699742808, 30.311777944536793 ] ], [ [ -97.715751733437131, 30.312219983234581 ], [ -97.715634952450188, 30.31218120798999 ], [ -97.715473255699052, 30.312173452939227 ], [ -97.715374441017801, 30.312119167566735 ] ], [ [ -97.715374441017801, 30.312119167566735 ], [ -97.715374441017801, 30.312064882164165 ] ], [ [ -97.721285355587312, 30.312095902397882 ], [ -97.72138417026855, 30.312057127104204 ] ], [ [ -97.721285355587312, 30.312095902397882 ], [ -97.721060776766279, 30.312018351795174 ], [ -97.72003669734238, 30.31151427138176 ], [ -97.719803135368522, 30.311421210098842 ], [ -97.7177729428264, 30.310405285345922 ] ], [ [ -97.715374441017801, 30.312064882164165 ], [ -97.715212744266651, 30.312018351795174 ] ], [ [ -97.715374441017801, 30.312064882164165 ], [ -97.715419356782007, 30.311568557089313 ], [ -97.715356474712124, 30.311483250963946 ], [ -97.715365457864962, 30.311188556504963 ] ], [ [ -97.72138417026855, 30.312057127104204 ], [ -97.721402136574241, 30.31195631126883 ], [ -97.721779428993571, 30.311382434538217 ], [ -97.721824344757778, 30.31125059751734 ] ], [ [ -97.724357593858997, 30.312033861920625 ], [ -97.724285728636261, 30.31195631126883 ], [ -97.724025217203874, 30.311824475019929 ], [ -97.723890469911254, 30.311785699618852 ] ], [ [ -97.717934639577535, 30.31187100548096 ], [ -97.71788074066049, 30.311801209781123 ], [ -97.717117172668992, 30.311436720318802 ] ], [ [ -97.723890469911254, 30.311785699618852 ], [ -97.723863520452738, 30.31173916911731 ], [ -97.723540126950439, 30.311576312187945 ], [ -97.723495211186247, 30.311522026484681 ] ], [ [ -97.715769699742808, 30.311777944536793 ], [ -97.715841564965544, 30.311731414031573 ], [ -97.715850548118397, 30.311700393682489 ], [ -97.715895463882589, 30.310994678088175 ] ], [ [ -97.715769699742808, 30.311777944536793 ], [ -97.715688851367233, 30.31169263859368 ], [ -97.715760716589969, 30.310994678088175 ] ], [ [ -97.723495211186247, 30.311522026484681 ], [ -97.723396396504995, 30.311506516278225 ], [ -97.723099952461226, 30.311359169194482 ], [ -97.723010120932813, 30.311335903845215 ] ], [ [ -97.723495211186247, 30.311522026484681 ], [ -97.723782672077164, 30.311010188375629 ], [ -97.724007250898197, 30.310684471823549 ], [ -97.724097082426596, 30.310599164928654 ] ], [ [ -97.717117172668992, 30.311436720318802 ], [ -97.717144122127522, 30.311328148727565 ], [ -97.717629212380942, 30.310630185626295 ], [ -97.717728027062194, 30.310444061293147 ], [ -97.7177729428264, 30.310405285345922 ] ], [ [ -97.723010120932813, 30.311335903845215 ], [ -97.723010120932813, 30.311304883370941 ] ], [ [ -97.723010120932813, 30.311304883370941 ], [ -97.723046053544181, 30.311281618008795 ], [ -97.723108935614064, 30.311149780852286 ], [ -97.723701823701589, 30.310234670995865 ], [ -97.72382758784137, 30.310095077215813 ], [ -97.723872503605577, 30.310095077215813 ] ], [ [ -97.723010120932813, 30.311304883370941 ], [ -97.722111805648709, 30.310893861159865 ] ], [ [ -97.721824344757778, 30.31125059751734 ], [ -97.721887226827661, 30.311219577016061 ], [ -97.722111805648709, 30.310893861159865 ] ], [ [ -97.721824344757778, 30.31125059751734 ], [ -97.721096709377647, 30.310917126614061 ], [ -97.721024844154911, 30.310862840545671 ], [ -97.720970945237866, 30.310777533806032 ] ], [ [ -97.715365457864962, 30.311188556504963 ], [ -97.715446306240537, 30.311126515453317 ], [ -97.715464272546214, 30.311056719223277 ], [ -97.715518171463259, 30.310296712612072 ] ], [ [ -97.715365457864962, 30.311188556504963 ], [ -97.715221727419504, 30.311072229500912 ], [ -97.715203761113813, 30.311002433232211 ], [ -97.715167828502445, 30.310971412652385 ] ], [ [ -97.715895463882589, 30.310994678088175 ], [ -97.715895463882589, 30.310901616311881 ], [ -97.715850548118397, 30.310855085390592 ] ], [ [ -97.715760716589969, 30.310994678088175 ], [ -97.715769699742808, 30.310909371463275 ], [ -97.715850548118397, 30.310855085390592 ] ], [ [ -97.722111805648709, 30.310893861159865 ], [ -97.722542996985069, 30.310188139757933 ], [ -97.722596895902129, 30.310064056348804 ], [ -97.722650794819174, 30.310040790692099 ] ], [ [ -97.715850548118397, 30.310855085390592 ], [ -97.715859531271235, 30.310699982160102 ] ], [ [ -97.720970945237866, 30.310777533806032 ], [ -97.720746366416833, 30.310723247660327 ], [ -97.720566703360021, 30.310614675278707 ], [ -97.719803135368522, 30.310281202211698 ], [ -97.719578556547475, 30.310126098073006 ] ], [ [ -97.720970945237866, 30.310777533806032 ], [ -97.721060776766279, 30.310653451143086 ], [ -97.721258406128783, 30.310475082039893 ] ], [ [ -97.724357593858997, 30.310738757990741 ], [ -97.724097082426596, 30.310599164928654 ] ], [ [ -97.721833327910616, 30.310738757990741 ], [ -97.721258406128783, 30.310475082039893 ] ], [ [ -97.715859531271235, 30.310699982160102 ], [ -97.715922413341119, 30.310661206314119 ], [ -97.715985295411002, 30.310498347593498 ], [ -97.716093093245092, 30.310358754188996 ], [ -97.716299705760434, 30.309994259362128 ], [ -97.716344621524641, 30.309970993688861 ] ], [ [ -97.715859531271235, 30.310699982160102 ], [ -97.715796649201337, 30.310645695971441 ], [ -97.715823598659867, 30.310211405379661 ] ], [ [ -97.724097082426596, 30.310599164928654 ], [ -97.724159964496494, 30.310475082039893 ] ], [ [ -97.721258406128783, 30.310475082039893 ], [ -97.72127637243446, 30.310374264577096 ], [ -97.721366203962873, 30.310180384549472 ], [ -97.721465018644139, 30.310033035471978 ] ], [ [ -97.7177729428264, 30.310405285345922 ], [ -97.718024471105949, 30.310017525029874 ], [ -97.718087353175846, 30.309986504138315 ] ], [ [ -97.7177729428264, 30.310405285345922 ], [ -97.716982425376386, 30.310025280251232 ], [ -97.71677581286103, 30.309970993688861 ] ], [ [ -97.715518171463259, 30.310296712612072 ], [ -97.715221727419504, 30.310219160585675 ], [ -97.715176811655297, 30.310180384549472 ] ], [ [ -97.715518171463259, 30.310296712612072 ], [ -97.715545120921789, 30.310056301130519 ], [ -97.715616986144511, 30.310002014585329 ] ], [ [ -97.719578556547475, 30.310126098073006 ], [ -97.719425842949178, 30.310126098073006 ], [ -97.719255163045204, 30.310017525029874 ] ] ] } }
]
}
