{
"type": "FeatureCollection",
"name": "gee_batch_1_32.77897_-96.81407",
"crs": { "type": "name", "properties": { "name": "urn:ogc:def:crs:OGC:1.3:CRS84" } },
"features": [
{ "type": "Feature", "properties": { "weight": 35.627416997969512, "nodes": "0-5" }, "geometry": { "type": "LineString", "coordinates": [ [ -96.815206300947509, 32.782833892639147 ], [ -96.814945789515122, 32.782713054222903 ] ] } },
{ "type": "Feature", "properties": { "weight": 27.44927141309622, "nodes": "1-5" }, "geometry": { "type": "LineString", "coordinates": [ [ -96.814757143305457, 32.782833892639147 ], [ -96.814802059069663, 32.782826340242949 ], [ -96.814945789515122, 32.782713054222903 ] ] } },
{ "type": "Feature", "properties": { "weight": 48.355339059327378, "nodes": "2-8" }, "geometry": { "type": "LineString", "coordinates": [ [ -96.813212041016783, 32.782833892639147 ], [ -96.813265939933828, 32.782803683050474 ], [ -96.81331085569802, 32.782735711438455 ], [ -96.813427636684963, 32.782629977716532 ], [ -96.813454586143479, 32.782562005971791 ] ] } },
{ "type": "Feature", "properties": { "weight": 99.461464721915988, "nodes": "3-15" }, "geometry": { "type": "LineString", "coordinates": [ [ -96.812358641496857, 32.782833892639147 ], [ -96.812304742579812, 32.782796130651704 ], [ -96.812143045828677, 32.782403405032113 ], [ -96.811945416466159, 32.782229698916616 ] ] } },
{ "type": "Feature", "properties": { "weight": 96.561969785304314, "nodes": "4-19" }, "geometry": { "type": "LineString", "coordinates": [ [ -96.812646102387774, 32.782811235448605 ], [ -96.81261016977642, 32.782781025852245 ], [ -96.812502371942315, 32.78249403417513 ], [ -96.812493388789477, 32.782395852599365 ], [ -96.812457456178109, 32.78233543311427 ], [ -96.812304742579812, 32.782199489122782 ] ] } },
{ "type": "Feature", "properties": { "weight": 126.59797974644667, "nodes": "5-25" }, "geometry": { "type": "LineString", "coordinates": [ [ -96.814945789515122, 32.782713054222903 ], [ -96.814909856903768, 32.782448719615161 ], [ -96.814820025375354, 32.782229698916616 ], [ -96.814784092763972, 32.781950257932202 ], [ -96.814757143305457, 32.781897390620202 ], [ -96.814694261235559, 32.781844523276789 ] ] } },
{ "type": "Feature", "properties": { "weight": 22.313708498984763, "nodes": "6-7" }, "geometry": { "type": "LineString", "coordinates": [ [ -96.80965471249165, 32.782682844593204 ], [ -96.809825392395652, 32.782622425303018 ] ] } },
{ "type": "Feature", "properties": { "weight": 170.49747468305833, "nodes": "7-11" }, "geometry": { "type": "LineString", "coordinates": [ [ -96.809825392395652, 32.782622425303018 ], [ -96.809897257618374, 32.782667739774496 ], [ -96.810121836439393, 32.782652634953237 ], [ -96.810517095164414, 32.782562005971791 ], [ -96.811226764238867, 32.782448719615161 ] ] } },
{ "type": "Feature", "properties": { "weight": 175.81118318204307, "nodes": "7-16" }, "geometry": { "type": "LineString", "coordinates": [ [ -96.809825392395652, 32.782622425303018 ], [ -96.80992420707689, 32.78247137689803 ], [ -96.810032004910994, 32.782418509895692 ], [ -96.810517095164414, 32.782297670915248 ], [ -96.810957269653642, 32.782237251363476 ], [ -96.811163882168984, 32.782229698916616 ] ] } },
{ "type": "Feature", "properties": { "weight": 87.461464721915959, "nodes": "8-18" }, "geometry": { "type": "LineString", "coordinates": [ [ -96.813454586143479, 32.782562005971791 ], [ -96.813535434519054, 32.782531796290797 ], [ -96.813724080728718, 32.782395852599365 ], [ -96.814011541619635, 32.782259908700205 ], [ -96.81406544053668, 32.782214594020978 ] ] } },
{ "type": "Feature", "properties": { "weight": 21.556349186104047, "nodes": "8-9" }, "geometry": { "type": "LineString", "coordinates": [ [ -96.813454586143479, 32.782562005971791 ], [ -96.813301872545182, 32.782478929324363 ] ] } },
{ "type": "Feature", "properties": { "weight": 333.1843361493905, "nodes": "10-20" }, "geometry": { "type": "LineString", "coordinates": [ [ -96.809510982046191, 32.78247137689803 ], [ -96.809493015740514, 32.782441167186256 ], [ -96.809564880963237, 32.782267461144492 ], [ -96.809753527172916, 32.782123964593303 ], [ -96.810148785897923, 32.781882285668146 ], [ -96.810310482649072, 32.781821865834281 ], [ -96.810579977234298, 32.781761445959368 ], [ -96.810903370736597, 32.781761445959368 ], [ -96.811298629461589, 32.781829418315752 ], [ -96.811648972422404, 32.781980467810669 ], [ -96.811702871339449, 32.782071097384531 ], [ -96.811801686020701, 32.78214662195888 ] ] } },
{ "type": "Feature", "properties": { "weight": 33.620844288350028, "nodes": "11-13" }, "geometry": { "type": "LineString", "coordinates": [ [ -96.811226764238867, 32.782448719615161 ], [ -96.811334562072958, 32.782441167186256 ], [ -96.8114513430599, 32.78232032823658 ] ] } },
{ "type": "Feature", "properties": { "weight": 15.721349351738361, "nodes": "11-12" }, "geometry": { "type": "LineString", "coordinates": [ [ -96.811226764238867, 32.782448719615161 ], [ -96.811163882168984, 32.782388300165969 ], [ -96.811163882168984, 32.782350537989387 ] ] } },
{ "type": "Feature", "properties": { "weight": 51.970562748477121, "nodes": "13-17" }, "geometry": { "type": "LineString", "coordinates": [ [ -96.8114513430599, 32.78232032823658 ], [ -96.811801686020701, 32.782275013588141 ], [ -96.811873551243423, 32.782229698916616 ] ] } },
{ "type": "Feature", "properties": { "weight": 38.627416997969519, "nodes": "13-16" }, "geometry": { "type": "LineString", "coordinates": [ [ -96.8114513430599, 32.78232032823658 ], [ -96.811325578920119, 32.782214594020978 ], [ -96.811163882168984, 32.782229698916616 ] ] } },
{ "type": "Feature", "properties": { "weight": 41.656854249492383, "nodes": "15-19" }, "geometry": { "type": "LineString", "coordinates": [ [ -96.811945416466159, 32.782229698916616 ], [ -96.81199033223038, 32.7822070415722 ], [ -96.812304742579812, 32.782199489122782 ] ] } },
{ "type": "Feature", "properties": { "weight": 8.0, "nodes": "15-17" }, "geometry": { "type": "LineString", "coordinates": [ [ -96.811945416466159, 32.782229698916616 ], [ -96.811873551243423, 32.782229698916616 ] ] } },
{ "type": "Feature", "properties": { "weight": 14.313708498984761, "nodes": "17-20" }, "geometry": { "type": "LineString", "coordinates": [ [ -96.811873551243423, 32.782229698916616 ], [ -96.811801686020701, 32.78216927931868 ], [ -96.811801686020701, 32.78214662195888 ] ] } },
{ "type": "Feature", "properties": { "weight": 36.549776476484553, "nodes": "19-21" }, "geometry": { "type": "LineString", "coordinates": [ [ -96.812304742579812, 32.782199489122782 ], [ -96.81258322031789, 32.782139069504332 ], [ -96.812592203470729, 32.782123964593303 ] ] } },
{ "type": "Feature", "properties": { "weight": 41.79241716360383, "nodes": "20-24" }, "geometry": { "type": "LineString", "coordinates": [ [ -96.811801686020701, 32.78214662195888 ], [ -96.811900500701952, 32.782071097384531 ], [ -96.811900500701952, 32.781874733191152 ] ] } },
{ "type": "Feature", "properties": { "weight": 88.863484975469319, "nodes": "21-22" }, "geometry": { "type": "LineString", "coordinates": [ [ -96.812592203470729, 32.782123964593303 ], [ -96.812771866527555, 32.782116412136837 ], [ -96.813212041016783, 32.782055992461963 ], [ -96.813274923086666, 32.782018230144331 ], [ -96.813301872545182, 32.781972915342017 ] ] } },
{ "type": "Feature", "properties": { "weight": 58.34876634970788, "nodes": "21-27" }, "geometry": { "type": "LineString", "coordinates": [ [ -96.812592203470729, 32.782123964593303 ], [ -96.812421523566741, 32.781965362872718 ], [ -96.812385590955373, 32.781753893472121 ] ] } },
{ "type": "Feature", "properties": { "weight": 129.04163056034264, "nodes": "22-26" }, "geometry": { "type": "LineString", "coordinates": [ [ -96.813301872545182, 32.781972915342017 ], [ -96.814128322606564, 32.781852075756341 ], [ -96.814397817191818, 32.781844523276789 ] ] } },
{ "type": "Feature", "properties": { "weight": 115.89854282619244, "nodes": "22-27" }, "geometry": { "type": "LineString", "coordinates": [ [ -96.813301872545182, 32.781972915342017 ], [ -96.813032377959942, 32.781753893472121 ], [ -96.812385590955373, 32.781753893472121 ] ] } },
{ "type": "Feature", "properties": { "weight": 32.828427124746192, "nodes": "24-29" }, "geometry": { "type": "LineString", "coordinates": [ [ -96.811900500701952, 32.781874733191152 ], [ -96.811918467007629, 32.781633053588962 ] ] } },
{ "type": "Feature", "properties": { "weight": 33.0, "nodes": "25-26" }, "geometry": { "type": "LineString", "coordinates": [ [ -96.814694261235559, 32.781844523276789 ], [ -96.814397817191818, 32.781844523276789 ] ] } },
{ "type": "Feature", "properties": { "weight": 159.74011537017762, "nodes": "25-31" }, "geometry": { "type": "LineString", "coordinates": [ [ -96.814694261235559, 32.781844523276789 ], [ -96.814766126458295, 32.781806760869394 ], [ -96.815251216711715, 32.781761445959368 ], [ -96.815457829227071, 32.781723683516717 ], [ -96.815754273270827, 32.781708578535167 ], [ -96.815942919480506, 32.781519766049428 ] ] } },
{ "type": "Feature", "properties": { "weight": 375.49242404917504, "nodes": "26-65" }, "geometry": { "type": "LineString", "coordinates": [ [ -96.814397817191818, 32.781844523276789 ], [ -96.814424766650333, 32.781685921058035 ], [ -96.814352901427611, 32.781451793456476 ], [ -96.81422713728783, 32.781240322835167 ], [ -96.814083406842371, 32.781059061902553 ], [ -96.813921710091222, 32.78074185438188 ], [ -96.813679164964526, 32.77998659382834 ], [ -96.813643232353144, 32.779797777688216 ], [ -96.81358035028326, 32.779669382484052 ], [ -96.813526451366215, 32.779488118350983 ], [ -96.813508485060524, 32.77933706462467 ] ] } },
{ "type": "Feature", "properties": { "weight": 12.135562914111457, "nodes": "27-28" }, "geometry": { "type": "LineString", "coordinates": [ [ -96.812385590955373, 32.781753893472121 ], [ -96.812304742579812, 32.781693473551059 ] ] } },
{ "type": "Feature", "properties": { "weight": 46.135562914111446, "nodes": "28-29" }, "geometry": { "type": "LineString", "coordinates": [ [ -96.812304742579812, 32.781693473551059 ], [ -96.812062197453102, 32.781670816070076 ], [ -96.811918467007629, 32.781633053588962 ] ] } },
{ "type": "Feature", "properties": { "weight": 140.60360034564698, "nodes": "28-42" }, "geometry": { "type": "LineString", "coordinates": [ [ -96.812304742579812, 32.781693473551059 ], [ -96.812286776274135, 32.781549976074089 ], [ -96.812232877357076, 32.781414030882395 ], [ -96.812187961592883, 32.781210112705374 ], [ -96.812134062675838, 32.781096824627305 ], [ -96.811783719715024, 32.780824932651377 ] ] } },
{ "type": "Feature", "properties": { "weight": 59.012193308819739, "nodes": "29-37" }, "geometry": { "type": "LineString", "coordinates": [ [ -96.811918467007629, 32.781633053588962 ], [ -96.811873551243423, 32.781549976074089 ], [ -96.811657955575242, 32.781278085482981 ] ] } },
{ "type": "Feature", "properties": { "weight": 20.828427124746192, "nodes": "30-35" }, "geometry": { "type": "LineString", "coordinates": [ [ -96.810049971216671, 32.781549976074089 ], [ -96.810049971216671, 32.781398925848272 ] ] } },
{ "type": "Feature", "properties": { "weight": 39.313708498984752, "nodes": "32-39" }, "geometry": { "type": "LineString", "coordinates": [ [ -96.809906240771213, 32.781489556014527 ], [ -96.809888274465536, 32.781278085482981 ], [ -96.80992420707689, 32.781217665238785 ] ] } },
{ "type": "Feature", "properties": { "weight": 72.834047723946441, "nodes": "33-37" }, "geometry": { "type": "LineString", "coordinates": [ [ -96.811109983251939, 32.78142158339849 ], [ -96.811172865321822, 32.781444240942939 ], [ -96.811334562072958, 32.781459345969367 ], [ -96.811657955575242, 32.781278085482981 ] ] } },
{ "type": "Feature", "properties": { "weight": 175.92388155425118, "nodes": "33-45" }, "geometry": { "type": "LineString", "coordinates": [ [ -96.811109983251939, 32.78142158339849 ], [ -96.810930320195112, 32.781406478365646 ], [ -96.810741673985433, 32.78135361073052 ], [ -96.810579977234298, 32.781293190537617 ], [ -96.810481162553046, 32.781232770303681 ], [ -96.810337432107588, 32.781111929712715 ], [ -96.810220651120645, 32.780953326187984 ], [ -96.810148785897923, 32.780756959527558 ], [ -96.810139802745084, 32.780636118290346 ] ] } },
{ "type": "Feature", "properties": { "weight": 192.18376618407359, "nodes": "33-52" }, "geometry": { "type": "LineString", "coordinates": [ [ -96.811109983251939, 32.78142158339849 ], [ -96.811092016946247, 32.780364224906513 ], [ -96.811011168570687, 32.780228277903007 ], [ -96.810903370736597, 32.780137646451948 ], [ -96.810804556055331, 32.780107435947741 ] ] } },
{ "type": "Feature", "properties": { "weight": 56.970562748477136, "nodes": "34-36" }, "geometry": { "type": "LineString", "coordinates": [ [ -96.815502744991278, 32.781414030882395 ], [ -96.815898003716285, 32.78135361073052 ], [ -96.815960885786183, 32.781315848114765 ] ] } },
{ "type": "Feature", "properties": { "weight": 66.028485141103616, "nodes": "37-42" }, "geometry": { "type": "LineString", "coordinates": [ [ -96.811657955575242, 32.781278085482981 ], [ -96.81169388818661, 32.780900458283583 ], [ -96.811783719715024, 32.780824932651377 ] ] } },
{ "type": "Feature", "properties": { "weight": 57.206630725976922, "nodes": "39-41" }, "geometry": { "type": "LineString", "coordinates": [ [ -96.80992420707689, 32.781217665238785 ], [ -96.809906240771213, 32.78113458733602 ], [ -96.80983437554849, 32.781021299161779 ], [ -96.809807426089961, 32.780824932651377 ] ] } },
{ "type": "Feature", "properties": { "weight": 17.142135623730951, "nodes": "40-41" }, "geometry": { "type": "LineString", "coordinates": [ [ -96.80992420707689, 32.780900458283583 ], [ -96.80983437554849, 32.780824932651377 ], [ -96.809807426089961, 32.780824932651377 ] ] } },
{ "type": "Feature", "properties": { "weight": 60.526911934581179, "nodes": "41-46" }, "geometry": { "type": "LineString", "coordinates": [ [ -96.809807426089961, 32.780824932651377 ], [ -96.8097265777144, 32.780824932651377 ], [ -96.809645729338811, 32.780794722380527 ], [ -96.809519965199044, 32.780658776034819 ], [ -96.809475049434838, 32.78054548725472 ] ] } },
{ "type": "Feature", "properties": { "weight": 63.549776476484539, "nodes": "41-48" }, "geometry": { "type": "LineString", "coordinates": [ [ -96.809807426089961, 32.780824932651377 ], [ -96.809816409242799, 32.780477513917418 ], [ -96.80983437554849, 32.780409540528183 ], [ -96.809879291312697, 32.780379330116297 ] ] } },
{ "type": "Feature", "properties": { "weight": 12.414213562373096, "nodes": "42-43" }, "geometry": { "type": "LineString", "coordinates": [ [ -96.811783719715024, 32.780824932651377 ], [ -96.811792702867862, 32.780734301808081 ] ] } },
{ "type": "Feature", "properties": { "weight": 125.38477631085024, "nodes": "43-44" }, "geometry": { "type": "LineString", "coordinates": [ [ -96.811792702867862, 32.780734301808081 ], [ -96.812385590955373, 32.78074185438188 ], [ -96.812771866527555, 32.780666328615034 ], [ -96.812870681208807, 32.780666328615034 ] ] } },
{ "type": "Feature", "properties": { "weight": 77.071067811865476, "nodes": "43-50" }, "geometry": { "type": "LineString", "coordinates": [ [ -96.811792702867862, 32.780734301808081 ], [ -96.811792702867862, 32.780613460540089 ], [ -96.811837618632069, 32.780515276888991 ], [ -96.811837618632069, 32.780167856945894 ] ] } },
{ "type": "Feature", "properties": { "weight": 22.792417163603837, "nodes": "47-48" }, "geometry": { "type": "LineString", "coordinates": [ [ -96.809996072299626, 32.780507724295958 ], [ -96.809978105993949, 32.780454856126781 ], [ -96.809879291312697, 32.780379330116297 ] ] } },
{ "type": "Feature", "properties": { "weight": 27.485281374238571, "nodes": "48-49" }, "geometry": { "type": "LineString", "coordinates": [ [ -96.809879291312697, 32.780379330116297 ], [ -96.809933190229742, 32.780190514809625 ] ] } },
{ "type": "Feature", "properties": { "weight": 60.005620599200242, "nodes": "49-55" }, "geometry": { "type": "LineString", "coordinates": [ [ -96.809933190229742, 32.780190514809625 ], [ -96.810085903828039, 32.780122541201123 ], [ -96.810157769050761, 32.77998659382834 ], [ -96.810256583732027, 32.779888409485487 ] ] } },
{ "type": "Feature", "properties": { "weight": 52.313708498984759, "nodes": "49-58" }, "geometry": { "type": "LineString", "coordinates": [ [ -96.809933190229742, 32.780190514809625 ], [ -96.809870308159844, 32.780122541201123 ], [ -96.809879291312697, 32.77982043564618 ] ] } },
{ "type": "Feature", "properties": { "weight": 56.147756222931207, "nodes": "50-56" }, "geometry": { "type": "LineString", "coordinates": [ [ -96.811837618632069, 32.780167856945894 ], [ -96.812161012134354, 32.779903514776052 ], [ -96.812161012134354, 32.779865751544818 ] ] } },
{ "type": "Feature", "properties": { "weight": 38.313708498984752, "nodes": "50-54" }, "geometry": { "type": "LineString", "coordinates": [ [ -96.811837618632069, 32.780167856945894 ], [ -96.811783719715024, 32.780122541201123 ], [ -96.811783719715024, 32.7799261727071 ], [ -96.811765753409333, 32.779903514776052 ] ] } },
{ "type": "Feature", "properties": { "weight": 64.66904755831213, "nodes": "51-59" }, "geometry": { "type": "LineString", "coordinates": [ [ -96.809475049434838, 32.780175409567775 ], [ -96.809510982046191, 32.78008477806285 ], [ -96.809600813574605, 32.780009251738228 ], [ -96.809681661950179, 32.779895962131086 ], [ -96.809807426089961, 32.77982043564618 ] ] } },
{ "type": "Feature", "properties": { "weight": 38.177193474454072, "nodes": "53-54" }, "geometry": { "type": "LineString", "coordinates": [ [ -96.811514225129784, 32.780092330691787 ], [ -96.811765753409333, 32.779903514776052 ] ] } },
{ "type": "Feature", "properties": { "weight": 27.0, "nodes": "54-61" }, "geometry": { "type": "LineString", "coordinates": [ [ -96.811765753409333, 32.779903514776052 ], [ -96.811765753409333, 32.779699593136996 ] ] } },
{ "type": "Feature", "properties": { "weight": 103.70410540903526, "nodes": "55-63" }, "geometry": { "type": "LineString", "coordinates": [ [ -96.810256583732027, 32.779888409485487 ], [ -96.810364381566117, 32.779850646247837 ], [ -96.810544044622944, 32.779722251119971 ], [ -96.810714724526918, 32.779639171820854 ], [ -96.810921337042274, 32.779586303135567 ], [ -96.810993202264996, 32.779510776387809 ] ] } },
{ "type": "Feature", "properties": { "weight": 122.28427124746192, "nodes": "58-70" }, "geometry": { "type": "LineString", "coordinates": [ [ -96.809879291312697, 32.77982043564618 ], [ -96.809915223924051, 32.779782672379689 ], [ -96.809942173382581, 32.779457907626238 ], [ -96.809870308159844, 32.779231326863666 ], [ -96.80983437554849, 32.77896698191141 ] ] } },
{ "type": "Feature", "properties": { "weight": 8.0, "nodes": "58-59" }, "geometry": { "type": "LineString", "coordinates": [ [ -96.809879291312697, 32.77982043564618 ], [ -96.809807426089961, 32.77982043564618 ] ] } },
{ "type": "Feature", "properties": { "weight": 30.035057850723124, "nodes": "61-62" }, "geometry": { "type": "LineString", "coordinates": [ [ -96.811765753409333, 32.779699593136996 ], [ -96.811909483854791, 32.779593855806816 ], [ -96.811918467007629, 32.779533434418866 ] ] } },
{ "type": "Feature", "properties": { "weight": 38.526911934581179, "nodes": "61-64" }, "geometry": { "type": "LineString", "coordinates": [ [ -96.811765753409333, 32.779699593136996 ], [ -96.811559140893991, 32.779548539769699 ], [ -96.811532191435475, 32.779503223709504 ] ] } },
{ "type": "Feature", "properties": { "weight": 188.5979797464467, "nodes": "62-65" }, "geometry": { "type": "LineString", "coordinates": [ [ -96.811918467007629, 32.779533434418866 ], [ -96.812358641496857, 32.779503223709504 ], [ -96.813077293724149, 32.779389933458056 ], [ -96.813212041016783, 32.779352170008842 ], [ -96.813409670379272, 32.779329511931621 ], [ -96.813508485060524, 32.77933706462467 ] ] } },
{ "type": "Feature", "properties": { "weight": 39.414213562373092, "nodes": "62-67" }, "geometry": { "type": "LineString", "coordinates": [ [ -96.811918467007629, 32.779533434418866 ], [ -96.811927450160482, 32.77923887956505 ] ] } },
{ "type": "Feature", "properties": { "weight": 61.064495102245985, "nodes": "63-64" }, "geometry": { "type": "LineString", "coordinates": [ [ -96.810993202264996, 32.779510776387809 ], [ -96.811496258824107, 32.779518329065468 ], [ -96.811532191435475, 32.779503223709504 ] ] } },
{ "type": "Feature", "properties": { "weight": 161.16652224137044, "nodes": "63-70" }, "geometry": { "type": "LineString", "coordinates": [ [ -96.810993202264996, 32.779510776387809 ], [ -96.810939303347951, 32.779435249575947 ], [ -96.810562010928621, 32.779299301153017 ], [ -96.810085903828039, 32.779034956402718 ], [ -96.80983437554849, 32.77896698191141 ] ] } },
{ "type": "Feature", "properties": { "weight": 144.86348497546931, "nodes": "64-74" }, "geometry": { "type": "LineString", "coordinates": [ [ -96.811532191435475, 32.779503223709504 ], [ -96.811523208282637, 32.779284195759871 ], [ -96.811406427295694, 32.778717741665687 ], [ -96.811379477837164, 32.778460947955033 ] ] } },
{ "type": "Feature", "properties": { "weight": 7.8284271247461898, "nodes": "65-66" }, "geometry": { "type": "LineString", "coordinates": [ [ -96.813508485060524, 32.77933706462467 ], [ -96.813526451366215, 32.779284195759871 ] ] } },
{ "type": "Feature", "properties": { "weight": 213.8046104724236, "nodes": "66-69" }, "geometry": { "type": "LineString", "coordinates": [ [ -96.813526451366215, 32.779284195759871 ], [ -96.813571367130422, 32.779261537665349 ], [ -96.814002558466797, 32.77920111605173 ], [ -96.814703244388411, 32.779034956402718 ], [ -96.815296132475922, 32.778974534635239 ] ] } },
{ "type": "Feature", "properties": { "weight": 51.721349351738361, "nodes": "66-71" }, "geometry": { "type": "LineString", "coordinates": [ [ -96.813526451366215, 32.779284195759871 ], [ -96.813499501907685, 32.779269090364167 ], [ -96.813481535602008, 32.778989640080951 ], [ -96.813454586143479, 32.778921665555032 ] ] } },
{ "type": "Feature", "properties": { "weight": 231.93455278733478, "nodes": "67-84" }, "geometry": { "type": "LineString", "coordinates": [ [ -96.811927450160482, 32.77923887956505 ], [ -96.811981349077541, 32.77920111605173 ], [ -96.812044231147425, 32.778370314703729 ], [ -96.812089146911632, 32.778121072786668 ], [ -96.812107113217309, 32.777607481180276 ], [ -96.812080163758779, 32.77756216413151 ] ] } },
{ "type": "Feature", "properties": { "weight": 41.863484975469305, "nodes": "67-68" }, "geometry": { "type": "LineString", "coordinates": [ [ -96.811927450160482, 32.77923887956505 ], [ -96.811783719715024, 32.77912558897701 ], [ -96.811765753409333, 32.778982087358415 ] ] } },
{ "type": "Feature", "properties": { "weight": 83.834047723946441, "nodes": "70-76" }, "geometry": { "type": "LineString", "coordinates": [ [ -96.80983437554849, 32.77896698191141 ], [ -96.809663695644488, 32.7787857163474 ], [ -96.809618779880296, 32.778710188920073 ], [ -96.809618779880296, 32.77849871178249 ], [ -96.809663695644488, 32.778423184111546 ] ] } },
{ "type": "Feature", "properties": { "weight": 314.56170580563025, "nodes": "71-75" }, "geometry": { "type": "LineString", "coordinates": [ [ -96.813454586143479, 32.778921665555032 ], [ -96.814972738973651, 32.778627108675963 ], [ -96.815933936327667, 32.778528922832919 ], [ -96.815987835244712, 32.77851381730899 ], [ -96.816041734161757, 32.778453395187618 ] ] } },
{ "type": "Feature", "properties": { "weight": 280.17719347445404, "nodes": "71-91" }, "geometry": { "type": "LineString", "coordinates": [ [ -96.813454586143479, 32.778921665555032 ], [ -96.813427636684963, 32.778876349175569 ], [ -96.813427636684963, 32.778491159018287 ], [ -96.813382720920757, 32.777894488619857 ], [ -96.813400687226434, 32.777025910635345 ], [ -96.813391704073595, 32.776973040397323 ], [ -96.813283906239505, 32.776882405630495 ] ] } },
{ "type": "Feature", "properties": { "weight": 72.76955262170047, "nodes": "73-74" }, "geometry": { "type": "LineString", "coordinates": [ [ -96.811765753409333, 32.778800821825172 ], [ -96.811720837645126, 32.778664872432898 ], [ -96.811648972422404, 32.778559133873088 ], [ -96.811496258824107, 32.778476053487935 ], [ -96.811379477837164, 32.778460947955033 ] ] } },
{ "type": "Feature", "properties": { "weight": 37.071067811865476, "nodes": "74-79" }, "geometry": { "type": "LineString", "coordinates": [ [ -96.811379477837164, 32.778460947955033 ], [ -96.811334562072958, 32.778196600714054 ] ] } },
{ "type": "Feature", "properties": { "weight": 93.934552787334795, "nodes": "76-77" }, "geometry": { "type": "LineString", "coordinates": [ [ -96.809663695644488, 32.778423184111546 ], [ -96.810076920675186, 32.778362761928634 ], [ -96.810427263636001, 32.7782570230098 ] ] } },
{ "type": "Feature", "properties": { "weight": 35.698484809834994, "nodes": "76-78" }, "geometry": { "type": "LineString", "coordinates": [ [ -96.809663695644488, 32.778423184111546 ], [ -96.809510982046191, 32.778294786923809 ], [ -96.809475049434838, 32.778219259079769 ] ] } },
{ "type": "Feature", "properties": { "weight": 110.31932909818501, "nodes": "77-80" }, "geometry": { "type": "LineString", "coordinates": [ [ -96.810427263636001, 32.7782570230098 ], [ -96.810535061470091, 32.778347656376489 ], [ -96.810660825609872, 32.778355209152878 ], [ -96.811145915863293, 32.778279681360125 ], [ -96.811289646308751, 32.778189047924194 ] ] } },
{ "type": "Feature", "properties": { "weight": 113.84624103276622, "nodes": "77-81" }, "geometry": { "type": "LineString", "coordinates": [ [ -96.810427263636001, 32.7782570230098 ], [ -96.810472179400207, 32.77816638955079 ], [ -96.810885404430906, 32.777856724535958 ], [ -96.811172865321822, 32.777766090669225 ] ] } },
{ "type": "Feature", "properties": { "weight": 125.81680378124338, "nodes": "79-84" }, "geometry": { "type": "LineString", "coordinates": [ [ -96.811334562072958, 32.778196600714054 ], [ -96.811460326212739, 32.778090861597761 ], [ -96.811550157741152, 32.778053097597208 ], [ -96.811747787103656, 32.777879382988225 ], [ -96.811900500701952, 32.777652798205963 ], [ -96.812080163758779, 32.77756216413151 ] ] } },
{ "type": "Feature", "properties": { "weight": 5.2360679774997898, "nodes": "79-80" }, "geometry": { "type": "LineString", "coordinates": [ [ -96.811334562072958, 32.778196600714054 ], [ -96.811289646308751, 32.778189047924194 ] ] } },
{ "type": "Feature", "properties": { "weight": 61.206630725976915, "nodes": "80-81" }, "geometry": { "type": "LineString", "coordinates": [ [ -96.811289646308751, 32.778189047924194 ], [ -96.811244730544544, 32.777856724535958 ], [ -96.811226764238867, 32.777811407614131 ], [ -96.811172865321822, 32.777766090669225 ] ] } },
{ "type": "Feature", "properties": { "weight": 46.242640687119291, "nodes": "81-85" }, "geometry": { "type": "LineString", "coordinates": [ [ -96.811172865321822, 32.777766090669225 ], [ -96.811199814780338, 32.777426212846727 ] ] } },
{ "type": "Feature", "properties": { "weight": 95.112698372208087, "nodes": "82-89" }, "geometry": { "type": "LineString", "coordinates": [ [ -96.812331692038327, 32.777630139696008 ], [ -96.812349658344019, 32.777607481180276 ], [ -96.812421523566741, 32.777124098136895 ], [ -96.812457456178109, 32.777056122185826 ], [ -96.812538304553684, 32.776988146182816 ] ] } },
{ "type": "Feature", "properties": { "weight": 96.218824034796683, "nodes": "83-88" }, "geometry": { "type": "LineString", "coordinates": [ [ -96.810687775068388, 32.777622586858072 ], [ -96.810508112011576, 32.77756216413151 ], [ -96.810391331024647, 32.777471529964735 ], [ -96.810310482649072, 32.77735823712645 ], [ -96.810247600579174, 32.777184521160919 ], [ -96.810175735356438, 32.777139203896745 ] ] } },
{ "type": "Feature", "properties": { "weight": 52.071067811865476, "nodes": "84-87" }, "geometry": { "type": "LineString", "coordinates": [ [ -96.812080163758779, 32.77756216413151 ], [ -96.812089146911632, 32.777222285530101 ], [ -96.812053214300263, 32.777184521160919 ] ] } },
{ "type": "Feature", "properties": { "weight": 108.25483399593904, "nodes": "85-87" }, "geometry": { "type": "LineString", "coordinates": [ [ -96.811199814780338, 32.777426212846727 ], [ -96.811523208282637, 32.777350684265436 ], [ -96.811774736562185, 32.777222285530101 ], [ -96.812053214300263, 32.777184521160919 ] ] } },
{ "type": "Feature", "properties": { "weight": 115.04163056034263, "nodes": "85-95" }, "geometry": { "type": "LineString", "coordinates": [ [ -96.811199814780338, 32.777426212846727 ], [ -96.811154899016131, 32.777380895705647 ], [ -96.811127949557616, 32.777056122185826 ], [ -96.811047101182041, 32.776610500776115 ] ] } },
{ "type": "Feature", "properties": { "weight": 36.135562914111453, "nodes": "86-88" }, "geometry": { "type": "LineString", "coordinates": [ [ -96.810112853286554, 32.777380895705647 ], [ -96.810112853286554, 32.777199626910516 ], [ -96.810175735356438, 32.777139203896745 ] ] } },
{ "type": "Feature", "properties": { "weight": 120.21320343559643, "nodes": "87-99" }, "geometry": { "type": "LineString", "coordinates": [ [ -96.812053214300263, 32.777184521160919 ], [ -96.812107113217309, 32.777086333726039 ], [ -96.812116096370147, 32.776323489195136 ] ] } },
{ "type": "Feature", "properties": { "weight": 99.183766184073562, "nodes": "88-96" }, "geometry": { "type": "LineString", "coordinates": [ [ -96.810175735356438, 32.777139203896745 ], [ -96.810148785897923, 32.777086333726039 ], [ -96.8101667522036, 32.776889958531264 ], [ -96.810292516343395, 32.776572736147301 ], [ -96.810364381566117, 32.776474548037363 ] ] } },
{ "type": "Feature", "properties": { "weight": 34.89949493661166, "nodes": "89-90" }, "geometry": { "type": "LineString", "coordinates": [ [ -96.812538304553684, 32.776988146182816 ], [ -96.81271796761051, 32.776973040397323 ], [ -96.8128257654446, 32.776935275922362 ] ] } },
{ "type": "Feature", "properties": { "weight": 187.74011537017759, "nodes": "89-101" }, "geometry": { "type": "LineString", "coordinates": [ [ -96.812538304553684, 32.776988146182816 ], [ -96.81244847302527, 32.776905064330855 ], [ -96.812421523566741, 32.77614977120956 ], [ -96.81244847302527, 32.776119559351365 ], [ -96.812538304553684, 32.776081794514198 ], [ -96.812744917069026, 32.776074241544848 ], [ -96.81285271490313, 32.776104453418426 ], [ -96.81296051273722, 32.776179983057503 ] ] } },
{ "type": "Feature", "properties": { "weight": 53.89949493661166, "nodes": "90-91" }, "geometry": { "type": "LineString", "coordinates": [ [ -96.8128257654446, 32.776935275922362 ], [ -96.813032377959942, 32.776927723025445 ], [ -96.813283906239505, 32.776882405630495 ] ] } },
{ "type": "Feature", "properties": { "weight": 78.083261120685236, "nodes": "90-97" }, "geometry": { "type": "LineString", "coordinates": [ [ -96.8128257654446, 32.776935275922362 ], [ -96.812780849680394, 32.776897511431379 ], [ -96.812807799138923, 32.776769112042146 ], [ -96.812978479042897, 32.776602947851636 ], [ -96.813050344265619, 32.776459442164679 ] ] } },
{ "type": "Feature", "properties": { "weight": 21.963990038857645, "nodes": "91-94" }, "geometry": { "type": "LineString", "coordinates": [ [ -96.813283906239505, 32.776882405630495 ], [ -96.813373737767918, 32.776746453307162 ] ] } },
{ "type": "Feature", "properties": { "weight": 71.106125662588582, "nodes": "92-98" }, "geometry": { "type": "LineString", "coordinates": [ [ -96.816077666773111, 32.77682198240133 ], [ -96.816050717314596, 32.776633159545717 ], [ -96.815987835244712, 32.776519865640019 ], [ -96.815960885786183, 32.776414124531243 ], [ -96.815898003716285, 32.776346148037817 ] ] } },
{ "type": "Feature", "properties": { "weight": 73.177193474454057, "nodes": "93-95" }, "geometry": { "type": "LineString", "coordinates": [ [ -96.810481162553046, 32.776769112042146 ], [ -96.810597943539989, 32.776731347480634 ], [ -96.810876421278067, 32.776738900394214 ], [ -96.811047101182041, 32.776610500776115 ] ] } },
{ "type": "Feature", "properties": { "weight": 303.60360034564695, "nodes": "94-98" }, "geometry": { "type": "LineString", "coordinates": [ [ -96.813373737767918, 32.776746453307162 ], [ -96.813571367130422, 32.776754006219456 ], [ -96.813966625855429, 32.776716241651549 ], [ -96.814299002510566, 32.776640712467632 ], [ -96.814550530790115, 32.776610500776115 ], [ -96.815215284100361, 32.776451889227374 ], [ -96.815359014545805, 32.776436783350839 ], [ -96.815655458589575, 32.776368806874729 ], [ -96.815898003716285, 32.776346148037817 ] ] } },
{ "type": "Feature", "properties": { "weight": 200.72792206135784, "nodes": "94-105" }, "geometry": { "type": "LineString", "coordinates": [ [ -96.813373737767918, 32.776746453307162 ], [ -96.813328822003712, 32.776625606623156 ], [ -96.813346788309389, 32.775258517080935 ] ] } },
{ "type": "Feature", "properties": { "weight": 98.556349186104057, "nodes": "95-102" }, "geometry": { "type": "LineString", "coordinates": [ [ -96.811047101182041, 32.776610500776115 ], [ -96.810948286500789, 32.775900523072693 ] ] } },
{ "type": "Feature", "properties": { "weight": 32.213203435596427, "nodes": "98-100" }, "geometry": { "type": "LineString", "coordinates": [ [ -96.815898003716285, 32.776346148037817 ], [ -96.815933936327667, 32.776315936246291 ], [ -96.816014784703228, 32.776300830346692 ], [ -96.816095633078803, 32.776202641936727 ] ] } },
{ "type": "Feature", "properties": { "weight": 188.29646455628165, "nodes": "99-107" }, "geometry": { "type": "LineString", "coordinates": [ [ -96.812116096370147, 32.776323489195136 ], [ -96.811864568090584, 32.776210194895185 ], [ -96.811810669173539, 32.776134665281745 ], [ -96.811675921880934, 32.775704145261031 ], [ -96.811675921880934, 32.775636168225262 ], [ -96.811604056658197, 32.77540957773099 ], [ -96.811559140893991, 32.775152774473334 ] ] } },
{ "type": "Feature", "properties": { "weight": 199.69753269941577, "nodes": "99-107" }, "geometry": { "type": "LineString", "coordinates": [ [ -96.812116096370147, 32.776323489195136 ], [ -96.812116096370147, 32.776164877134818 ], [ -96.81207118060594, 32.775847652166036 ], [ -96.811954399618998, 32.77556063812461 ], [ -96.811891517549114, 32.775235857961313 ], [ -96.811684905033772, 32.775122562276657 ], [ -96.811631006116727, 32.775122562276657 ], [ -96.811559140893991, 32.775152774473334 ] ] } },
{ "type": "Feature", "properties": { "weight": 130.41983416157339, "nodes": "102-106" }, "geometry": { "type": "LineString", "coordinates": [ [ -96.810948286500789, 32.775900523072693 ], [ -96.811029134876364, 32.775840099176797 ], [ -96.811038118029202, 32.775779675239882 ], [ -96.811011168570687, 32.775522873050242 ], [ -96.81096625280648, 32.775447342853433 ], [ -96.810930320195112, 32.775258517080935 ], [ -96.810885404430906, 32.775220751878358 ], [ -96.810651842457034, 32.775220751878358 ], [ -96.810633876151343, 32.775235857961313 ] ] } },
{ "type": "Feature", "properties": { "weight": 107.24826128631955, "nodes": "102-106" }, "geometry": { "type": "LineString", "coordinates": [ [ -96.810948286500789, 32.775900523072693 ], [ -96.810759640291124, 32.775794781227958 ], [ -96.810732690832594, 32.775681486254875 ], [ -96.810651842457034, 32.775568191137559 ], [ -96.810633876151343, 32.775235857961313 ] ] } },
{ "type": "Feature", "properties": { "weight": 49.142135623730944, "nodes": "103-109" }, "geometry": { "type": "LineString", "coordinates": [ [ -96.811325578920119, 32.775417130756757 ], [ -96.811334562072958, 32.775145221425127 ], [ -96.811253713697383, 32.775107456174467 ] ] } },
{ "type": "Feature", "properties": { "weight": 78.556349186104043, "nodes": "104-106" }, "geometry": { "type": "LineString", "coordinates": [ [ -96.809969122841096, 32.775273623157489 ], [ -96.810148785897923, 32.77529628226749 ], [ -96.810211667967806, 32.775273623157489 ], [ -96.810427263636001, 32.775266070119528 ], [ -96.810633876151343, 32.775235857961313 ] ] } }
]
}
