{
"type": "FeatureCollection",
"name": "gee_batch_3_30.25770_-97.75018",
"crs": { "type": "name", "properties": { "name": "urn:ogc:def:crs:OGC:1.3:CRS84" } },
"features": [
{ "type": "Feature", "properties": { "name": "road_network" }, "geometry": { "type": "MultiLineString", "coordinates": [ [ [ -97.751037369842535, 30.261667120255737 ], [ -97.750857706785723, 30.26154297546222 ] ], [ [ -97.748306491378813, 30.261667120255737 ], [ -97.748468188129962, 30.261574011675311 ], [ -97.748629884881097, 30.261139503799406 ], [ -97.748836497396439, 30.260681716636089 ], [ -97.748854463702131, 30.260534293197022 ] ], [ [ -97.748036996793587, 30.261651602165134 ], [ -97.748108862016309, 30.261620565976557 ], [ -97.748117845169148, 30.261535216407417 ], [ -97.748198693544722, 30.261310203551368 ], [ -97.748629884881097, 30.260588607121374 ], [ -97.748674800645304, 30.260542052330912 ], [ -97.748782598479394, 30.260503256655337 ], [ -97.748854463702131, 30.260534293197022 ] ], [ [ -97.750534313283424, 30.261186058306642 ], [ -97.750300751309567, 30.261023117434767 ], [ -97.750166004016947, 30.260999840145288 ] ], [ [ -97.75025583554536, 30.261139503799406 ], [ -97.750192953475477, 30.261085190179738 ], [ -97.750166004016947, 30.260999840145288 ] ], [ [ -97.750166004016947, 30.260999840145288 ], [ -97.749950408348752, 30.260759307830913 ], [ -97.749465318095332, 30.259952356408157 ], [ -97.749330570802712, 30.259867005389147 ] ], [ [ -97.748854463702131, 30.260534293197022 ], [ -97.748908362619176, 30.260511015791675 ], [ -97.749222772968622, 30.259929078864875 ], [ -97.749330570802712, 30.259867005389147 ] ], [ [ -97.754774361424481, 30.260022189004893 ], [ -97.754711479354597, 30.259952356408157 ], [ -97.754603681520507, 30.259905801316073 ], [ -97.754280288018208, 30.259789413489322 ], [ -97.754154523878441, 30.259773895102004 ] ], [ [ -97.749330570802712, 30.259867005389147 ], [ -97.749339553955551, 30.259634229505764 ] ], [ [ -97.754154523878441, 30.259773895102004 ], [ -97.753947911363085, 30.259719580727069 ], [ -97.753714349389213, 30.25960319267962 ], [ -97.753552652638078, 30.259579915053585 ], [ -97.753507736873871, 30.259533359784957 ] ], [ [ -97.749339553955551, 30.259634229505764 ], [ -97.749438368636802, 30.259564396633159 ], [ -97.749644981152159, 30.25923075000091 ], [ -97.750004307265797, 30.258594490490658 ], [ -97.750049223030018, 30.258384989505952 ] ], [ [ -97.749339553955551, 30.259634229505764 ], [ -97.749195823510092, 30.259525600571372 ], [ -97.748863446854969, 30.259176435325585 ], [ -97.748575985964052, 30.258796231757266 ], [ -97.748549036505537, 30.258695361175761 ], [ -97.748513103894169, 30.258656564770678 ] ], [ [ -97.753507736873871, 30.259533359784957 ], [ -97.753714349389213, 30.259160916841406 ], [ -97.754019776585821, 30.258710879733513 ], [ -97.754082658655705, 30.258656564770678 ] ], [ [ -97.753507736873871, 30.259533359784957 ], [ -97.753310107511354, 30.259494563710906 ], [ -97.752438741685765, 30.259207472286597 ], [ -97.75036363337945, 30.258447063918378 ], [ -97.750112105099902, 30.258384989505952 ] ], [ [ -97.746770372242977, 30.259098842880167 ], [ -97.746869186924229, 30.258997972609471 ], [ -97.748117845169148, 30.25874191684164 ], [ -97.748306491378813, 30.258695361175761 ], [ -97.748378356601549, 30.25864880548782 ] ], [ [ -97.754774361424481, 30.258997972609471 ], [ -97.754738428813113, 30.258951417064971 ], [ -97.754082658655705, 30.258656564770678 ] ], [ [ -97.754082658655705, 30.258656564770678 ], [ -97.754118591267073, 30.258555694045732 ], [ -97.754621647826184, 30.257779761928727 ] ], [ [ -97.748513103894169, 30.258656564770678 ], [ -97.748378356601549, 30.25864880548782 ] ], [ [ -97.748513103894169, 30.258656564770678 ], [ -97.748558019658375, 30.258625527635569 ], [ -97.74936650341408, 30.258431545318956 ], [ -97.749842610514662, 30.258361711591181 ], [ -97.750004307265797, 30.258361711591181 ], [ -97.750049223030018, 30.258384989505952 ] ], [ [ -97.748378356601549, 30.25864880548782 ], [ -97.748315474531665, 30.258493619701962 ], [ -97.747947165265174, 30.258128932139986 ], [ -97.747039866828203, 30.257314199716063 ], [ -97.746923085841274, 30.257267643373428 ] ], [ [ -97.750112105099902, 30.258384989505952 ], [ -97.750049223030018, 30.258384989505952 ] ], [ [ -97.750112105099902, 30.258384989505952 ], [ -97.750210919781154, 30.258144450787231 ] ], [ [ -97.750210919781154, 30.258144450787231 ], [ -97.75022888608683, 30.258043579536309 ], [ -97.750318717615244, 30.25795046752043 ], [ -97.750399565990818, 30.257748724516542 ], [ -97.75076787525731, 30.257197808818081 ], [ -97.75101042038402, 30.256763281580302 ], [ -97.751405679109027, 30.256165803489491 ], [ -97.751441611720395, 30.256072689693458 ], [ -97.751486527484602, 30.256049411230659 ] ], [ [ -97.754774361424481, 30.257911670821098 ], [ -97.754693513048906, 30.257779761928727 ] ], [ [ -97.754693513048906, 30.257779761928727 ], [ -97.754621647826184, 30.257779761928727 ] ], [ [ -97.754621647826184, 30.257779761928727 ], [ -97.75389401244604, 30.25742283109641 ], [ -97.75375926515342, 30.257391793571422 ] ], [ [ -97.754693513048906, 30.257779761928727 ], [ -97.754774361424481, 30.257469387365486 ] ], [ [ -97.753525703179562, 30.257694409021607 ], [ -97.753588585249446, 30.257663371582449 ], [ -97.75375926515342, 30.257391793571422 ] ], [ [ -97.746797321701493, 30.257570259206126 ], [ -97.746833254312861, 30.257484906116947 ], [ -97.746851220618538, 30.257329718492041 ], [ -97.746923085841274, 30.257267643373428 ] ], [ [ -97.75375926515342, 30.257391793571422 ], [ -97.753714349389213, 30.257337477879108 ], [ -97.753292141205677, 30.257151252420272 ] ], [ [ -97.746923085841274, 30.257267643373428 ], [ -97.746923085841274, 30.257011583094432 ], [ -97.747120715203778, 30.256499460533757 ], [ -97.747192580426514, 30.256227879304479 ] ], [ [ -97.75214229764201, 30.257205568215571 ], [ -97.752510606908501, 30.256708965540412 ], [ -97.75300468031476, 30.256429625432233 ], [ -97.753202309677263, 30.25617356296851 ], [ -97.753283158052838, 30.255971816314808 ] ], [ [ -97.751989584043713, 30.256274436139972 ], [ -97.751486527484602, 30.256049411230659 ] ], [ [ -97.747192580426514, 30.256227879304479 ], [ -97.747228513037882, 30.256196841401884 ], [ -97.747336310871972, 30.255917499837242 ], [ -97.747560889692991, 30.255250180661513 ], [ -97.747767502208347, 30.254745808508861 ], [ -97.747821401125393, 30.254528539706548 ] ], [ [ -97.747192580426514, 30.256227879304479 ], [ -97.747102748898087, 30.256158044009862 ], [ -97.746941052146951, 30.256142525048759 ], [ -97.746833254312861, 30.256103727635281 ] ], [ [ -97.751486527484602, 30.256049411230659 ], [ -97.75149551063744, 30.255971816314808 ], [ -97.751549409554485, 30.255870942832569 ], [ -97.751944668279506, 30.255281218863242 ], [ -97.75211534818348, 30.254978595978052 ], [ -97.752312977545998, 30.254707010543697 ], [ -97.752528573214178, 30.25434230892208 ], [ -97.752618404742591, 30.254264712657669 ] ], [ [ -97.753202309677263, 30.255102749069383 ], [ -97.753310107511354, 30.255180344671775 ], [ -97.753876046140348, 30.255444169261391 ], [ -97.754010793432982, 30.255459688332831 ], [ -97.754127574419911, 30.255389852492048 ], [ -97.754154523878441, 30.255288978412143 ], [ -97.754145540725602, 30.254970836404635 ], [ -97.754100624961396, 30.254707010543697 ], [ -97.754073675502866, 30.254660452965272 ], [ -97.753956894515923, 30.254575097347512 ], [ -97.75365146731933, 30.254450943589262 ] ], [ [ -97.753202309677263, 30.255102749069383 ], [ -97.753220275982954, 30.255040672543338 ], [ -97.753426888498311, 30.254714770137955 ], [ -97.753444854803988, 30.254637174167783 ] ], [ [ -97.751405679109027, 30.25486220231242 ], [ -97.751199066593685, 30.255389852492048 ], [ -97.75098347092549, 30.25573127168612 ], [ -97.750830757327194, 30.255894221337662 ], [ -97.750642111117529, 30.256049411230659 ], [ -97.750462448060702, 30.256127006085208 ], [ -97.750112105099902, 30.256134765567293 ], [ -97.749815661056132, 30.256033892252393 ], [ -97.749653964304997, 30.255940778331304 ], [ -97.749564132776584, 30.255855423826098 ], [ -97.7495012507067, 30.255700233626609 ], [ -97.7495012507067, 30.255203623340535 ], [ -97.749438368636802, 30.25502515340569 ], [ -97.749375486566919, 30.254947557680705 ], [ -97.749267688732829, 30.254877721475808 ], [ -97.748746665868026, 30.254784606458713 ], [ -97.748710733256672, 30.254753568100057 ] ], [ [ -97.748710733256672, 30.254753568100057 ], [ -97.748593952269729, 30.254738048917059 ], [ -97.74836937344871, 30.25461389536477 ], [ -97.747983097876528, 30.254505260877799 ], [ -97.747902249500967, 30.254458703203746 ] ], [ [ -97.748710733256672, 30.254753568100057 ], [ -97.748764632173717, 30.254396626270687 ] ], [ [ -97.753444854803988, 30.254637174167783 ], [ -97.753498753721033, 30.25461389536477 ], [ -97.753579602096607, 30.254489741655565 ], [ -97.75365146731933, 30.254450943589262 ] ], [ [ -97.753444854803988, 30.254637174167783 ], [ -97.752851966716463, 30.254350068545147 ], [ -97.752618404742591, 30.254264712657669 ] ], [ [ -97.747821401125393, 30.254528539706548 ], [ -97.747902249500967, 30.254458703203746 ] ], [ [ -97.747821401125393, 30.254528539706548 ], [ -97.747731569596979, 30.254466462817629 ], [ -97.747345294024811, 30.254373347410674 ], [ -97.746869186924229, 30.254319030049192 ] ], [ [ -97.7508756730914, 30.254489741655565 ], [ -97.751019403536858, 30.254575097347512 ], [ -97.75149551063744, 30.254738048917059 ], [ -97.7518997525153, 30.254753568100057 ], [ -97.751989584043713, 30.254691491353341 ], [ -97.752079415572112, 30.254582856952187 ], [ -97.75251959006134, 30.253907769051917 ], [ -97.752537556367017, 30.253783614450224 ] ], [ [ -97.747902249500967, 30.254458703203746 ], [ -97.747929198959483, 30.254264712657669 ], [ -97.74808191255778, 30.25383017244425 ], [ -97.748225643003238, 30.25373705643414 ] ], [ [ -97.75365146731933, 30.254450943589262 ], [ -97.753660450472168, 30.254373347410674 ], [ -97.753714349389213, 30.254280231915455 ], [ -97.753983843974453, 30.253876730416206 ], [ -97.754028759738659, 30.25376809511398 ], [ -97.754082658655705, 30.25373705643414 ] ], [ [ -97.748791581632233, 30.254280231915455 ], [ -97.748890396313499, 30.253752575775284 ] ], [ [ -97.752618404742591, 30.254264712657669 ], [ -97.752636371048268, 30.254187116331973 ], [ -97.752726202576682, 30.254024163848477 ], [ -97.752887899327831, 30.253806893449998 ], [ -97.752932815092038, 30.253760335444944 ], [ -97.753013663467613, 30.25373705643414 ] ], [ [ -97.746869186924229, 30.253954326987095 ], [ -97.746994951063996, 30.253907769051917 ], [ -97.747057833133894, 30.253845691770689 ], [ -97.747147664662293, 30.253822412780114 ], [ -97.747219529885044, 30.25376809511398 ], [ -97.747363260330488, 30.253729296762643 ] ], [ [ -97.752537556367017, 30.253783614450224 ], [ -97.75265433735396, 30.25373705643414 ] ], [ [ -97.752537556367017, 30.253783614450224 ], [ -97.752232129170409, 30.253729296762643 ] ] ] } }
]
}
