{
"type": "FeatureCollection",
"name": "gee_batch_9_40.69465_-74.01733",
"crs": { "type": "name", "properties": { "name": "urn:ogc:def:crs:OGC:1.3:CRS84" } },
"features": [
{ "type": "Feature", "properties": { "name": "road_network" }, "geometry": { "type": "MultiLineString", "coordinates": [ [ [ -74.017347630447119, 40.693238176554239 ], [ -74.017823737547715, 40.693224554297053 ], [ -74.018587305539214, 40.693170065240473 ], [ -74.019350873530712, 40.693170065240473 ], [ -74.019566469198907, 40.693129198418795 ] ], [ [ -74.019746132255719, 40.693013408954577 ], [ -74.020015626840959, 40.692339101606166 ], [ -74.020123424675063, 40.692100708486606 ], [ -74.020204273050624, 40.691971294721654 ], [ -74.020958857889283, 40.691222052195108 ], [ -74.020994790500652, 40.691194806853581 ], [ -74.021093605181903, 40.691167561500905 ] ], [ [ -74.015398286280586, 40.692999786651441 ], [ -74.01535337051638, 40.69293167509398 ], [ -74.015389303127733, 40.692775018247588 ] ], [ [ -74.015389303127733, 40.692775018247588 ], [ -74.015425235739116, 40.692740962362677 ], [ -74.015497100961838, 40.692516193085702 ], [ -74.015542016726044, 40.692495759477474 ], [ -74.016745759206771, 40.69260473864896 ], [ -74.017365596752811, 40.69261154984126 ], [ -74.018245945731252, 40.692666039354599 ] ], [ [ -74.015389303127733, 40.692775018247588 ], [ -74.01532642105785, 40.692747773541051 ], [ -74.014895229721489, 40.692666039354599 ], [ -74.014428105773746, 40.69260473864896 ], [ -74.014050813354402, 40.692495759477474 ], [ -74.013781318769176, 40.69227780059974 ], [ -74.013565723100982, 40.692012162253533 ], [ -74.012945885554942, 40.691467259767585 ], [ -74.012784188803806, 40.691344656094145 ], [ -74.012775205650954, 40.69120161819 ], [ -74.012802155109483, 40.691187995516451 ] ], [ [ -74.018245945731252, 40.692666039354599 ], [ -74.018766968596026, 40.692686472910609 ], [ -74.018847816971615, 40.692666039354599 ], [ -74.018910699041498, 40.69260473864896 ] ], [ [ -74.018245945731252, 40.692666039354599 ], [ -74.018344760412504, 40.69189637084812 ] ], [ [ -74.018910699041498, 40.69260473864896 ], [ -74.018910699041498, 40.691828258162708 ], [ -74.018973581111382, 40.691610297101484 ], [ -74.018991547417073, 40.691419580588061 ], [ -74.019045446334118, 40.691296976826877 ] ], [ [ -74.019045446334118, 40.691296976826877 ], [ -74.019171210473885, 40.691187995516451 ], [ -74.019270025155137, 40.691167561500905 ] ], [ [ -74.015335404210688, 40.691276542844754 ], [ -74.015065909625463, 40.691249297525502 ], [ -74.014904212874328, 40.691194806853581 ], [ -74.014715566664648, 40.691194806853581 ], [ -74.014535903607836, 40.691215240860771 ], [ -74.013727419852131, 40.691174372840116 ] ] ] } }
]
}
