{
"type": "FeatureCollection",
"name": "gee_batch_2_32.79855_-96.83991",
"crs": { "type": "name", "properties": { "name": "urn:ogc:def:crs:OGC:1.3:CRS84" } },
"features": [
{ "type": "Feature", "properties": { "name": "road_network" }, "geometry": { "type": "MultiLineString", "coordinates": [ [ [ -96.843437760526541, 32.802413848974894 ], [ -96.843222164858346, 32.802315689388415 ], [ -96.843159282788463, 32.802217529693557 ], [ -96.843141316482786, 32.802126920648249 ] ], [ [ -96.841380618525903, 32.802413848974894 ], [ -96.841290786997504, 32.802368544563834 ], [ -96.841084174482162, 32.802006108444182 ], [ -96.840769764132716, 32.801530408794704 ], [ -96.840626033687258, 32.801251028449023 ], [ -96.840140943433823, 32.80052614562004 ], [ -96.840006196141218, 32.800390229431606 ], [ -96.839709752097448, 32.800209007523804 ] ], [ [ -96.838497026463884, 32.802413848974894 ], [ -96.838200582420129, 32.802353443088343 ], [ -96.838128717197392, 32.802308138646502 ] ], [ [ -96.837805323695122, 32.802413848974894 ], [ -96.838128717197392, 32.802308138646502 ] ], [ [ -96.836637513825764, 32.802413848974894 ], [ -96.836583614908719, 32.802383646036752 ], [ -96.836511749685982, 32.802142022162208 ], [ -96.83639496869904, 32.801590815240495 ], [ -96.836287170864949, 32.800881036910212 ] ], [ [ -96.836008693126885, 32.802413848974894 ], [ -96.835793097458691, 32.802383646036752 ], [ -96.835361906122316, 32.802172225182446 ], [ -96.835316990358095, 32.802111819131717 ] ], [ [ -96.838128717197392, 32.802308138646502 ], [ -96.838200582420129, 32.802074065329165 ], [ -96.838353296018425, 32.801915499183394 ], [ -96.838407194935471, 32.801764483543508 ] ], [ [ -96.844497772561809, 32.802217529693557 ], [ -96.844470823103293, 32.80218732668871 ], [ -96.843877935015769, 32.802043862275589 ], [ -96.843347928998142, 32.802036311510591 ], [ -96.843231148011199, 32.80205896380366 ], [ -96.843141316482786, 32.802126920648249 ] ], [ [ -96.843141316482786, 32.802126920648249 ], [ -96.84306945126005, 32.802074065329165 ], [ -96.842018422377635, 32.800412882144109 ], [ -96.841623163652628, 32.799884317348507 ], [ -96.841344685914549, 32.79958982988498 ], [ -96.840967393495205, 32.7992802394485 ], [ -96.840769764132716, 32.799136770344099 ], [ -96.840626033687258, 32.799106566292622 ] ], [ [ -96.838407194935471, 32.801764483543508 ], [ -96.838470077005368, 32.801741831175391 ], [ -96.838532959075252, 32.801681424832218 ], [ -96.838973133564465, 32.801084909989413 ], [ -96.839709752097448, 32.800209007523804 ] ], [ [ -96.838407194935471, 32.801764483543508 ], [ -96.83816464980876, 32.801658772442934 ], [ -96.837697525861032, 32.801356740034421 ], [ -96.837607694332604, 32.801334087562417 ], [ -96.837535829109868, 32.80126613011177 ], [ -96.837293283983172, 32.801130215054641 ], [ -96.837212435607597, 32.801054706599778 ], [ -96.837212435607597, 32.800986748935564 ], [ -96.837526845957029, 32.80056390007995 ], [ -96.838416178088323, 32.799491667180376 ] ], [ [ -96.841398584831595, 32.801137765896591 ], [ -96.840967393495205, 32.800420433046988 ], [ -96.840751797827025, 32.800133498286527 ], [ -96.840572134770213, 32.799990030559016 ], [ -96.840284673879282, 32.799846562600003 ], [ -96.840122977128146, 32.799725747297039 ] ], [ [ -96.836287170864949, 32.800881036910212 ], [ -96.836206322489389, 32.800858384316996 ], [ -96.836125474113814, 32.800760223013029 ], [ -96.835927844751311, 32.80060920541068 ], [ -96.835325973510933, 32.80029961852388 ] ], [ [ -96.836287170864949, 32.800881036910212 ], [ -96.836305137170626, 32.800782875631263 ], [ -96.836278187712111, 32.800329822170049 ], [ -96.836377002393363, 32.799355749410466 ], [ -96.836377002393363, 32.799038607139266 ], [ -96.836233271947904, 32.798585544789454 ], [ -96.835936827904149, 32.79805696913008 ] ], [ [ -96.839709752097448, 32.800209007523804 ], [ -96.839754667861655, 32.800178803836587 ], [ -96.839790600473009, 32.800103294573667 ], [ -96.840060095058263, 32.799771053054897 ], [ -96.840122977128146, 32.799725747297039 ] ], [ [ -96.839709752097448, 32.800209007523804 ], [ -96.83856889168662, 32.799529422079587 ], [ -96.838416178088323, 32.799491667180376 ] ], [ [ -96.840122977128146, 32.799725747297039 ], [ -96.840626033687258, 32.799106566292622 ] ], [ [ -96.840122977128146, 32.799725747297039 ], [ -96.839709752097448, 32.799461463249457 ], [ -96.837895155223521, 32.798411870276567 ] ], [ [ -96.838416178088323, 32.799491667180376 ], [ -96.838389228629794, 32.799423708321392 ], [ -96.838344312865587, 32.799385953377289 ], [ -96.837607694332604, 32.798940443826062 ], [ -96.837131587232037, 32.798691259544242 ] ], [ [ -96.840626033687258, 32.799106566292622 ], [ -96.840599084228728, 32.799038607139266 ], [ -96.840554168464521, 32.799000852031632 ], [ -96.839979246682688, 32.798645953236154 ], [ -96.837284300830333, 32.797067769095989 ], [ -96.836637513825764, 32.79676572109085 ], [ -96.835775131153, 32.796410813373697 ], [ -96.835433771345038, 32.79629754465514 ], [ -96.835325973510933, 32.796154070737821 ] ], [ [ -96.841084174482162, 32.796335300910691 ], [ -96.840572134770213, 32.796101211867828 ] ], [ [ -96.839907381459966, 32.795829365754351 ], [ -96.83905398194004, 32.795512210904896 ], [ -96.838766521049124, 32.795353633055953 ], [ -96.838245498184335, 32.794991168339301 ], [ -96.837913121529212, 32.794862795064532 ] ], [ [ -96.844506755714647, 32.794832589561182 ], [ -96.844443873644764, 32.794734421604424 ], [ -96.844183362212362, 32.794689113280143 ] ] ] } }
]
}
