{
"type": "FeatureCollection",
"name": "gee_batch_1_39.98511_-75.14159",
"crs": { "type": "name", "properties": { "name": "urn:ogc:def:crs:OGC:1.3:CRS84" } },
"features": [
{ "type": "Feature", "properties": { "name": "road_network" }, "geometry": { "type": "MultiLineString", "coordinates": [ [ [ -75.145950220879911, 39.988630963841366 ], [ -75.145447164320814, 39.988603433276019 ], [ -75.145339366486709, 39.98857590269958 ], [ -75.144746478399199, 39.988500193557158 ] ], [ [ -75.142949847830963, 39.988630963841366 ], [ -75.143003746748008, 39.988596550632955 ], [ -75.143012729900846, 39.988569020053731 ], [ -75.14318340980482, 39.987770628429942 ] ], [ [ -75.142276111367877, 39.988630963841366 ], [ -75.142330010284923, 39.988596550632955 ], [ -75.1423479765906, 39.988534606814113 ], [ -75.142500690188896, 39.987729332057661 ], [ -75.142527639647426, 39.987688035660412 ] ], [ [ -75.140883722677486, 39.988630963841366 ], [ -75.140964571053047, 39.988589667989189 ], [ -75.140982537358738, 39.988555254759966 ], [ -75.141198133026933, 39.987515967069839 ] ], [ [ -75.140443548188259, 39.988630963841366 ], [ -75.140479480799641, 39.988589667989189 ], [ -75.140488463952479, 39.988493310903678 ], [ -75.140578295480893, 39.988176708094315 ], [ -75.140722025926337, 39.987460905029323 ] ], [ [ -75.139015226886514, 39.988630963841366 ], [ -75.139069125803559, 39.988569020053731 ], [ -75.13919488994334, 39.987908282823909 ], [ -75.139266755166062, 39.987653621976975 ], [ -75.139293704624592, 39.987440256752684 ], [ -75.139347603541651, 39.987275070314901 ] ], [ [ -75.138494204021725, 39.988630963841366 ], [ -75.138548102938771, 39.988603433276019 ], [ -75.138557086091609, 39.98857590269958 ], [ -75.138808614371172, 39.987454022271137 ], [ -75.13884454698254, 39.987213125297757 ] ], [ [ -75.138251658895015, 39.988630963841366 ], [ -75.138116911602395, 39.988630963841366 ], [ -75.138045046379659, 39.988603433276019 ] ], [ [ -75.143425954931544, 39.988624081201081 ], [ -75.143596634835518, 39.987839455661593 ] ], [ [ -75.141602374904792, 39.988624081201081 ], [ -75.141638307516146, 39.988603433276019 ], [ -75.141647290668985, 39.98857590269958 ], [ -75.141871869490018, 39.987605442791029 ] ], [ [ -75.143803247350874, 39.988617198560085 ], [ -75.143839179962228, 39.988596550632955 ], [ -75.14387511257361, 39.988472662939103 ], [ -75.144000876713378, 39.987880751967303 ] ], [ [ -75.140021340004736, 39.9886103159184 ], [ -75.140066255768943, 39.988341892351841 ], [ -75.140174053603033, 39.987942696379058 ], [ -75.140209986214387, 39.987632973758586 ], [ -75.140272868284285, 39.987398960180691 ] ], [ [ -75.139554216056993, 39.9886103159184 ], [ -75.139715912808128, 39.987743097517864 ], [ -75.13981472748938, 39.987343898045857 ] ], [ [ -75.138045046379659, 39.988603433276019 ], [ -75.137874366475685, 39.988617198560085 ], [ -75.137461141444987, 39.98857590269958 ] ], [ [ -75.138045046379659, 39.988603433276019 ], [ -75.13806301268535, 39.988431366991222 ], [ -75.138206743130809, 39.987825690220816 ], [ -75.13833250727059, 39.987151180224444 ] ], [ [ -75.144710545787831, 39.988596550632955 ], [ -75.144728512093522, 39.988589667989189 ], [ -75.144746478399199, 39.988500193557158 ] ], [ [ -75.137461141444987, 39.98857590269958 ], [ -75.137101815331349, 39.988562137407193 ], [ -75.137003000650083, 39.988452014968281 ] ], [ [ -75.137461141444987, 39.98857590269958 ], [ -75.137497074056355, 39.988513958862015 ], [ -75.137631821348975, 39.987949579088003 ], [ -75.137802501252949, 39.987075469502997 ] ], [ [ -75.144746478399199, 39.988500193557158 ], [ -75.144755461552037, 39.988355657688608 ], [ -75.14482732677476, 39.987983992622354 ] ], [ [ -75.137003000650083, 39.988266182950056 ], [ -75.137119781637026, 39.987020407107423 ] ], [ [ -75.146120900783899, 39.988142294657052 ], [ -75.14482732677476, 39.987983992622354 ] ], [ [ -75.146120900783899, 39.988142294657052 ], [ -75.146147850242428, 39.988100998509452 ], [ -75.146120900783899, 39.987853221099606 ], [ -75.145986153491279, 39.987708683862152 ], [ -75.145267501263987, 39.986717563138463 ], [ -75.145213602346942, 39.986676266129585 ], [ -75.145159703429897, 39.986662500454415 ] ], [ [ -75.14482732677476, 39.987983992622354 ], [ -75.144854276233289, 39.987942696379058 ], [ -75.144863259386128, 39.987825690220816 ], [ -75.145096821360013, 39.986738211633536 ], [ -75.14511478766569, 39.98669691463715 ], [ -75.145159703429897, 39.986662500454415 ] ], [ [ -75.14482732677476, 39.987983992622354 ], [ -75.144000876713378, 39.987880751967303 ] ], [ [ -75.144000876713378, 39.987880751967303 ], [ -75.143937994643494, 39.987860103817567 ], [ -75.143596634835518, 39.987839455661593 ] ], [ [ -75.144000876713378, 39.987880751967303 ], [ -75.14431528706281, 39.986387186368432 ] ], [ [ -75.143596634835518, 39.987839455661593 ], [ -75.143560702224164, 39.98781880749938 ], [ -75.143201376110511, 39.987784393881817 ], [ -75.14318340980482, 39.987770628429942 ] ], [ [ -75.14318340980482, 39.987770628429942 ], [ -75.142527639647426, 39.987688035660412 ] ], [ [ -75.14318340980482, 39.987770628429942 ], [ -75.143497820154266, 39.986387186368432 ], [ -75.143506803307119, 39.986270177545912 ] ], [ [ -75.142527639647426, 39.987688035660412 ], [ -75.141871869490018, 39.987605442791029 ] ], [ [ -75.142527639647426, 39.987688035660412 ], [ -75.142842049996872, 39.986187582962295 ] ], [ [ -75.141871869490018, 39.987605442791029 ], [ -75.141889835795695, 39.987440256752684 ], [ -75.142015599935476, 39.98692404780838 ], [ -75.142159330380935, 39.98617381718865 ], [ -75.142195262992303, 39.986104988278825 ] ], [ [ -75.141871869490018, 39.987605442791029 ], [ -75.141198133026933, 39.987515967069839 ] ], [ [ -75.141198133026933, 39.987515967069839 ], [ -75.140722025926337, 39.987460905029323 ] ], [ [ -75.141198133026933, 39.987515967069839 ], [ -75.141413728695113, 39.986634969095739 ], [ -75.141512543376365, 39.986084339592352 ], [ -75.14153949283488, 39.986029276397915 ] ], [ [ -75.140722025926337, 39.987460905029323 ], [ -75.140272868284285, 39.987398960180691 ] ], [ [ -75.140272868284285, 39.987398960180691 ], [ -75.13981472748938, 39.987343898045857 ] ], [ [ -75.140272868284285, 39.987398960180691 ], [ -75.14059626178657, 39.985905384048166 ] ], [ [ -75.13981472748938, 39.987343898045857 ], [ -75.139796761183689, 39.987330132505221 ], [ -75.139374553000167, 39.987295718641477 ], [ -75.139347603541651, 39.987275070314901 ] ], [ [ -75.13981472748938, 39.987343898045857 ], [ -75.140021340004736, 39.986290826176216 ], [ -75.140111171533135, 39.98591914987589 ], [ -75.140147104144503, 39.985850320709481 ] ], [ [ -75.139347603541651, 39.987275070314901 ], [ -75.13884454698254, 39.987213125297757 ] ], [ [ -75.139347603541651, 39.987275070314901 ], [ -75.139410485611535, 39.986965344667475 ], [ -75.139428451917212, 39.986910282183139 ], [ -75.13946438452858, 39.98688275092433 ] ], [ [ -75.13884454698254, 39.987213125297757 ], [ -75.138898445899585, 39.986944696241046 ], [ -75.138934378510953, 39.986868985290769 ], [ -75.139033193192191, 39.986339006289313 ], [ -75.139140991026295, 39.986008627688555 ], [ -75.139167940484811, 39.985712662168631 ] ], [ [ -75.13884454698254, 39.987213125297757 ], [ -75.138826580676849, 39.987199359730766 ], [ -75.138548102938771, 39.987178711375073 ], [ -75.138368439881958, 39.987144297435059 ] ], [ [ -75.13833250727059, 39.987151180224444 ], [ -75.138368439881958, 39.987144297435059 ] ], [ [ -75.13833250727059, 39.987151180224444 ], [ -75.13830555781206, 39.987137414644963 ], [ -75.13782046755864, 39.987089235094956 ], [ -75.137802501252949, 39.987075469502997 ] ], [ [ -75.138368439881958, 39.987144297435059 ], [ -75.138422338799003, 39.986793274256563 ], [ -75.138503187174564, 39.986511077844426 ], [ -75.138664883925699, 39.985657598674628 ] ], [ [ -75.137802501252949, 39.987075469502997 ], [ -75.137281478388161, 39.987020407107423 ], [ -75.137218596318277, 39.986992875893002 ] ], [ [ -75.137802501252949, 39.987075469502997 ], [ -75.137829450711479, 39.9870272899093 ], [ -75.138009113768305, 39.986077456695476 ], [ -75.138125894755234, 39.985602535136231 ] ], [ [ -75.137119781637026, 39.987020407107423 ], [ -75.137218596318277, 39.986992875893002 ] ], [ [ -75.137119781637026, 39.987020407107423 ], [ -75.13706588271998, 39.986979110281617 ], [ -75.137056899567142, 39.986875868107894 ], [ -75.137119781637026, 39.98672444597085 ], [ -75.137173680554071, 39.986332123418094 ], [ -75.137299444693852, 39.985795257326437 ], [ -75.137326394152367, 39.985499290882125 ], [ -75.137353343610897, 39.985485524969796 ] ], [ [ -75.137218596318277, 39.986992875893002 ], [ -75.137245545776807, 39.986965344667475 ], [ -75.137254528929645, 39.986868985290769 ], [ -75.137299444693852, 39.986745094463849 ], [ -75.137398259375104, 39.98620823161756 ], [ -75.137550972973401, 39.985636949852925 ], [ -75.137559956126239, 39.98551993974543 ] ], [ [ -75.145159703429897, 39.986662500454415 ], [ -75.145159703429897, 39.986511077844426 ] ], [ [ -75.146174799700958, 39.986655617615789 ], [ -75.146129883936737, 39.986614320569458 ], [ -75.145905305115704, 39.986593672036932 ], [ -75.145824456740144, 39.986566140650524 ] ], [ [ -75.145824456740144, 39.986566140650524 ], [ -75.145716658906053, 39.986566140650524 ], [ -75.145321400181032, 39.986511077844426 ], [ -75.145159703429897, 39.986511077844426 ] ], [ [ -75.145824456740144, 39.986566140650524 ], [ -75.145941237727072, 39.985857203629251 ], [ -75.14597717033844, 39.985753959760018 ], [ -75.145995136644117, 39.985581886297901 ], [ -75.146120900783899, 39.984989950278347 ], [ -75.146067001866854, 39.984969301254864 ], [ -75.145492080085006, 39.984914237161711 ], [ -75.145465130626491, 39.984900471131489 ] ], [ [ -75.145159703429897, 39.986511077844426 ], [ -75.145105804512852, 39.986421600689859 ] ], [ [ -75.145105804512852, 39.986421600689859 ], [ -75.145159703429897, 39.986387186368432 ], [ -75.145177669735574, 39.986345889159836 ], [ -75.145195636041265, 39.98617381718865 ], [ -75.145465130626491, 39.984900471131489 ] ], [ [ -75.145105804512852, 39.986421600689859 ], [ -75.145060888748645, 39.986421600689859 ] ], [ [ -75.145060888748645, 39.986421600689859 ], [ -75.145015972984439, 39.986456014993948 ], [ -75.144899191997496, 39.986456014993948 ], [ -75.144503933272489, 39.986394069234102 ], [ -75.14431528706281, 39.986387186368432 ] ], [ [ -75.145060888748645, 39.986421600689859 ], [ -75.145015972984439, 39.986387186368432 ], [ -75.144971057220218, 39.986290826176216 ], [ -75.144521899578166, 39.985671364552282 ], [ -75.144468000661121, 39.985492407926309 ] ], [ [ -75.14431528706281, 39.986387186368432 ], [ -75.144243421840088, 39.986352772029669 ], [ -75.143506803307119, 39.986270177545912 ] ], [ [ -75.143506803307119, 39.986270177545912 ], [ -75.142842049996872, 39.986187582962295 ] ], [ [ -75.143506803307119, 39.986270177545912 ], [ -75.143551719071326, 39.98587785238437 ], [ -75.143596634835518, 39.985671364552282 ], [ -75.143623584294048, 39.985636949852925 ] ], [ [ -75.142842049996872, 39.986187582962295 ], [ -75.142356959743438, 39.986125636959052 ], [ -75.142258145062186, 39.986125636959052 ], [ -75.142195262992303, 39.986104988278825 ] ], [ [ -75.142842049996872, 39.986187582962295 ], [ -75.143003746748008, 39.98551993974543 ], [ -75.143066628817891, 39.985168908220501 ], [ -75.143129510887775, 39.985045014310479 ], [ -75.143156460346304, 39.984824757915675 ], [ -75.143228325569027, 39.984618266900647 ] ], [ [ -75.142195262992303, 39.986104988278825 ], [ -75.14156644229341, 39.986043042200684 ], [ -75.14153949283488, 39.986029276397915 ] ], [ [ -75.142195262992303, 39.986104988278825 ], [ -75.142374926049129, 39.985196440169993 ], [ -75.142536622800264, 39.984528787266981 ] ], [ [ -75.144243421840088, 39.986063690899634 ], [ -75.144180539770204, 39.985960447342457 ], [ -75.144090708241791, 39.985870969466689 ] ], [ [ -75.14153949283488, 39.986029276397915 ], [ -75.141054402581474, 39.985960447342457 ] ], [ [ -75.14153949283488, 39.986029276397915 ], [ -75.141880852642856, 39.984439307516119 ] ], [ [ -75.141054402581474, 39.985960447342457 ], [ -75.14059626178657, 39.985905384048166 ] ], [ [ -75.141054402581474, 39.985960447342457 ], [ -75.141243048791139, 39.985127610275455 ] ], [ [ -75.14059626178657, 39.985905384048166 ], [ -75.140290834589962, 39.985857203629251 ], [ -75.140147104144503, 39.985850320709481 ] ], [ [ -75.14059626178657, 39.985905384048166 ], [ -75.140874739524634, 39.984638916030228 ], [ -75.14091965528884, 39.984329178431103 ] ], [ [ -75.140147104144503, 39.985850320709481 ], [ -75.140165070450195, 39.985678247490078 ], [ -75.140254901978594, 39.985396046472005 ] ], [ [ -75.143902062032126, 39.985774608546343 ], [ -75.143911045184979, 39.985760842689487 ], [ -75.143785281045183, 39.985671364552282 ], [ -75.143740365280976, 39.985650715734749 ], [ -75.143623584294048, 39.985636949852925 ] ], [ [ -75.139167940484811, 39.985712662168631 ], [ -75.139203873096179, 39.985657598674628 ], [ -75.139257772013224, 39.985313450831555 ], [ -75.139293704624592, 39.985251504035695 ] ], [ [ -75.139167940484811, 39.985712662168631 ], [ -75.138943361663792, 39.98569889629929 ], [ -75.138664883925699, 39.985657598674628 ] ], [ [ -75.138664883925699, 39.985657598674628 ], [ -75.138251658895015, 39.985602535136231 ], [ -75.138125894755234, 39.985602535136231 ] ], [ [ -75.138664883925699, 39.985657598674628 ], [ -75.138691833384229, 39.985609418080962 ], [ -75.138988277427998, 39.984136452105155 ], [ -75.139024210039352, 39.984067621142707 ] ], [ [ -75.143623584294048, 39.985636949852925 ], [ -75.143623584294048, 39.985499290882125 ], [ -75.143713415822461, 39.985148259251105 ], [ -75.143785281045183, 39.984989950278347 ], [ -75.143821213656551, 39.984728395519667 ], [ -75.143848163115067, 39.984700863381555 ] ], [ [ -75.138125894755234, 39.985602535136231 ], [ -75.138036063226821, 39.985575003350398 ], [ -75.137559956126239, 39.98551993974543 ] ], [ [ -75.137559956126239, 39.98551993974543 ], [ -75.137533006667709, 39.985499290882125 ], [ -75.137353343610897, 39.985485524969796 ] ], [ [ -75.137559956126239, 39.98551993974543 ], [ -75.137568939279078, 39.985375397571254 ], [ -75.137631821348975, 39.985189557183659 ], [ -75.137640804501814, 39.985086312305448 ], [ -75.137730636030227, 39.984749044615967 ], [ -75.137739619183066, 39.984625149944534 ], [ -75.137775551794434, 39.984528787266981 ], [ -75.137838433864317, 39.984108919728499 ], [ -75.137838433864317, 39.983985023896231 ], [ -75.137775551794434, 39.983936842123008 ] ], [ [ -75.144468000661121, 39.985492407926309 ], [ -75.144521899578166, 39.985457993136798 ], [ -75.144539865883857, 39.985416695366503 ], [ -75.144665630023624, 39.984804108842262 ] ], [ [ -75.144468000661121, 39.985492407926309 ], [ -75.144369185979869, 39.985451110176818 ], [ -75.144216472381572, 39.985189557183659 ], [ -75.144162573464513, 39.984872939062718 ], [ -75.144171556617366, 39.984735278552456 ] ], [ [ -75.137353343610897, 39.985485524969796 ], [ -75.137281478388161, 39.985464876096096 ], [ -75.137047916414289, 39.985444227216142 ], [ -75.136994017497244, 39.985396046472005 ] ], [ [ -75.137353343610897, 39.985485524969796 ], [ -75.137389276222251, 39.985430461292715 ], [ -75.137398259375104, 39.985285918929222 ], [ -75.137488090903503, 39.984941769213833 ], [ -75.137640804501814, 39.984081387340744 ], [ -75.137667753960343, 39.983998790110917 ], [ -75.137739619183066, 39.983936842123008 ] ], [ [ -75.139293704624592, 39.985251504035695 ], [ -75.139653030738245, 39.985292801905842 ], [ -75.139769811725174, 39.985292801905842 ], [ -75.139796761183689, 39.985272152973884 ], [ -75.140030323157575, 39.984205282998253 ] ], [ [ -75.139293704624592, 39.985251504035695 ], [ -75.13930268777743, 39.985120727282187 ] ], [ [ -75.13930268777743, 39.985017482299966 ], [ -75.139347603541651, 39.984921120175784 ], [ -75.139392519305844, 39.984680214270682 ], [ -75.13943743507005, 39.984556319474436 ], [ -75.139500317139948, 39.984198399912074 ], [ -75.139536249751302, 39.984143335197587 ] ], [ [ -75.145465130626491, 39.984900471131489 ], [ -75.145393265403754, 39.984879822080948 ], [ -75.145303433875355, 39.984879822080948 ], [ -75.14482732677476, 39.984810991867427 ], [ -75.144665630023624, 39.984804108842262 ] ], [ [ -75.145465130626491, 39.984900471131489 ], [ -75.145501063237859, 39.984618266900647 ], [ -75.145608861071963, 39.984129569012033 ], [ -75.145752591517407, 39.983303592802677 ] ], [ [ -75.144665630023624, 39.984804108842262 ], [ -75.144656646870786, 39.98477657673466 ] ], [ [ -75.144656646870786, 39.98477657673466 ], [ -75.144171556617366, 39.984735278552456 ] ], [ [ -75.144656646870786, 39.98477657673466 ], [ -75.144908175150334, 39.983393074040983 ], [ -75.144962074067379, 39.983200345074394 ] ], [ [ -75.144171556617366, 39.984735278552456 ], [ -75.144153590311674, 39.984714629451993 ] ], [ [ -75.144153590311674, 39.984714629451993 ], [ -75.143848163115067, 39.984700863381555 ] ], [ [ -75.144153590311674, 39.984714629451993 ], [ -75.14411765770032, 39.984280996900587 ], [ -75.144045792477584, 39.984232815336078 ] ], [ [ -75.143848163115067, 39.984700863381555 ], [ -75.143929011490656, 39.984315412282996 ], [ -75.143991893560539, 39.984253464582167 ], [ -75.144045792477584, 39.984232815336078 ] ], [ [ -75.143848163115067, 39.984700863381555 ], [ -75.14383019680939, 39.984687097308331 ], [ -75.143255275027556, 39.984618266900647 ] ], [ [ -75.143255275027556, 39.984618266900647 ], [ -75.143228325569027, 39.984618266900647 ] ], [ [ -75.143228325569027, 39.984618266900647 ], [ -75.14321035926335, 39.984604500810789 ], [ -75.142824083691181, 39.984563202524562 ], [ -75.142815100538343, 39.984549436423606 ] ], [ [ -75.143255275027556, 39.984618266900647 ], [ -75.143300190791777, 39.984549436423606 ], [ -75.143416971778706, 39.983923075895852 ], [ -75.143425954931544, 39.983530737255691 ], [ -75.143407988625867, 39.983489438320397 ] ], [ [ -75.142815100538343, 39.984549436423606 ], [ -75.142842049996872, 39.984521904213381 ], [ -75.142851033149711, 39.984404892196117 ], [ -75.142940864678124, 39.984019439427733 ] ], [ [ -75.142815100538343, 39.984549436423606 ], [ -75.142536622800264, 39.984528787266981 ] ], [ [ -75.142536622800264, 39.984528787266981 ], [ -75.142392892354806, 39.984494371992056 ] ], [ [ -75.142392892354806, 39.984494371992056 ], [ -75.141880852642856, 39.984439307516119 ] ], [ [ -75.142392892354806, 39.984494371992056 ], [ -75.142419841813322, 39.984453073639258 ], [ -75.14245577442469, 39.98417086756038 ], [ -75.142617471175825, 39.983441256197679 ], [ -75.142644420634355, 39.983386190872963 ] ], [ [ -75.141880852642856, 39.984439307516119 ], [ -75.14121609933261, 39.98434982764806 ], [ -75.14091965528884, 39.984329178431103 ] ], [ [ -75.141880852642856, 39.984439307516119 ], [ -75.14194373471274, 39.984067621142707 ], [ -75.142114414616728, 39.983358658193964 ], [ -75.142204246145141, 39.982883717734758 ], [ -75.142231195603671, 39.982842418408374 ] ], [ [ -75.136994017497244, 39.984446190578034 ], [ -75.137047916414289, 39.983902426549903 ], [ -75.137074865872819, 39.983819829103709 ] ], [ [ -75.14091965528884, 39.984329178431103 ], [ -75.14081185745475, 39.98430164613211 ], [ -75.140551346022363, 39.984274113822025 ], [ -75.140497447105318, 39.984253464582167 ] ], [ [ -75.140497447105318, 39.984253464582167 ], [ -75.140030323157575, 39.984205282998253 ] ], [ [ -75.140497447105318, 39.984253464582167 ], [ -75.140524396563848, 39.984198399912074 ], [ -75.140524396563848, 39.984102036632599 ], [ -75.14056931232804, 39.983957491458547 ], [ -75.140614228092247, 39.983647750770103 ], [ -75.140829823760441, 39.982670337613037 ] ], [ [ -75.144045792477584, 39.984232815336078 ], [ -75.144090708241791, 39.983124629974498 ] ], [ [ -75.140030323157575, 39.984205282998253 ], [ -75.139536249751302, 39.984143335197587 ] ], [ [ -75.140030323157575, 39.984205282998253 ], [ -75.14005727261609, 39.984150218289329 ], [ -75.140075238921781, 39.983964374569013 ], [ -75.140120154685988, 39.983806062852977 ], [ -75.140201003061549, 39.983310475979017 ], [ -75.140362699812684, 39.982608388420616 ] ], [ [ -75.14145864445932, 39.984157101380369 ], [ -75.141602374904792, 39.983558269865348 ], [ -75.141629324363308, 39.983296709625648 ], [ -75.141737122197398, 39.982780469371981 ] ], [ [ -75.139536249751302, 39.984143335197587 ], [ -75.139518283445625, 39.984122685918216 ] ], [ [ -75.139518283445625, 39.984122685918216 ], [ -75.13954523290414, 39.984081387340744 ], [ -75.139617098126877, 39.983709699020132 ] ], [ [ -75.139518283445625, 39.984122685918216 ], [ -75.139024210039352, 39.984067621142707 ] ], [ [ -75.139024210039352, 39.984067621142707 ], [ -75.139006243733675, 39.984053854941898 ], [ -75.138646917620022, 39.984026322531953 ], [ -75.138125894755234, 39.983950608347399 ], [ -75.137892332781362, 39.983936842123008 ], [ -75.137838433864317, 39.983909309665911 ] ], [ [ -75.139024210039352, 39.984067621142707 ], [ -75.139176923637649, 39.983269176910589 ], [ -75.13935658669449, 39.982477606607723 ] ], [ [ -75.137775551794434, 39.983936842123008 ], [ -75.137739619183066, 39.983936842123008 ] ], [ [ -75.137739619183066, 39.983936842123008 ], [ -75.137694703418859, 39.983902426549903 ], [ -75.137622838196137, 39.983881777197716 ], [ -75.137245545776807, 39.983833595351683 ], [ -75.137128764789864, 39.983833595351683 ], [ -75.137101815331349, 39.983819829103709 ] ], [ [ -75.137775551794434, 39.983936842123008 ], [ -75.137802501252949, 39.983916192781223 ] ], [ [ -75.137802501252949, 39.983916192781223 ], [ -75.137838433864317, 39.983909309665911 ] ], [ [ -75.137838433864317, 39.983909309665911 ], [ -75.137919282239892, 39.983840478474626 ], [ -75.138080978991027, 39.983035148384609 ], [ -75.138269625200707, 39.982333057996968 ] ], [ [ -75.137802501252949, 39.983916192781223 ], [ -75.137739619183066, 39.983868010959462 ], [ -75.137739619183066, 39.983812945978691 ], [ -75.138027080073982, 39.982305524893576 ] ], [ [ -75.137101815331349, 39.983819829103709 ], [ -75.137074865872819, 39.983819829103709 ] ], [ [ -75.137101815331349, 39.983819829103709 ], [ -75.137128764789864, 39.983785413471665 ], [ -75.137173680554071, 39.983475672003095 ], [ -75.137209613165439, 39.983379307704254 ], [ -75.13744317513931, 39.982229808802053 ] ], [ [ -75.142994763595169, 39.983702815884016 ], [ -75.143048662512214, 39.98345502252193 ] ], [ [ -75.143407988625867, 39.983489438320397 ], [ -75.143048662512214, 39.98345502252193 ] ], [ [ -75.143407988625867, 39.983489438320397 ], [ -75.143434938084383, 39.983427489870671 ], [ -75.143416971778706, 39.983338008677428 ] ], [ [ -75.143048662512214, 39.98345502252193 ], [ -75.142752218468459, 39.983393074040983 ], [ -75.142644420634355, 39.983386190872963 ] ], [ [ -75.142644420634355, 39.983386190872963 ], [ -75.142725269009929, 39.982911250605149 ] ], [ [ -75.146165816548105, 39.983331125503874 ], [ -75.145950220879911, 39.983331125503874 ], [ -75.145752591517407, 39.983303592802677 ] ], [ [ -75.145752591517407, 39.983303592802677 ], [ -75.144962074067379, 39.983200345074394 ] ], [ [ -75.145752591517407, 39.983303592802677 ], [ -75.145770557823099, 39.983282943269501 ], [ -75.145797507281614, 39.983021381975767 ], [ -75.145968187185602, 39.982099026264514 ], [ -75.146040052408324, 39.981803043807837 ] ], [ [ -75.144962074067379, 39.983200345074394 ], [ -75.144225455534411, 39.983124629974498 ], [ -75.144162573464513, 39.983103980387227 ] ], [ [ -75.144962074067379, 39.983200345074394 ], [ -75.145159703429897, 39.982277991779092 ], [ -75.145231568652619, 39.981699793812005 ] ], [ [ -75.144090708241791, 39.983124629974498 ], [ -75.144162573464513, 39.983103980387227 ] ], [ [ -75.144090708241791, 39.983124629974498 ], [ -75.143991893560539, 39.983055797992677 ] ], [ [ -75.144162573464513, 39.983103980387227 ], [ -75.144216472381572, 39.983021381975767 ], [ -75.144270371298617, 39.982567088927794 ], [ -75.144414101744061, 39.981830577113712 ], [ -75.144432068049767, 39.981624077049226 ] ], [ [ -75.143991893560539, 39.983055797992677 ], [ -75.143677483211093, 39.983035148384609 ], [ -75.143156460346304, 39.982966316312648 ], [ -75.143093578276421, 39.982945666677537 ] ], [ [ -75.143991893560539, 39.983055797992677 ], [ -75.143973927254862, 39.982663454372208 ], [ -75.14387511257361, 39.981637843739612 ] ], [ [ -75.143093578276421, 39.982945666677537 ], [ -75.142752218468459, 39.982925017036187 ], [ -75.142725269009929, 39.982911250605149 ] ], [ [ -75.143093578276421, 39.982945666677537 ], [ -75.143129510887775, 39.98269787056941 ], [ -75.143327140250292, 39.981858110408488 ], [ -75.143345106555969, 39.981679143794125 ], [ -75.143363072861661, 39.981624077049226 ], [ -75.143390022320176, 39.981610310356075 ] ], [ [ -75.142725269009929, 39.982911250605149 ], [ -75.142833066844034, 39.982415657240558 ] ], [ [ -75.142725269009929, 39.982911250605149 ], [ -75.142276111367877, 39.982863068074685 ], [ -75.142231195603671, 39.982842418408374 ] ], [ [ -75.142231195603671, 39.982842418408374 ], [ -75.141737122197398, 39.982780469371981 ] ], [ [ -75.142231195603671, 39.982842418408374 ], [ -75.142464757577528, 39.981658493769984 ], [ -75.142527639647426, 39.981603427008459 ] ], [ [ -75.141737122197398, 39.982780469371981 ], [ -75.1413238971667, 39.982725403514692 ], [ -75.141305930861023, 39.982711637043437 ] ], [ [ -75.141737122197398, 39.982780469371981 ], [ -75.141808987420134, 39.98254643917204 ], [ -75.141862886337179, 39.98224357537039 ], [ -75.141979667324108, 39.981796160479639 ], [ -75.141988650476947, 39.981679143794125 ], [ -75.142006616782623, 39.981617193703002 ], [ -75.142042549393992, 39.981596543660146 ] ], [ [ -75.141305930861023, 39.982711637043437 ], [ -75.140829823760441, 39.982670337613037 ] ], [ [ -75.141305930861023, 39.982711637043437 ], [ -75.141332880319538, 39.982525789410026 ], [ -75.141413728695113, 39.982291758337723 ], [ -75.141521526529203, 39.981651610427221 ], [ -75.141548475987733, 39.981610310356075 ] ], [ [ -75.140829823760441, 39.982670337613037 ], [ -75.140362699812684, 39.982608388420616 ] ], [ [ -75.140829823760441, 39.982670337613037 ], [ -75.141018469970092, 39.981796160479639 ], [ -75.141090335192843, 39.981603427008459 ] ], [ [ -75.140362699812684, 39.982608388420616 ], [ -75.139904559017793, 39.98255332242465 ], [ -75.139877609559264, 39.982532672664718 ] ], [ [ -75.140362699812684, 39.982608388420616 ], [ -75.140398632424052, 39.98255332242465 ], [ -75.140398632424052, 39.982477606607723 ], [ -75.140533379716686, 39.981982010097688 ], [ -75.14059626178657, 39.981630960394767 ], [ -75.140632194397938, 39.981610310356075 ] ], [ [ -75.139877609559264, 39.982532672664718 ], [ -75.139697946502437, 39.982525789410026 ], [ -75.13935658669449, 39.982477606607723 ] ], [ [ -75.139877609559264, 39.982532672664718 ], [ -75.140066255768943, 39.981617193703002 ], [ -75.140093205227458, 39.981596543660146 ] ], [ [ -75.13935658669449, 39.982477606607723 ], [ -75.139392519305844, 39.982422540506356 ], [ -75.139518283445625, 39.981720443823654 ], [ -75.139554216056993, 39.981624077049226 ] ], [ [ -75.13935658669449, 39.982477606607723 ], [ -75.13932963723596, 39.982463840086545 ], [ -75.13884454698254, 39.982415657240558 ], [ -75.138808614371172, 39.982395007439024 ] ], [ [ -75.138808614371172, 39.982395007439024 ], [ -75.138323524117752, 39.982353707817225 ], [ -75.138269625200707, 39.982333057996968 ] ], [ [ -75.138808614371172, 39.982395007439024 ], [ -75.138916412205262, 39.981961360165087 ], [ -75.138970311122307, 39.981617193703002 ], [ -75.138988277427998, 39.981610310356075 ] ], [ [ -75.138269625200707, 39.982333057996968 ], [ -75.138314540964899, 39.982167859210222 ], [ -75.138323524117752, 39.981995776715948 ], [ -75.138359456729106, 39.981892527011361 ], [ -75.138404372493312, 39.981610310356075 ] ], [ [ -75.138269625200707, 39.982333057996968 ], [ -75.138027080073982, 39.982305524893576 ] ], [ [ -75.138027080073982, 39.982305524893576 ], [ -75.137973181156937, 39.98228487505876 ], [ -75.13744317513931, 39.982229808802053 ] ], [ [ -75.138027080073982, 39.982305524893576 ], [ -75.138036063226821, 39.982167859210222 ], [ -75.138170810519441, 39.981624077049226 ] ], [ [ -75.13744317513931, 39.982229808802053 ], [ -75.137586905584755, 39.981617193703002 ] ], [ [ -75.13744317513931, 39.982229808802053 ], [ -75.137362326763736, 39.98220915894435 ], [ -75.137047916414289, 39.982188509080402 ] ], [ [ -75.142922898372433, 39.981975126787518 ], [ -75.143012729900846, 39.981637843739612 ], [ -75.143048662512214, 39.981603427008459 ] ], [ [ -75.146040052408324, 39.981803043807837 ], [ -75.146093951325369, 39.981789277150746 ] ], [ [ -75.146040052408324, 39.981803043807837 ], [ -75.145375299098077, 39.981706677149916 ], [ -75.145231568652619, 39.981699793812005 ] ], [ [ -75.146093951325369, 39.981789277150746 ], [ -75.146102934478208, 39.981651610427221 ], [ -75.146022086102647, 39.981596543660146 ] ], [ [ -75.145231568652619, 39.981699793812005 ], [ -75.144710545787831, 39.981624077049226 ], [ -75.144432068049767, 39.981624077049226 ] ], [ [ -75.14387511257361, 39.981637843739612 ], [ -75.143964944102024, 39.981589660311137 ], [ -75.144432068049767, 39.981624077049226 ] ] ] } }
]
}
