{
"type": "FeatureCollection",
"name": "gee_batch_2_29.72078_-95.36907",
"crs": { "type": "name", "properties": { "name": "urn:ogc:def:crs:OGC:1.3:CRS84" } },
"features": [
{ "type": "Feature", "properties": { "name": "road_network" }, "geometry": { "type": "MultiLineString", "coordinates": [ [ [ -95.372582457738488, 29.724769459289842 ], [ -95.37270822187827, 29.724722652530026 ], [ -95.373004665922025, 29.724348197665527 ] ], [ [ -95.3720614348737, 29.724769459289842 ], [ -95.371890754969712, 29.724738254785727 ], [ -95.371540412008912, 29.724519822985204 ], [ -95.371342782646408, 29.724379402290936 ], [ -95.37130685003504, 29.724324794190096 ] ], [ [ -95.373642469773742, 29.724746055912664 ], [ -95.373615520315226, 29.724707050271906 ], [ -95.373498739328298, 29.72462903894489 ], [ -95.373031615380555, 29.724348197665527 ] ], [ [ -95.373031615380555, 29.724348197665527 ], [ -95.373004665922025, 29.724348197665527 ] ], [ [ -95.373004665922025, 29.724348197665527 ], [ -95.372968733310657, 29.724309191870116 ], [ -95.371342782646408, 29.723334042057548 ] ], [ [ -95.373031615380555, 29.724348197665527 ], [ -95.373247211048749, 29.724059554420492 ], [ -95.373292126812956, 29.72402054851289 ], [ -95.373319076271471, 29.72402054851289 ] ], [ [ -95.373669419232272, 29.724246782565928 ], [ -95.373319076271471, 29.72402054851289 ] ], [ [ -95.373319076271471, 29.72402054851289 ], [ -95.373346025730001, 29.723926934272789 ], [ -95.373498739328298, 29.72375530793914 ], [ -95.373543655092504, 29.723653892240364 ] ], [ [ -95.373031615380555, 29.723864524730878 ], [ -95.372825002865198, 29.723731904325437 ], [ -95.372690255572593, 29.723677295872257 ], [ -95.372321946306101, 29.723466662988773 ] ], [ [ -95.373543655092504, 29.723653892240364 ], [ -95.373588570856697, 29.723653892240364 ], [ -95.373615520315226, 29.723630488603018 ], [ -95.373669419232272, 29.72343545807955 ] ], [ [ -95.373543655092504, 29.723653892240364 ], [ -95.373301109965794, 29.723529072778121 ], [ -95.372636356655534, 29.723100004692554 ], [ -95.371872788664035, 29.722663133484271 ] ], [ [ -95.371342782646408, 29.723334042057548 ], [ -95.371369732104924, 29.723232625933068 ], [ -95.371504479397544, 29.723060998411995 ], [ -95.371549395161765, 29.723029793376632 ] ], [ [ -95.371809906594152, 29.723139010957954 ], [ -95.371639226690164, 29.723092203437655 ], [ -95.371549395161765, 29.723029793376632 ] ], [ [ -95.371549395161765, 29.723029793376632 ], [ -95.371558378314603, 29.722990787068781 ], [ -95.37168414245437, 29.72283476168576 ], [ -95.371720075065738, 29.722741146339516 ] ], [ [ -95.371720075065738, 29.722741146339516 ], [ -95.371809906594152, 29.722678736060178 ], [ -95.371872788664035, 29.722663133484271 ] ], [ [ -95.371720075065738, 29.722741146339516 ], [ -95.371288883729363, 29.722522710192017 ], [ -95.371261934270834, 29.722468101080857 ] ], [ [ -95.373669419232272, 29.722702139919477 ], [ -95.373642469773742, 29.722631928325196 ], [ -95.373552638245343, 29.722569517977931 ], [ -95.373121446908954, 29.722327677515693 ], [ -95.372869918629405, 29.722140445789854 ], [ -95.37257347458565, 29.72200782310605 ], [ -95.372447710445869, 29.721929809680759 ] ], [ [ -95.371872788664035, 29.722663133484271 ], [ -95.371899738122551, 29.722561716681799 ], [ -95.372187199013482, 29.722210657727985 ], [ -95.372205165319158, 29.722117041799564 ] ], [ [ -95.372205165319158, 29.722117041799564 ], [ -95.372250081083365, 29.722109240468257 ], [ -95.372357878917455, 29.72198441908483 ], [ -95.372447710445869, 29.721929809680759 ] ], [ [ -95.372205165319158, 29.722117041799564 ], [ -95.371333799493556, 29.721617755373202 ], [ -95.371243967965157, 29.72153194026852 ] ], [ [ -95.372447710445869, 29.721929809680759 ], [ -95.372474659904398, 29.721828392137226 ], [ -95.372690255572593, 29.72157094714338 ], [ -95.37270822187827, 29.72150853613633 ] ], [ [ -95.373669419232272, 29.721539741644705 ], [ -95.373624503468065, 29.721446125090473 ], [ -95.373103480603277, 29.721134069278989 ] ], [ [ -95.37270822187827, 29.72150853613633 ], [ -95.372780087101006, 29.721461727855573 ], [ -95.373031615380555, 29.721126267871274 ] ], [ [ -95.37270822187827, 29.72150853613633 ], [ -95.371513462550382, 29.720783005331327 ], [ -95.371252951117995, 29.720642579408423 ], [ -95.371217018506627, 29.720595770723801 ] ], [ [ -95.373103480603277, 29.721134069278989 ], [ -95.373031615380555, 29.721126267871274 ] ], [ [ -95.373103480603277, 29.721134069278989 ], [ -95.373283143660103, 29.720923431057745 ] ], [ [ -95.373031615380555, 29.721126267871274 ], [ -95.372968733310657, 29.721056055174525 ], [ -95.372869918629405, 29.721001445265312 ], [ -95.372744154489638, 29.720892225357744 ], [ -95.372699238725431, 29.720822012497266 ] ], [ [ -95.372699238725431, 29.720822012497266 ], [ -95.372519575668605, 29.720783005331327 ] ], [ [ -95.372699238725431, 29.720822012497266 ], [ -95.37270822187827, 29.7206113736211 ] ], [ [ -95.37270822187827, 29.7206113736211 ], [ -95.372753137642476, 29.720548962017343 ], [ -95.37292381754645, 29.719917042343493 ], [ -95.372968733310657, 29.719862431814537 ] ], [ [ -95.37270822187827, 29.7206113736211 ], [ -95.3724117778345, 29.720463145998803 ], [ -95.371495496244705, 29.719917042343493 ] ], [ [ -95.37119905220095, 29.720283712268383 ], [ -95.371234984812318, 29.72019009454257 ], [ -95.371387698410615, 29.720010660324007 ], [ -95.371423631021969, 29.719917042343493 ] ], [ [ -95.373660436079433, 29.720143285646909 ], [ -95.373615520315226, 29.720104278217189 ], [ -95.373112463756115, 29.719940446846802 ], [ -95.372968733310657, 29.719862431814537 ] ], [ [ -95.373669419232272, 29.720026263312267 ], [ -95.373615520315226, 29.719932645346308 ], [ -95.373579587703858, 29.719909240841172 ], [ -95.373175345825999, 29.719776615209007 ], [ -95.373013649074863, 29.719745409152438 ] ], [ [ -95.371495496244705, 29.719917042343493 ], [ -95.371423631021969, 29.719917042343493 ] ], [ [ -95.371495496244705, 29.719917042343493 ], [ -95.371540412008912, 29.719807821255866 ], [ -95.371666176148693, 29.719636187878045 ], [ -95.371989569650964, 29.719269515587609 ] ], [ [ -95.371423631021969, 29.719917042343493 ], [ -95.371226001659466, 29.719815622766074 ], [ -95.371190069048112, 29.719722004603646 ] ], [ [ -95.372968733310657, 29.719862431814537 ], [ -95.372968733310657, 29.719753210667491 ] ], [ [ -95.372968733310657, 29.719753210667491 ], [ -95.373013649074863, 29.719745409152438 ] ], [ [ -95.372968733310657, 29.719753210667491 ], [ -95.372896868087935, 29.719745409152438 ] ], [ [ -95.373013649074863, 29.719745409152438 ], [ -95.373049581686232, 29.719534768016832 ], [ -95.373238227895911, 29.718895040376509 ] ], [ [ -95.372896868087935, 29.719745409152438 ], [ -95.372869918629405, 29.719768813695776 ], [ -95.372833986018051, 29.719768813695776 ], [ -95.372699238725431, 29.719729806120515 ], [ -95.372142283249275, 29.719386538804557 ], [ -95.3720614348737, 29.719277317139653 ] ], [ [ -95.372896868087935, 29.719745409152438 ], [ -95.372825002865198, 29.719643989401586 ], [ -95.37254652512712, 29.719495760350611 ], [ -95.37222313162485, 29.719292920241909 ], [ -95.372151266402113, 29.719269515587609 ], [ -95.3720614348737, 29.719277317139653 ] ], [ [ -95.371208035353789, 29.719667393968567 ], [ -95.37130685003504, 29.719534768016832 ], [ -95.371324816340717, 29.719448951131138 ], [ -95.37119905220095, 29.719378737261003 ] ], [ [ -95.3720614348737, 29.719277317139653 ], [ -95.371989569650964, 29.719269515587609 ] ], [ [ -95.371989569650964, 29.719269515587609 ], [ -95.371971603345287, 29.719222706262624 ], [ -95.37192668758108, 29.719183698475128 ], [ -95.371594310925957, 29.718996460884135 ], [ -95.371288883729363, 29.718793619766405 ] ], [ [ -95.373669419232272, 29.719051071884255 ], [ -95.373624503468065, 29.718988659310266 ], [ -95.373238227895911, 29.718895040376509 ] ], [ [ -95.373238227895911, 29.718895040376509 ], [ -95.372807036559522, 29.718778016586526 ], [ -95.37243872729303, 29.718590778238767 ], [ -95.371396681563454, 29.717966647890357 ], [ -95.371190069048112, 29.717826218027152 ], [ -95.371154136436743, 29.717756003021872 ] ], [ [ -95.373238227895911, 29.718895040376509 ], [ -95.373265177354426, 29.718856032461673 ], [ -95.373274160507265, 29.718754611812159 ], [ -95.373489756175445, 29.718107077557111 ] ], [ [ -95.371288883729363, 29.718793619766405 ], [ -95.371261934270834, 29.718731207032334 ], [ -95.37117210274242, 29.718653191060156 ] ], [ [ -95.373669419232272, 29.718185093953746 ], [ -95.373588570856697, 29.718091474270501 ] ], [ [ -95.373489756175445, 29.718107077557111 ], [ -95.373588570856697, 29.718091474270501 ] ], [ [ -95.373489756175445, 29.718107077557111 ], [ -95.373381958341355, 29.7180836726263 ], [ -95.373337042577148, 29.718052466043385 ] ], [ [ -95.373588570856697, 29.718091474270501 ], [ -95.373669419232272, 29.717787209696947 ] ], [ [ -95.373337042577148, 29.718052466043385 ], [ -95.373238227895911, 29.718044664396146 ], [ -95.37305856483907, 29.717990052848464 ], [ -95.372582457738488, 29.71780281303085 ], [ -95.372088384332216, 29.717529754337409 ], [ -95.371378715257762, 29.717100660604121 ], [ -95.371226001659466, 29.717053850267707 ] ], [ [ -95.373337042577148, 29.718052466043385 ], [ -95.373417890952723, 29.717849623018001 ], [ -95.373525688786813, 29.717420530652056 ], [ -95.373552638245343, 29.717365918764813 ], [ -95.373606537162388, 29.717319108552097 ] ], [ [ -95.373669419232272, 29.71740492725873 ], [ -95.373642469773742, 29.717334711958756 ], [ -95.373606537162388, 29.717319108552097 ] ], [ [ -95.373606537162388, 29.717319108552097 ], [ -95.373480773022607, 29.717155272635679 ], [ -95.373301109965794, 29.716991436451863 ], [ -95.373031615380555, 29.716819798258197 ], [ -95.372896868087935, 29.716788591282366 ] ], [ [ -95.371136170131066, 29.717256694901184 ], [ -95.371154136436743, 29.717163074352047 ], [ -95.371226001659466, 29.717053850267707 ] ], [ [ -95.371226001659466, 29.717053850267707 ], [ -95.371208035353789, 29.717007039909465 ], [ -95.371145153283905, 29.716952427797256 ] ] ] } }
]
}
