{
"type": "FeatureCollection",
"name": "gee_batch_1_39.92961_-75.12373",
"crs": { "type": "name", "properties": { "name": "urn:ogc:def:crs:OGC:1.3:CRS84" } },
"features": [
{ "type": "Feature", "properties": { "name": "road_network" }, "geometry": { "type": "MultiLineString", "coordinates": [ [ [ -75.127263082142647, 39.933137842111968 ], [ -75.127370879976738, 39.933082736265902 ] ], [ [ -75.125969508133522, 39.933137842111968 ], [ -75.125915609216477, 39.933096512731581 ], [ -75.125879676605095, 39.932648776177686 ], [ -75.125870693452256, 39.932593669937866 ], [ -75.125852727146579, 39.932586781654763 ] ], [ [ -75.128287161566547, 39.933103400963375 ], [ -75.128044616439823, 39.933124065654617 ], [ -75.127451728352312, 39.933124065654617 ], [ -75.127370879976738, 39.933082736265902 ] ], [ [ -75.127370879976738, 39.933082736265902 ], [ -75.127406812588106, 39.932745211990621 ], [ -75.127505627269358, 39.932228589978429 ], [ -75.127550543033564, 39.931829066281907 ], [ -75.12757749249208, 39.931760182650258 ] ], [ [ -75.12469390043006, 39.932690105828435 ], [ -75.124738816194267, 39.932655664454543 ], [ -75.125852727146579, 39.932586781654763 ] ], [ [ -75.125852727146579, 39.932586781654763 ], [ -75.125861710299418, 39.932504122203525 ], [ -75.125807811382373, 39.932083935116246 ], [ -75.125807811382373, 39.931925503249751 ], [ -75.125780861923843, 39.931897949844235 ] ], [ [ -75.124702883582898, 39.931980610027523 ], [ -75.124774748805635, 39.931953056644183 ], [ -75.125780861923843, 39.931897949844235 ] ], [ [ -75.125780861923843, 39.931897949844235 ], [ -75.125780861923843, 39.931753294283276 ], [ -75.125700013548283, 39.931154003702567 ] ], [ [ -75.12757749249208, 39.931760182650258 ], [ -75.128215296343811, 39.931732629178185 ], [ -75.12826919526087, 39.931725740808432 ], [ -75.128296144719386, 39.931698187322503 ] ], [ [ -75.12757749249208, 39.931760182650258 ], [ -75.12757749249208, 39.931574196498538 ], [ -75.127649357714816, 39.931126449986486 ], [ -75.127649357714816, 39.931016235011235 ] ], [ [ -75.12469390043006, 39.93122977636461 ], [ -75.124711866735737, 39.931215999523197 ], [ -75.125700013548283, 39.931154003702567 ] ], [ [ -75.125700013548283, 39.931154003702567 ], [ -75.127433762046621, 39.931016235011235 ], [ -75.127649357714816, 39.931016235011235 ] ], [ [ -75.125700013548283, 39.931154003702567 ], [ -75.125610182019869, 39.930410049475185 ] ], [ [ -75.127649357714816, 39.931016235011235 ], [ -75.127667324020507, 39.930995569683617 ], [ -75.127739189243229, 39.93053404240792 ], [ -75.127748172396068, 39.930258502252379 ] ], [ [ -75.12469390043006, 39.930506488442283 ], [ -75.124765765652796, 39.93047204596963 ], [ -75.125610182019869, 39.930410049475185 ] ], [ [ -75.125610182019869, 39.930410049475185 ], [ -75.126283918482955, 39.930354941432988 ] ], [ [ -75.125610182019869, 39.930410049475185 ], [ -75.125520350491456, 39.929604089937726 ] ], [ [ -75.126283918482955, 39.930354941432988 ], [ -75.127748172396068, 39.930258502252379 ] ], [ [ -75.126283918482955, 39.930354941432988 ], [ -75.126283918482955, 39.930258502252379 ], [ -75.126256969024425, 39.930203394088181 ] ], [ [ -75.127748172396068, 39.930258502252379 ], [ -75.127793088160274, 39.930210282611135 ] ], [ [ -75.12826919526087, 39.930210282611135 ], [ -75.128107498509706, 39.930230948175826 ], [ -75.127846987077319, 39.930230948175826 ], [ -75.127793088160274, 39.930210282611135 ] ], [ [ -75.127793088160274, 39.930210282611135 ], [ -75.127748172396068, 39.929528315476098 ], [ -75.127703256631875, 39.929232105412176 ], [ -75.127694273479023, 39.928860118865224 ] ], [ [ -75.125520350491456, 39.929604089937726 ], [ -75.125574249408501, 39.929583424183782 ], [ -75.126005440744876, 39.929548981246683 ], [ -75.126023407050567, 39.929535204066987 ] ], [ [ -75.125520350491456, 39.929604089937726 ], [ -75.125493401032926, 39.929528315476098 ], [ -75.125439502115881, 39.928970337312094 ] ], [ [ -75.12469390043006, 39.929039223751268 ], [ -75.124729833041428, 39.929004780540346 ], [ -75.12485559718121, 39.92899100325112 ], [ -75.125439502115881, 39.928970337312094 ] ], [ [ -75.125439502115881, 39.928970337312094 ], [ -75.12558323256134, 39.928942782717009 ], [ -75.125933575522154, 39.928935894066505 ], [ -75.126247985871586, 39.928894562148933 ], [ -75.127451728352312, 39.928811898238912 ], [ -75.127487660963666, 39.928784343580055 ] ], [ [ -75.128323094177915, 39.928929005415313 ], [ -75.128206313190972, 39.928825675564177 ] ], [ [ -75.127694273479023, 39.928860118865224 ], [ -75.128206313190972, 39.928825675564177 ] ], [ [ -75.127694273479023, 39.928860118865224 ], [ -75.127595458797757, 39.928805009575235 ], [ -75.127487660963666, 39.928784343580055 ] ], [ [ -75.127487660963666, 39.928784343580055 ], [ -75.12744274519946, 39.928681013510563 ], [ -75.126993587557408, 39.928288357824023 ], [ -75.126948671793201, 39.928178138279115 ] ], [ [ -75.124675934124383, 39.928391688486208 ], [ -75.124765765652796, 39.928309023968936 ], [ -75.125987474439199, 39.928233248073752 ], [ -75.126688160360814, 39.928178138279115 ], [ -75.12671510981933, 39.928164360823516 ] ], [ [ -75.126948671793201, 39.928178138279115 ], [ -75.126984604404569, 39.928157472094682 ], [ -75.127999700675616, 39.92808169603174 ], [ -75.128179363732457, 39.92805414107896 ], [ -75.128215296343811, 39.928033474857102 ] ], [ [ -75.126948671793201, 39.928178138279115 ], [ -75.12671510981933, 39.928164360823516 ] ], [ [ -75.12671510981933, 39.928164360823516 ], [ -75.126661210902284, 39.928019697372399 ], [ -75.126185103801703, 39.927613260326119 ], [ -75.126005440744876, 39.927482373306034 ], [ -75.125152041224965, 39.926731490302352 ], [ -75.124729833041428, 39.926387045802073 ], [ -75.124657967818692, 39.926228600750008 ] ], [ [ -75.128215296343811, 39.928033474857102 ], [ -75.128188346885295, 39.928012808629006 ], [ -75.128125464815398, 39.927854367339634 ], [ -75.127963768064262, 39.927702814458833 ], [ -75.126355783705677, 39.926635046016955 ], [ -75.126023407050567, 39.926380156894389 ], [ -75.125987474439199, 39.926373267986015 ] ], [ [ -75.128323094177915, 39.927296375531213 ], [ -75.128314111025063, 39.927268820262334 ], [ -75.127802071313113, 39.926889934190548 ], [ -75.127245115836971, 39.926511046021815 ] ], [ [ -75.128323094177915, 39.926759045787513 ], [ -75.128278178413709, 39.926683268176646 ], [ -75.127990717522778, 39.926531712703266 ], [ -75.127155284308557, 39.926132155756157 ], [ -75.126939688640363, 39.926090822145788 ] ] ] } }
]
}
