{
"type": "FeatureCollection",
"name": "gee_batch_0_29.39000_-98.47081",
"crs": { "type": "name", "properties": { "name": "urn:ogc:def:crs:OGC:1.3:CRS84" } },
"features": [
{ "type": "Feature", "properties": { "name": "road_network" }, "geometry": { "type": "MultiLineString", "coordinates": [ [ [ -98.474574826766471, 29.393999715006867 ], [ -98.474619742530663, 29.393952754744419 ], [ -98.474610759377825, 29.393310962317905 ] ], [ [ -98.467828478982725, 29.393991888297965 ], [ -98.467801529524209, 29.393968408167645 ], [ -98.467810512677048, 29.393624032300163 ] ], [ [ -98.469562227481077, 29.393976234878352 ], [ -98.469589176939593, 29.393960581456337 ], [ -98.469580193786754, 29.393624032300163 ] ], [ [ -98.471529537953288, 29.393968408167645 ], [ -98.471538521106126, 29.393624032300163 ] ], [ [ -98.473460915814158, 29.393944928031903 ], [ -98.473478882119835, 29.393905794460284 ], [ -98.473478882119835, 29.393303135556003 ] ], [ [ -98.471538521106126, 29.393624032300163 ], [ -98.471969712442515, 29.393616205562349 ] ], [ [ -98.471538521106126, 29.393624032300163 ], [ -98.471538521106126, 29.393091812756957 ] ], [ [ -98.470604273210654, 29.393624032300163 ], [ -98.469580193786754, 29.393624032300163 ] ], [ [ -98.469580193786754, 29.393624032300163 ], [ -98.467810512677048, 29.393624032300163 ] ], [ [ -98.469580193786754, 29.393624032300163 ], [ -98.469580193786754, 29.393091812756957 ] ], [ [ -98.466229477776992, 29.393631859037374 ], [ -98.466669652266205, 29.393616205562349 ], [ -98.467810512677048, 29.393624032300163 ] ], [ [ -98.467810512677048, 29.393624032300163 ], [ -98.467801529524209, 29.393091812756957 ] ], [ [ -98.475365344216485, 29.393318789079206 ], [ -98.475149748548304, 29.393303135556003 ], [ -98.474610759377825, 29.393310962317905 ] ], [ [ -98.474610759377825, 29.393310962317905 ], [ -98.473478882119835, 29.393303135556003 ] ], [ [ -98.473478882119835, 29.393303135556003 ], [ -98.473469898966997, 29.393083985978183 ] ], [ [ -98.466211511471315, 29.393130946641755 ], [ -98.466256427235507, 29.393091812756957 ], [ -98.467801529524209, 29.393091812756957 ] ], [ [ -98.469580193786754, 29.393091812756957 ], [ -98.467801529524209, 29.393091812756957 ] ], [ [ -98.471538521106126, 29.393091812756957 ], [ -98.469580193786754, 29.393091812756957 ] ], [ [ -98.469580193786754, 29.393091812756957 ], [ -98.469580193786754, 29.392575244066482 ] ], [ [ -98.471538521106126, 29.393091812756957 ], [ -98.473469898966997, 29.393083985978183 ] ], [ [ -98.471538521106126, 29.393091812756957 ], [ -98.471529537953288, 29.392575244066482 ] ], [ [ -98.467801529524209, 29.393091812756957 ], [ -98.467810512677048, 29.392575244066482 ] ], [ [ -98.473469898966997, 29.393083985978183 ], [ -98.473478882119835, 29.392543936788798 ] ], [ [ -98.473101589700505, 29.392590897701702 ], [ -98.473092606547667, 29.392575244066482 ], [ -98.472957859255047, 29.392567417247957 ], [ -98.472463785848774, 29.392575244066482 ], [ -98.471879880914102, 29.39255176360912 ] ], [ [ -98.471529537953288, 29.392575244066482 ], [ -98.469580193786754, 29.392575244066482 ] ], [ [ -98.469580193786754, 29.392575244066482 ], [ -98.467810512677048, 29.392575244066482 ] ], [ [ -98.469580193786754, 29.392575244066482 ], [ -98.469580193786754, 29.392043019035402 ] ], [ [ -98.467810512677048, 29.392575244066482 ], [ -98.467819495829886, 29.392050845894268 ] ], [ [ -98.466229477776992, 29.392583070884388 ], [ -98.467154742519639, 29.392567417247957 ] ], [ [ -98.471529537953288, 29.392575244066482 ], [ -98.471538521106126, 29.392043019035402 ] ], [ [ -98.467675765384413, 29.392575244066482 ], [ -98.467244574048053, 29.392575244066482 ] ], [ [ -98.473478882119835, 29.392543936788798 ], [ -98.473811258774958, 29.392528283146344 ], [ -98.475374327369323, 29.392528283146344 ] ], [ [ -98.473478882119835, 29.392543936788798 ], [ -98.473469898966997, 29.392050845894268 ] ], [ [ -98.467819495829886, 29.392050845894268 ], [ -98.466247444082668, 29.392043019035402 ] ], [ [ -98.469580193786754, 29.392043019035402 ], [ -98.468241704013408, 29.392050845894268 ], [ -98.468151872484995, 29.392035192175925 ], [ -98.467819495829886, 29.392050845894268 ] ], [ [ -98.467819495829886, 29.392050845894268 ], [ -98.467819495829886, 29.390994214499685 ] ], [ [ -98.473469898966997, 29.392050845894268 ], [ -98.471538521106126, 29.392043019035402 ] ], [ [ -98.473469898966997, 29.392050845894268 ], [ -98.473478882119835, 29.391025522254349 ] ], [ [ -98.471538521106126, 29.392043019035402 ], [ -98.469580193786754, 29.392043019035402 ] ], [ [ -98.469580193786754, 29.392043019035402 ], [ -98.469580193786754, 29.391009868378216 ] ], [ [ -98.471538521106126, 29.392043019035402 ], [ -98.471547504258979, 29.391017695316577 ] ], [ [ -98.475356361063646, 29.391244676267199 ], [ -98.47517669800682, 29.391244676267199 ] ], [ [ -98.47517669800682, 29.391244676267199 ], [ -98.474673641447708, 29.391260330107194 ], [ -98.474449062626675, 29.391236849346306 ], [ -98.473919056609049, 29.391080310801826 ], [ -98.473721427246545, 29.391041176128066 ], [ -98.473478882119835, 29.391025522254349 ] ], [ [ -98.47517669800682, 29.391244676267199 ], [ -98.475185681159658, 29.390822021676776 ], [ -98.475167714853981, 29.390696790349761 ], [ -98.475086866478406, 29.390532423999083 ], [ -98.474952119185787, 29.390368057382819 ], [ -98.474844321351696, 29.390336749425806 ], [ -98.473487865272674, 29.390336749425806 ] ], [ [ -98.473478882119835, 29.391025522254349 ], [ -98.4726434489056, 29.391009868378216 ], [ -98.471547504258979, 29.391017695316577 ] ], [ [ -98.473478882119835, 29.391025522254349 ], [ -98.473478882119835, 29.390626347660564 ] ], [ [ -98.471547504258979, 29.391017695316577 ], [ -98.469580193786754, 29.391009868378216 ] ], [ [ -98.471547504258979, 29.391017695316577 ], [ -98.471565470564656, 29.39061852069209 ] ], [ [ -98.469580193786754, 29.391009868378216 ], [ -98.467819495829886, 29.390994214499685 ] ], [ [ -98.469580193786754, 29.391009868378216 ], [ -98.469589176939593, 29.390602866753323 ] ], [ [ -98.467819495829886, 29.390994214499685 ], [ -98.46634625876392, 29.390986387559508 ], [ -98.466274393541198, 29.390978560618738 ], [ -98.466220494624153, 29.390931598961437 ] ], [ [ -98.467819495829886, 29.390994214499685 ], [ -98.467819495829886, 29.390555904922586 ] ], [ [ -98.473478882119835, 29.390626347660564 ], [ -98.471565470564656, 29.39061852069209 ] ], [ [ -98.473478882119835, 29.390626347660564 ], [ -98.473487865272674, 29.390336749425806 ] ], [ [ -98.471565470564656, 29.39061852069209 ], [ -98.469589176939593, 29.390602866753323 ] ], [ [ -98.471565470564656, 29.39061852069209 ], [ -98.471574453717494, 29.38987495594052 ], [ -98.471556487411817, 29.389757550482901 ] ], [ [ -98.469589176939593, 29.390602866753323 ], [ -98.469580193786754, 29.390078458412738 ], [ -98.469598160092445, 29.389757550482901 ] ], [ [ -98.467819495829886, 29.390555904922586 ], [ -98.466220494624153, 29.390548077948687 ] ], [ [ -98.467819495829886, 29.390555904922586 ], [ -98.467810512677048, 29.390117593456868 ] ], [ [ -98.475401276827853, 29.390391538344264 ], [ -98.47531144529944, 29.390054977379023 ], [ -98.4746916077534, 29.389264446081242 ], [ -98.474161601735759, 29.388638278316957 ], [ -98.473721427246545, 29.388168649964435 ], [ -98.4736675283295, 29.388129514170529 ], [ -98.473505831578365, 29.388082551197972 ] ], [ [ -98.473487865272674, 29.390336749425806 ], [ -98.473478882119835, 29.389749723447579 ] ], [ [ -98.468430350223088, 29.390125420463892 ], [ -98.467810512677048, 29.390117593456868 ] ], [ [ -98.467810512677048, 29.390117593456868 ], [ -98.466247444082668, 29.390109766449243 ] ], [ [ -98.467810512677048, 29.390117593456868 ], [ -98.467801529524209, 29.389256619007977 ] ], [ [ -98.475401276827853, 29.389882782966207 ], [ -98.475329411605117, 29.389647971933545 ], [ -98.475248563229556, 29.389538393266143 ], [ -98.474476012085205, 29.388591315579266 ], [ -98.473972955526108, 29.388027761035932 ], [ -98.47353278103688, 29.387589438677242 ], [ -98.473442949508467, 29.38737027678971 ] ], [ [ -98.471556487411817, 29.389757550482901 ], [ -98.473478882119835, 29.389749723447579 ] ], [ [ -98.471556487411817, 29.389757550482901 ], [ -98.469598160092445, 29.389757550482901 ] ], [ [ -98.471556487411817, 29.389757550482901 ], [ -98.471574453717494, 29.388888745885168 ] ], [ [ -98.473478882119835, 29.389749723447579 ], [ -98.473478882119835, 29.388888745885168 ] ], [ [ -98.469598160092445, 29.389757550482901 ], [ -98.469580193786754, 29.389702761222974 ] ], [ [ -98.469580193786754, 29.389702761222974 ], [ -98.469050187769128, 29.389702761222974 ], [ -98.468556114362855, 29.389679280102545 ], [ -98.467972209428183, 29.389687107143288 ] ], [ [ -98.469580193786754, 29.389702761222974 ], [ -98.469580193786754, 29.389264446081242 ] ], [ [ -98.469580193786754, 29.389264446081242 ], [ -98.467801529524209, 29.389256619007977 ] ], [ [ -98.469580193786754, 29.389264446081242 ], [ -98.469589176939593, 29.388888745885168 ] ], [ [ -98.475401276827853, 29.389264446081242 ], [ -98.475356361063646, 29.38912355867031 ], [ -98.475248563229556, 29.389006152345495 ], [ -98.475194664312511, 29.388912227188079 ], [ -98.47517669800682, 29.388833956157324 ], [ -98.47517669800682, 29.388481735773663 ] ], [ [ -98.467801529524209, 29.389256619007977 ], [ -98.466247444082668, 29.389256619007977 ] ], [ [ -98.467801529524209, 29.389256619007977 ], [ -98.467801529524209, 29.388395637272183 ] ], [ [ -98.473478882119835, 29.388888745885168 ], [ -98.471574453717494, 29.388888745885168 ] ], [ [ -98.473478882119835, 29.388888745885168 ], [ -98.473478882119835, 29.388129514170529 ], [ -98.473505831578365, 29.388082551197972 ] ], [ [ -98.471574453717494, 29.388888745885168 ], [ -98.469589176939593, 29.388888745885168 ] ], [ [ -98.471574453717494, 29.388888745885168 ], [ -98.471556487411817, 29.388019933867515 ] ], [ [ -98.469589176939593, 29.388888745885168 ], [ -98.469580193786754, 29.388395637272183 ] ], [ [ -98.475365344216485, 29.388481735773663 ], [ -98.47517669800682, 29.388481735773663 ] ], [ [ -98.47517669800682, 29.388481735773663 ], [ -98.474808388740328, 29.388481735773663 ] ], [ [ -98.47517669800682, 29.388481735773663 ], [ -98.475167714853981, 29.387565957069018 ] ], [ [ -98.469580193786754, 29.388395637272183 ], [ -98.467801529524209, 29.388395637272183 ] ], [ [ -98.469580193786754, 29.388395637272183 ], [ -98.469589176939593, 29.388019933867515 ] ], [ [ -98.467801529524209, 29.388395637272183 ], [ -98.46726254035373, 29.388379982991353 ], [ -98.466256427235507, 29.388387810132066 ] ], [ [ -98.467801529524209, 29.388395637272183 ], [ -98.467801529524209, 29.387511166628748 ] ], [ [ -98.473505831578365, 29.388082551197972 ], [ -98.473496848425526, 29.388035588203742 ], [ -98.47345193266132, 29.387988625187823 ] ], [ [ -98.471556487411817, 29.388019933867515 ], [ -98.472957859255047, 29.388019933867515 ], [ -98.472975825560724, 29.388004279528868 ] ], [ [ -98.471556487411817, 29.388019933867515 ], [ -98.469589176939593, 29.388019933867515 ] ], [ [ -98.471556487411817, 29.388019933867515 ], [ -98.471556487411817, 29.387229386755553 ], [ -98.471538521106126, 29.387198077832579 ] ], [ [ -98.469589176939593, 29.388019933867515 ], [ -98.469589176939593, 29.387597265878778 ], [ -98.469571210633916, 29.38752682104327 ] ], [ [ -98.472975825560724, 29.388004279528868 ], [ -98.473038707630622, 29.388019933867515 ], [ -98.473398033744274, 29.388027761035932 ], [ -98.47345193266132, 29.387988625187823 ] ], [ [ -98.472975825560724, 29.388004279528868 ], [ -98.472948876102208, 29.387902526269009 ], [ -98.4726434489056, 29.387589438677242 ], [ -98.472311072250477, 29.387174596134031 ], [ -98.471951746136824, 29.386791060957105 ], [ -98.471870897761264, 29.386728442831739 ], [ -98.47180801569138, 29.386712788294375 ] ], [ [ -98.47345193266132, 29.387988625187823 ], [ -98.473416000049951, 29.387863390372729 ], [ -98.472894977185163, 29.387331140688683 ], [ -98.471906830372632, 29.386454488080101 ], [ -98.471861914608425, 29.386423178918662 ], [ -98.471682251551584, 29.386376215158432 ] ], [ [ -98.473990921831785, 29.387581611475103 ], [ -98.474197534347127, 29.387565957069018 ], [ -98.475167714853981, 29.387565957069018 ] ], [ [ -98.475167714853981, 29.387565957069018 ], [ -98.475374327369323, 29.387558129865074 ] ], [ [ -98.475167714853981, 29.387565957069018 ], [ -98.47517669800682, 29.387033705828888 ] ], [ [ -98.469571210633916, 29.38752682104327 ], [ -98.468214754554893, 29.387511166628748 ] ], [ [ -98.469571210633916, 29.38752682104327 ], [ -98.469580193786754, 29.387198077832579 ] ], [ [ -98.468214754554893, 29.387511166628748 ], [ -98.467801529524209, 29.387511166628748 ] ], [ [ -98.467801529524209, 29.387511166628748 ], [ -98.466651685960528, 29.387503339420586 ] ], [ [ -98.466256427235507, 29.387518993836309 ], [ -98.466570837584953, 29.387518993836309 ], [ -98.466651685960528, 29.387503339420586 ] ], [ [ -98.468214754554893, 29.387511166628748 ], [ -98.46820577140204, 29.386822370005341 ] ], [ [ -98.466651685960528, 29.387503339420586 ], [ -98.46664270280769, 29.386712788294375 ], [ -98.466624736502013, 29.386642342846432 ] ], [ [ -98.473442949508467, 29.38737027678971 ], [ -98.473478882119835, 29.387315486244056 ], [ -98.473487865272674, 29.387057187559957 ] ], [ [ -98.473442949508467, 29.38737027678971 ], [ -98.473227353840272, 29.387292004572604 ], [ -98.472553617377187, 29.386595379187366 ], [ -98.472508701612981, 29.386462315368959 ] ], [ [ -98.471538521106126, 29.387198077832579 ], [ -98.472059543970929, 29.387182423367481 ] ], [ [ -98.471538521106126, 29.387198077832579 ], [ -98.469580193786754, 29.387198077832579 ] ], [ [ -98.471538521106126, 29.387198077832579 ], [ -98.471538521106126, 29.386744097366694 ] ], [ [ -98.469580193786754, 29.387198077832579 ], [ -98.469580193786754, 29.386728442831739 ] ], [ [ -98.473487865272674, 29.387057187559957 ], [ -98.473541764189719, 29.387033705828888 ], [ -98.47404482074883, 29.387025878583991 ], [ -98.47517669800682, 29.387033705828888 ] ], [ [ -98.473487865272674, 29.387057187559957 ], [ -98.473469898966997, 29.387033705828888 ], [ -98.473478882119835, 29.386877160816564 ] ], [ [ -98.47517669800682, 29.387033705828888 ], [ -98.475365344216485, 29.387025878583991 ], [ -98.475401276827853, 29.386955433352831 ], [ -98.475383310522162, 29.386102259458351 ], [ -98.475365344216485, 29.386063122869555 ] ], [ [ -98.473478882119835, 29.386877160816564 ], [ -98.473218370687434, 29.386798888220067 ], [ -98.472814128809574, 29.386501451804204 ], [ -98.472688364669807, 29.386431006209925 ], [ -98.472589549988555, 29.386415351626798 ], [ -98.472508701612981, 29.386462315368959 ] ], [ [ -98.473478882119835, 29.386877160816564 ], [ -98.473496848425526, 29.386070950188515 ] ], [ [ -98.46820577140204, 29.386822370005341 ], [ -98.469041204616289, 29.386798888220067 ], [ -98.469355614965721, 29.386744097366694 ], [ -98.469580193786754, 29.386728442831739 ] ], [ [ -98.46820577140204, 29.386822370005341 ], [ -98.46820577140204, 29.386344905972898 ] ], [ [ -98.471538521106126, 29.386744097366694 ], [ -98.471763099927173, 29.386736270099515 ], [ -98.47180801569138, 29.386712788294375 ] ], [ [ -98.471538521106126, 29.386744097366694 ], [ -98.469580193786754, 29.386728442831739 ] ], [ [ -98.469580193786754, 29.386728442831739 ], [ -98.469571210633916, 29.386360560566871 ] ], [ [ -98.47180801569138, 29.386712788294375 ], [ -98.47178106623285, 29.386634515571419 ], [ -98.471709201010128, 29.386556242788252 ], [ -98.471673268398746, 29.386470142657213 ], [ -98.471682251551584, 29.386376215158432 ] ], [ [ -98.466624736502013, 29.386642342846432 ], [ -98.466247444082668, 29.386642342846432 ], [ -98.466220494624153, 29.386618861019606 ] ], [ [ -98.466624736502013, 29.386642342846432 ], [ -98.46664270280769, 29.386438833500584 ], [ -98.466687618571896, 29.386376215158432 ], [ -98.466759483794618, 29.386344905972898 ], [ -98.46820577140204, 29.386344905972898 ] ], [ [ -98.469157985603218, 29.386595379187366 ], [ -98.469166968756056, 29.386360560566871 ] ], [ [ -98.472508701612981, 29.386462315368959 ], [ -98.472409886931729, 29.386415351626798 ], [ -98.47202361135956, 29.386078777506881 ], [ -98.471736150468644, 29.386000504296156 ] ], [ [ -98.471682251551584, 29.386376215158432 ], [ -98.471394790660682, 29.386110086774309 ], [ -98.470963599324293, 29.385992676971767 ] ], [ [ -98.469571210633916, 29.386360560566871 ], [ -98.469166968756056, 29.386360560566871 ] ], [ [ -98.469571210633916, 29.386360560566871 ], [ -98.469571210633916, 29.386157050657381 ] ], [ [ -98.469166968756056, 29.386360560566871 ], [ -98.469005272004921, 29.386337078675012 ], [ -98.46820577140204, 29.386344905972898 ] ], [ [ -98.469571210633916, 29.386157050657381 ], [ -98.469589176939593, 29.386031813587664 ] ], [ [ -98.473496848425526, 29.386070950188515 ], [ -98.475365344216485, 29.386063122869555 ] ] ] } }
]
}
