{
"type": "FeatureCollection",
"name": "gee_batch_0_29.71962_-95.40761",
"crs": { "type": "name", "properties": { "name": "urn:ogc:def:crs:OGC:1.3:CRS84" } },
"features": [
{ "type": "Feature", "properties": { "weight": 197.38477631085024, "nodes": "1-7" }, "geometry": { "type": "LineString", "coordinates": [ [ -95.412163849568003, 29.723574706564808 ], [ -95.412163849568003, 29.723488893133471 ], [ -95.412127916956649, 29.723465489457649 ], [ -95.410582814667961, 29.723449887004065 ], [ -95.410537898903755, 29.723434284548055 ] ] } },
{ "type": "Feature", "properties": { "weight": 75.071067811865476, "nodes": "2-15" }, "geometry": { "type": "LineString", "coordinates": [ [ -95.408606521042898, 29.723574706564808 ], [ -95.408615504195737, 29.723200247416841 ], [ -95.40859753789006, 29.723005216057224 ] ] } },
{ "type": "Feature", "properties": { "weight": 195.21320343559643, "nodes": "3-4" }, "geometry": { "type": "LineString", "coordinates": [ [ -95.405192922963238, 29.723574706564808 ], [ -95.405282754491651, 29.723543501689175 ], [ -95.405570215382568, 29.723520098026086 ], [ -95.406567345347938, 29.723512296803836 ], [ -95.406890738850223, 29.723535700468744 ] ] } },
{ "type": "Feature", "properties": { "weight": 64.414213562373092, "nodes": "4-13" }, "geometry": { "type": "LineString", "coordinates": [ [ -95.406890738850223, 29.723535700468744 ], [ -95.406881755697384, 29.723036421100232 ] ] } },
{ "type": "Feature", "properties": { "weight": 166.89949493661166, "nodes": "5-6" }, "geometry": { "type": "LineString", "coordinates": [ [ -95.409037712379273, 29.723496694357532 ], [ -95.40935212272872, 29.723512296803836 ], [ -95.409962977121907, 29.723473290683526 ], [ -95.410510949445225, 29.723473290683526 ] ] } },
{ "type": "Feature", "properties": { "weight": 6.0644951022459797, "nodes": "6-7" }, "geometry": { "type": "LineString", "coordinates": [ [ -95.410510949445225, 29.723473290683526 ], [ -95.410537898903755, 29.723434284548055 ] ] } },
{ "type": "Feature", "properties": { "weight": 57.242640687119291, "nodes": "7-17" }, "geometry": { "type": "LineString", "coordinates": [ [ -95.410537898903755, 29.723434284548055 ], [ -95.410510949445225, 29.72299741479496 ] ] } },
{ "type": "Feature", "properties": { "weight": 159.45584412271569, "nodes": "9-18" }, "geometry": { "type": "LineString", "coordinates": [ [ -95.405489367006993, 29.723106632411525 ], [ -95.405516316465523, 29.723106632411525 ], [ -95.405579198535406, 29.723059824876124 ], [ -95.405866659426337, 29.723067626133535 ], [ -95.406109204553033, 29.723028619840392 ], [ -95.406567345347938, 29.723005216057224 ], [ -95.406854806238854, 29.723013017318891 ] ] } },
{ "type": "Feature", "properties": { "weight": 16.65685424949238, "nodes": "10-11" }, "geometry": { "type": "LineString", "coordinates": [ [ -95.405372586020064, 29.723083228646558 ], [ -95.405345636561535, 29.723059824876124 ], [ -95.405246821880297, 29.723075427390356 ] ] } },
{ "type": "Feature", "properties": { "weight": 209.45584412271569, "nodes": "11-12" }, "geometry": { "type": "LineString", "coordinates": [ [ -95.405246821880297, 29.723075427390356 ], [ -95.404977327295043, 29.723059824876124 ], [ -95.404833596849599, 29.723083228646558 ], [ -95.404034096246718, 29.723075427390356 ], [ -95.403881382648422, 29.723098831157149 ], [ -95.403629854368873, 29.723098831157149 ], [ -95.403477140770562, 29.723083228646558 ], [ -95.403432225006355, 29.723059824876124 ] ] } },
{ "type": "Feature", "properties": { "weight": 47.89949493661166, "nodes": "12-16" }, "geometry": { "type": "LineString", "coordinates": [ [ -95.403432225006355, 29.723059824876124 ], [ -95.403081882045555, 29.723067626133535 ], [ -95.40302798312851, 29.723020818579947 ] ] } },
{ "type": "Feature", "properties": { "weight": 83.485281374238568, "nodes": "12-26" }, "geometry": { "type": "LineString", "coordinates": [ [ -95.403432225006355, 29.723059824876124 ], [ -95.403468157617723, 29.72281798559542 ], [ -95.403468157617723, 29.722521536649847 ], [ -95.403450191312047, 29.722427921011423 ] ] } },
{ "type": "Feature", "properties": { "weight": 79.656854249492383, "nodes": "13-14" }, "geometry": { "type": "LineString", "coordinates": [ [ -95.407582441618999, 29.723036421100232 ], [ -95.407214132352507, 29.723020818579947 ], [ -95.406881755697384, 29.723036421100232 ] ] } },
{ "type": "Feature", "properties": { "weight": 4.2426406871192857, "nodes": "13-18" }, "geometry": { "type": "LineString", "coordinates": [ [ -95.406881755697384, 29.723036421100232 ], [ -95.406854806238854, 29.723013017318891 ] ] } },
{ "type": "Feature", "properties": { "weight": 116.96399003885765, "nodes": "14-15" }, "geometry": { "type": "LineString", "coordinates": [ [ -95.407582441618999, 29.723036421100232 ], [ -95.407654306841721, 29.723052023618102 ], [ -95.408031599261065, 29.723028619840392 ], [ -95.408444824291749, 29.723036421100232 ], [ -95.40859753789006, 29.723005216057224 ] ] } },
{ "type": "Feature", "properties": { "weight": 216.29784057427986, "nodes": "15-17" }, "geometry": { "type": "LineString", "coordinates": [ [ -95.410510949445225, 29.72299741479496 ], [ -95.410448067375341, 29.723013017318891 ], [ -95.409765347759418, 29.723028619840392 ], [ -95.409037712379273, 29.723028619840392 ], [ -95.40859753789006, 29.723005216057224 ] ] } },
{ "type": "Feature", "properties": { "weight": 199.68918959474956, "nodes": "15-42" }, "geometry": { "type": "LineString", "coordinates": [ [ -95.40859753789006, 29.723005216057224 ], [ -95.408561605278678, 29.722256292114174 ], [ -95.408444824291749, 29.721835019940176 ], [ -95.408399908527542, 29.721624383190058 ], [ -95.408399908527542, 29.72152296533789 ] ] } },
{ "type": "Feature", "properties": { "weight": 91.13556291411146, "nodes": "17-21" }, "geometry": { "type": "LineString", "coordinates": [ [ -95.410510949445225, 29.72299741479496 ], [ -95.410537898903755, 29.722981812268607 ], [ -95.411301466895253, 29.72295060720862 ] ] } },
{ "type": "Feature", "properties": { "weight": 105.06177259678005, "nodes": "17-28" }, "geometry": { "type": "LineString", "coordinates": [ [ -95.410510949445225, 29.72299741479496 ], [ -95.41048399998671, 29.722638556075079 ], [ -95.410448067375341, 29.722505934049508 ], [ -95.410439084222503, 29.722201682858046 ] ] } },
{ "type": "Feature", "properties": { "weight": 109.48528137423858, "nodes": "18-29" }, "geometry": { "type": "LineString", "coordinates": [ [ -95.406854806238854, 29.723013017318891 ], [ -95.406836839933177, 29.722443523623895 ], [ -95.406800907321809, 29.722178278882033 ] ] } },
{ "type": "Feature", "properties": { "weight": 103.79898987322333, "nodes": "21-22" }, "geometry": { "type": "LineString", "coordinates": [ [ -95.411301466895253, 29.72295060720862 ], [ -95.411355365812298, 29.722911600869988 ], [ -95.411642826703215, 29.722903799600441 ], [ -95.411849439218557, 29.72293500467498 ], [ -95.412011135969706, 29.722903799600441 ], [ -95.412181815873694, 29.722903799600441 ] ] } },
{ "type": "Feature", "properties": { "weight": 148.71067811865476, "nodes": "23-39" }, "geometry": { "type": "LineString", "coordinates": [ [ -95.40513004089334, 29.722576145731939 ], [ -95.405121057740502, 29.722505934049508 ], [ -95.405040209364941, 29.722310901340585 ], [ -95.404815630543908, 29.721881828046843 ], [ -95.404770714779701, 29.721741403661365 ], [ -95.404680883251302, 29.721616581820452 ], [ -95.404680883251302, 29.721577574963327 ] ] } },
{ "type": "Feature", "properties": { "weight": 162.79898987322332, "nodes": "24-25" }, "geometry": { "type": "LineString", "coordinates": [ [ -95.410780444030451, 29.722529337949108 ], [ -95.410861292406025, 29.722537139247766 ], [ -95.411777573995835, 29.722466927538044 ], [ -95.412172832720856, 29.722474728841554 ], [ -95.412181815873694, 29.722490331446743 ] ] } },
{ "type": "Feature", "properties": { "weight": 68.556349186104043, "nodes": "27-33" }, "geometry": { "type": "LineString", "coordinates": [ [ -95.403423241853517, 29.722303100024348 ], [ -95.40340527554784, 29.722131470913638 ], [ -95.403360359783633, 29.722069060255155 ], [ -95.40305493258704, 29.722053457584472 ] ] } },
{ "type": "Feature", "properties": { "weight": 61.899494936611667, "nodes": "28-30" }, "geometry": { "type": "LineString", "coordinates": [ [ -95.410439084222503, 29.722201682858046 ], [ -95.410879258711716, 29.722170477555483 ], [ -95.41096909024013, 29.722147073572195 ] ] } },
{ "type": "Feature", "properties": { "weight": 28.071067811865479, "nodes": "28-34" }, "geometry": { "type": "LineString", "coordinates": [ [ -95.410439084222503, 29.722201682858046 ], [ -95.410394168458296, 29.721998848217964 ] ] } },
{ "type": "Feature", "properties": { "weight": 91.213203435596427, "nodes": "29-32" }, "geometry": { "type": "LineString", "coordinates": [ [ -95.406800907321809, 29.722178278882033 ], [ -95.406899722003075, 29.722170477555483 ], [ -95.407061418754211, 29.722115868252658 ], [ -95.407474643784909, 29.722084662923411 ], [ -95.407564475313322, 29.722061258920117 ] ] } },
{ "type": "Feature", "properties": { "weight": 98.597979746446669, "nodes": "29-44" }, "geometry": { "type": "LineString", "coordinates": [ [ -95.406800907321809, 29.722178278882033 ], [ -95.406675143182028, 29.721827218586949 ], [ -95.406567345347938, 29.721608780450246 ], [ -95.406549379042261, 29.721499561203608 ] ] } },
{ "type": "Feature", "properties": { "weight": 93.627416997969519, "nodes": "31-34" }, "geometry": { "type": "LineString", "coordinates": [ [ -95.409612634161107, 29.722108066921262 ], [ -95.409909078204862, 29.722084662923411 ], [ -95.410151623331572, 29.722022252235817 ], [ -95.410394168458296, 29.721998848217964 ] ] } },
{ "type": "Feature", "properties": { "weight": 17.0, "nodes": "34-35" }, "geometry": { "type": "LineString", "coordinates": [ [ -95.410394168458296, 29.721998848217964 ], [ -95.410394168458296, 29.721866225347039 ] ] } },
{ "type": "Feature", "properties": { "weight": 64.549776476484553, "nodes": "35-37" }, "geometry": { "type": "LineString", "coordinates": [ [ -95.410394168458296, 29.721866225347039 ], [ -95.410942140781614, 29.721796013167953 ] ] } },
{ "type": "Feature", "properties": { "weight": 41.89949493661166, "nodes": "35-40" }, "geometry": { "type": "LineString", "coordinates": [ [ -95.410394168458296, 29.721866225347039 ], [ -95.410358235846928, 29.721749205021268 ], [ -95.41034925269409, 29.721561972216236 ] ] } },
{ "type": "Feature", "properties": { "weight": 16.892922226992169, "nodes": "40-43" }, "geometry": { "type": "LineString", "coordinates": [ [ -95.41034925269409, 29.721561972216236 ], [ -95.41048399998671, 29.72152296533789 ] ] } },
{ "type": "Feature", "properties": { "weight": 63.870057685088803, "nodes": "40-48" }, "geometry": { "type": "LineString", "coordinates": [ [ -95.41034925269409, 29.721561972216236 ], [ -95.410313320082722, 29.721515163960401 ], [ -95.410214505401456, 29.721179704154714 ], [ -95.410178572790102, 29.721125094312782 ] ] } },
{ "type": "Feature", "properties": { "weight": 72.177193474454057, "nodes": "41-46" }, "geometry": { "type": "LineString", "coordinates": [ [ -95.404043079399557, 29.721538568091049 ], [ -95.404438338124578, 29.721390341838106 ], [ -95.404546135958668, 29.721366937672897 ], [ -95.404582068570036, 29.72132793071874 ] ] } },
{ "type": "Feature", "properties": { "weight": 218.94674609615453, "nodes": "42-48" }, "geometry": { "type": "LineString", "coordinates": [ [ -95.408399908527542, 29.72152296533789 ], [ -95.408534655820162, 29.721507362582305 ], [ -95.409226358588938, 29.721335732110784 ], [ -95.409549752091209, 29.721273320957462 ], [ -95.409756364606565, 29.721210909765329 ], [ -95.410178572790102, 29.721125094312782 ] ] } },
{ "type": "Feature", "properties": { "weight": 90.662474848692639, "nodes": "42-51" }, "geometry": { "type": "LineString", "coordinates": [ [ -95.408399908527542, 29.72152296533789 ], [ -95.408310076999129, 29.721398143225297 ], [ -95.408157363400832, 29.721031477371763 ], [ -95.408148380247994, 29.7209612646087 ], [ -95.408112447636626, 29.720922257496884 ] ] } },
{ "type": "Feature", "properties": { "weight": 139.12489168102792, "nodes": "44-49" }, "geometry": { "type": "LineString", "coordinates": [ [ -95.406549379042261, 29.721499561203608 ], [ -95.407528542701954, 29.72114849853439 ], [ -95.407609391077528, 29.721101690085717 ] ] } },
{ "type": "Feature", "properties": { "weight": 102.97618334767739, "nodes": "44-54" }, "geometry": { "type": "LineString", "coordinates": [ [ -95.406549379042261, 29.721499561203608 ], [ -95.406504463278054, 29.721452752918658 ], [ -95.406414631749641, 29.721242115366252 ], [ -95.406190052928608, 29.720828640366665 ] ] } },
{ "type": "Feature", "properties": { "weight": 78.384776310850242, "nodes": "45-47" }, "geometry": { "type": "LineString", "coordinates": [ [ -95.411256551131046, 29.72135133489305 ], [ -95.411544012021963, 29.72128892374943 ], [ -95.411912321288455, 29.721249916764961 ] ] } },
{ "type": "Feature", "properties": { "weight": 205.3315224070048, "nodes": "46-54" }, "geometry": { "type": "LineString", "coordinates": [ [ -95.404582068570036, 29.72132793071874 ], [ -95.404698849556979, 29.721312327932839 ], [ -95.404842580002438, 29.721226512567007 ], [ -95.405085125129133, 29.721132895720597 ], [ -95.405228855574606, 29.721109491495344 ], [ -95.405633097452451, 29.720984668868514 ], [ -95.405830726814969, 29.7209612646087 ], [ -95.406118187705886, 29.720875448942699 ], [ -95.406190052928608, 29.720828640366665 ] ] } },
{ "type": "Feature", "properties": { "weight": 336.94826817189067, "nodes": "46-77" }, "geometry": { "type": "LineString", "coordinates": [ [ -95.404582068570036, 29.72132793071874 ], [ -95.4045102033473, 29.721179704154714 ], [ -95.404411388666048, 29.721039278786854 ], [ -95.404330540290488, 29.720828640366665 ], [ -95.403971214176835, 29.720110906133989 ], [ -95.403899348954099, 29.719915868770862 ], [ -95.403728669050125, 29.719619411253039 ], [ -95.403629854368873, 29.71937756368208 ], [ -95.403477140770562, 29.71909670770707 ] ] } },
{ "type": "Feature", "properties": { "weight": 31.478708664619077, "nodes": "48-53" }, "geometry": { "type": "LineString", "coordinates": [ [ -95.410178572790102, 29.721125094312782 ], [ -95.410160606484411, 29.720891051796517 ] ] } },
{ "type": "Feature", "properties": { "weight": 65.348766349707873, "nodes": "49-51" }, "geometry": { "type": "LineString", "coordinates": [ [ -95.407609391077528, 29.721101690085717 ], [ -95.407672273147412, 29.72109388867548 ], [ -95.407896851968431, 29.721000271705353 ], [ -95.408067531872433, 29.720953463187556 ], [ -95.408112447636626, 29.720922257496884 ] ] } },
{ "type": "Feature", "properties": { "weight": 226.50871588145887, "nodes": "51-59" }, "geometry": { "type": "LineString", "coordinates": [ [ -95.408112447636626, 29.720922257496884 ], [ -95.408453807444587, 29.720766228898015 ], [ -95.409037712379273, 29.720555589904777 ], [ -95.409495853174164, 29.720360553405772 ], [ -95.409612634161107, 29.72032934753075 ], [ -95.409819246676463, 29.720227928369951 ] ] } },
{ "type": "Feature", "properties": { "weight": 121.04725115954288, "nodes": "51-61" }, "geometry": { "type": "LineString", "coordinates": [ [ -95.408112447636626, 29.720922257496884 ], [ -95.408076515025272, 29.720875448942699 ], [ -95.407932784579799, 29.720516582635298 ], [ -95.407717188911619, 29.720118707620635 ] ] } },
{ "type": "Feature", "properties": { "weight": 86.769552621700456, "nodes": "52-56" }, "geometry": { "type": "LineString", "coordinates": [ [ -95.411526045716286, 29.720914456072702 ], [ -95.412145883262326, 29.720766228898015 ], [ -95.41220876533221, 29.720727221710401 ] ] } },
{ "type": "Feature", "properties": { "weight": 204.33809511662429, "nodes": "53-57" }, "geometry": { "type": "LineString", "coordinates": [ [ -95.410160606484411, 29.720891051796517 ], [ -95.411157736449795, 29.720586795709451 ], [ -95.411660793008906, 29.720422965126691 ], [ -95.411750624537305, 29.72037615633964 ] ] } },
{ "type": "Feature", "properties": { "weight": 102.14118351331172, "nodes": "53-59" }, "geometry": { "type": "LineString", "coordinates": [ [ -95.410160606484411, 29.720891051796517 ], [ -95.410097724414527, 29.72083644179752 ], [ -95.40986416244067, 29.720321546060482 ], [ -95.409855179287817, 29.7202591342765 ], [ -95.409819246676463, 29.720227928369951 ] ] } },
{ "type": "Feature", "properties": { "weight": 12.0, "nodes": "54-55" }, "geometry": { "type": "LineString", "coordinates": [ [ -95.406190052928608, 29.720828640366665 ], [ -95.406190052928608, 29.720735023149135 ] ] } },
{ "type": "Feature", "properties": { "weight": 202.72287142747453, "nodes": "55-61" }, "geometry": { "type": "LineString", "coordinates": [ [ -95.406190052928608, 29.720735023149135 ], [ -95.406405648596802, 29.72067261162227 ], [ -95.406791924168971, 29.720524384090407 ], [ -95.407070401907049, 29.720383957805662 ], [ -95.407546509007631, 29.720188920973126 ], [ -95.407663289994574, 29.720157715044753 ], [ -95.407717188911619, 29.720118707620635 ] ] } },
{ "type": "Feature", "properties": { "weight": 62.342193640088382, "nodes": "55-58" }, "geometry": { "type": "LineString", "coordinates": [ [ -95.406190052928608, 29.720735023149135 ], [ -95.40615412031724, 29.720727221710401 ], [ -95.406127170858724, 29.720688214507618 ], [ -95.405992423566104, 29.720415163663695 ], [ -95.405974457260427, 29.720337149000411 ] ] } },
{ "type": "Feature", "properties": { "weight": 61.455844122715703, "nodes": "57-60" }, "geometry": { "type": "LineString", "coordinates": [ [ -95.411750624537305, 29.72037615633964 ], [ -95.41210096749812, 29.720298141646033 ], [ -95.412163849568003, 29.720274737226131 ], [ -95.41220876533221, 29.720212325413048 ] ] } },
{ "type": "Feature", "properties": { "weight": 56.870057685088803, "nodes": "57-62" }, "geometry": { "type": "LineString", "coordinates": [ [ -95.411750624537305, 29.72037615633964 ], [ -95.411579944633331, 29.719993883761589 ] ] } },
{ "type": "Feature", "properties": { "weight": 204.12393957060863, "nodes": "58-65" }, "geometry": { "type": "LineString", "coordinates": [ [ -95.405974457260427, 29.720337149000411 ], [ -95.407223115505346, 29.719876861252754 ], [ -95.407528542701954, 29.719744235577796 ] ] } },
{ "type": "Feature", "properties": { "weight": 80.834047723946441, "nodes": "58-64" }, "geometry": { "type": "LineString", "coordinates": [ [ -95.405974457260427, 29.720337149000411 ], [ -95.405938524649059, 29.720313744589607 ], [ -95.405767844745085, 29.720017288246993 ], [ -95.405704962675188, 29.71980664768196 ] ] } },
{ "type": "Feature", "properties": { "weight": 204.88787159310883, "nodes": "59-68" }, "geometry": { "type": "LineString", "coordinates": [ [ -95.409819246676463, 29.720227928369951 ], [ -95.409936027663392, 29.720196722453704 ], [ -95.410142640178734, 29.720087501670427 ], [ -95.41080739348898, 29.719861258241263 ], [ -95.411193669061163, 29.719697426474209 ], [ -95.411382315270814, 29.719642815825761 ] ] } },
{ "type": "Feature", "properties": { "weight": 113.39696961966999, "nodes": "59-71" }, "geometry": { "type": "LineString", "coordinates": [ [ -95.409819246676463, 29.720227928369951 ], [ -95.4095677183969, 29.71973643406205 ], [ -95.409477886868487, 29.719517991374875 ], [ -95.409441954257119, 29.719478983702142 ] ] } },
{ "type": "Feature", "properties": { "weight": 165.61017305526642, "nodes": "61-66" }, "geometry": { "type": "LineString", "coordinates": [ [ -95.407717188911619, 29.720118707620635 ], [ -95.407771087828664, 29.720079700181355 ], [ -95.407878885662754, 29.720056295710521 ], [ -95.408121430789478, 29.719962677772582 ], [ -95.408462790597426, 29.719876861252754 ], [ -95.408992796615067, 29.719674021914223 ] ] } },
{ "type": "Feature", "properties": { "weight": 57.106125662588582, "nodes": "61-65" }, "geometry": { "type": "LineString", "coordinates": [ [ -95.407717188911619, 29.720118707620635 ], [ -95.407681256300251, 29.720079700181355 ], [ -95.407555492160483, 29.719767640121411 ], [ -95.407528542701954, 29.719744235577796 ] ] } },
{ "type": "Feature", "properties": { "weight": 33.206630725976936, "nodes": "63-67" }, "geometry": { "type": "LineString", "coordinates": [ [ -95.411535028869125, 29.719861258241263 ], [ -95.411418247882182, 29.719642815825761 ] ] } },
{ "type": "Feature", "properties": { "weight": 206.49999557819231, "nodes": "64-73" }, "geometry": { "type": "LineString", "coordinates": [ [ -95.405704962675188, 29.71980664768196 ], [ -95.405767844745085, 29.719752037092935 ], [ -95.405884625732014, 29.719728632545689 ], [ -95.406603277959306, 29.719478983702142 ], [ -95.407088368212726, 29.719252738901321 ], [ -95.407223115505346, 29.719221532681875 ], [ -95.407259048116714, 29.719182524893924 ] ] } },
{ "type": "Feature", "properties": { "weight": 227.94964418988889, "nodes": "65-76" }, "geometry": { "type": "LineString", "coordinates": [ [ -95.407528542701954, 29.719744235577796 ], [ -95.407582441618999, 29.719705227992986 ], [ -95.407789054134341, 29.719658418871209 ], [ -95.408642453654267, 29.719361960592966 ], [ -95.409145510213364, 29.719135715528374 ], [ -95.409271274353145, 29.71909670770707 ] ] } },
{ "type": "Feature", "properties": { "weight": 83.996325384114826, "nodes": "65-73" }, "geometry": { "type": "LineString", "coordinates": [ [ -95.407528542701954, 29.719744235577796 ], [ -95.407259048116714, 29.719182524893924 ] ] } },
{ "type": "Feature", "properties": { "weight": 31.556349186104043, "nodes": "67-70" }, "geometry": { "type": "LineString", "coordinates": [ [ -95.411418247882182, 29.719642815825761 ], [ -95.411660793008906, 29.719556999032456 ] ] } },
{ "type": "Feature", "properties": { "weight": 4.0, "nodes": "67-68" }, "geometry": { "type": "LineString", "coordinates": [ [ -95.411418247882182, 29.719642815825761 ], [ -95.411382315270814, 29.719642815825761 ] ] } },
{ "type": "Feature", "properties": { "weight": 265.23101734361649, "nodes": "68-81" }, "geometry": { "type": "LineString", "coordinates": [ [ -95.411382315270814, 29.719642815825761 ], [ -95.411256551131046, 29.719322952859596 ], [ -95.411067904921381, 29.71897968415221 ], [ -95.411040955462866, 29.718823652533487 ], [ -95.411400281576505, 29.718722231851253 ], [ -95.411499096257756, 29.718714430256068 ], [ -95.411849439218557, 29.718628612668997 ], [ -95.412154866415165, 29.718589604650621 ], [ -95.41220876533221, 29.718558398225007 ] ] } },
{ "type": "Feature", "properties": { "weight": 39.627416997969519, "nodes": "69-71" }, "geometry": { "type": "LineString", "coordinates": [ [ -95.409145510213364, 29.719603808201537 ], [ -95.409235341741777, 29.719588205147598 ], [ -95.409397038492912, 29.719517991374875 ], [ -95.409441954257119, 29.719478983702142 ] ] } },
{ "type": "Feature", "properties": { "weight": 57.054822688560201, "nodes": "71-76" }, "geometry": { "type": "LineString", "coordinates": [ [ -95.409441954257119, 29.719478983702142 ], [ -95.409307206964513, 29.719182524893924 ], [ -95.409298223811675, 29.719112310837406 ], [ -95.409271274353145, 29.71909670770707 ] ] } },
{ "type": "Feature", "properties": { "weight": 227.3797256769669, "nodes": "73-82" }, "geometry": { "type": "LineString", "coordinates": [ [ -95.407259048116714, 29.719182524893924 ], [ -95.407303963880921, 29.719151318652653 ], [ -95.40739379540932, 29.719135715528374 ], [ -95.408211262317877, 29.718815850946182 ], [ -95.408624487348575, 29.718683223869256 ], [ -95.408804150405402, 29.718605207859792 ], [ -95.40894788085086, 29.71857400143903 ], [ -95.408992796615067, 29.71853499339943 ] ] } },
{ "type": "Feature", "properties": { "weight": 154.36753236814712, "nodes": "73-84" }, "geometry": { "type": "LineString", "coordinates": [ [ -95.407259048116714, 29.719182524893924 ], [ -95.407223115505346, 29.719143517090817 ], [ -95.407187182893978, 29.719026493590523 ], [ -95.406800907321809, 29.718293143215558 ], [ -95.40677395786328, 29.718152713809125 ] ] } },
{ "type": "Feature", "properties": { "weight": 162.40916292848976, "nodes": "74-83" }, "geometry": { "type": "LineString", "coordinates": [ [ -95.403018999975671, 29.719112310837406 ], [ -95.403108831504085, 29.719026493590523 ], [ -95.403369342936472, 29.718940676270272 ], [ -95.403423241853517, 29.718886065210086 ], [ -95.403575955451828, 29.718792446180636 ], [ -95.403854433189892, 29.718652017472749 ], [ -95.404186809845029, 29.71853499339943 ] ] } },
{ "type": "Feature", "properties": { "weight": 61.627416997969519, "nodes": "75-78" }, "geometry": { "type": "LineString", "coordinates": [ [ -95.411705708773098, 29.719104509272537 ], [ -95.411759607690158, 29.719104509272537 ], [ -95.412029102275397, 29.719018692018988 ], [ -95.412199782179371, 29.718995287300736 ] ] } },
{ "type": "Feature", "properties": { "weight": 156.18666427780789, "nodes": "76-79" }, "geometry": { "type": "LineString", "coordinates": [ [ -95.409271274353145, 29.71909670770707 ], [ -95.409334156423029, 29.7190576998706 ], [ -95.409397038492912, 29.719049898301495 ], [ -95.409918061357715, 29.718847057291757 ], [ -95.410016876038966, 29.718792446180636 ], [ -95.41045705052818, 29.718636414270858 ] ] } },
{ "type": "Feature", "properties": { "weight": 84.662474848692625, "nodes": "76-82" }, "geometry": { "type": "LineString", "coordinates": [ [ -95.409271274353145, 29.71909670770707 ], [ -95.408992796615067, 29.71853499339943 ] ] } },
{ "type": "Feature", "properties": { "weight": 201.4386001800126, "nodes": "80-85" }, "geometry": { "type": "LineString", "coordinates": [ [ -95.410618747279315, 29.718581803045129 ], [ -95.411157736449795, 29.718363357845096 ], [ -95.411930287594132, 29.718176118723832 ], [ -95.412181815873694, 29.718144912169667 ], [ -95.41220876533221, 29.71812150724767 ] ] } },
{ "type": "Feature", "properties": { "weight": 415.15489889786767, "nodes": "82-89" }, "geometry": { "type": "LineString", "coordinates": [ [ -95.408992796615067, 29.71853499339943 ], [ -95.409639583619622, 29.718261936697765 ], [ -95.409819246676463, 29.718207325268303 ], [ -95.410205522248617, 29.718043490801616 ], [ -95.410510949445225, 29.717957672640921 ], [ -95.410582814667961, 29.717910862704162 ], [ -95.410708578807728, 29.717895259387053 ], [ -95.410852309253187, 29.717832846094382 ], [ -95.41121163536684, 29.717723622738824 ], [ -95.411463163646403, 29.717692416043981 ], [ -95.411849439218557, 29.717536382424221 ], [ -95.412163849568003, 29.71750517567116 ], [ -95.41220876533221, 29.717466167216202 ] ] } },
{ "type": "Feature", "properties": { "weight": 157.67466815751237, "nodes": "82-88" }, "geometry": { "type": "LineString", "coordinates": [ [ -95.408992796615067, 29.71853499339943 ], [ -95.408956864003699, 29.718503786956838 ], [ -95.408938897698022, 29.718433572425521 ], [ -95.408759234641195, 29.718113705605791 ], [ -95.408552622125839, 29.717676812692922 ], [ -95.408462790597426, 29.717536382424221 ], [ -95.408426857986072, 29.717520779048904 ] ] } },
{ "type": "Feature", "properties": { "weight": 217.37315296734741, "nodes": "84-88" }, "geometry": { "type": "LineString", "coordinates": [ [ -95.40677395786328, 29.718152713809125 ], [ -95.407645323688882, 29.71781724276515 ], [ -95.408013632955374, 29.717653407661778 ], [ -95.408426857986072, 29.717520779048904 ] ] } },
{ "type": "Feature", "properties": { "weight": 206.36658025772792, "nodes": "84-91" }, "geometry": { "type": "LineString", "coordinates": [ [ -95.40677395786328, 29.718152713809125 ], [ -95.406711075793396, 29.718113705605791 ], [ -95.406234968692814, 29.717255521297442 ], [ -95.406082255094518, 29.716935650723691 ], [ -95.406046322483149, 29.716810822906215 ] ] } },
{ "type": "Feature", "properties": { "weight": 23.485281374238571, "nodes": "86-87" }, "geometry": { "type": "LineString", "coordinates": [ [ -95.412002152816868, 29.717708019392617 ], [ -95.412074018039604, 29.717715821066026 ], [ -95.412190799026533, 29.717676812692922 ] ] } },
{ "type": "Feature", "properties": { "weight": 209.75230867899739, "nodes": "88-94" }, "geometry": { "type": "LineString", "coordinates": [ [ -95.408426857986072, 29.717520779048904 ], [ -95.408399908527542, 29.717380348561917 ], [ -95.407896851968431, 29.71636612254493 ], [ -95.407842953051386, 29.716225690442609 ], [ -95.407824986745709, 29.716100861742273 ] ] } },
{ "type": "Feature", "properties": { "weight": 95.325901807804513, "nodes": "90-91" }, "geometry": { "type": "LineString", "coordinates": [ [ -95.405336653408696, 29.717107288719259 ], [ -95.405363602867226, 29.717076081832801 ], [ -95.405543265924038, 29.717013668030784 ], [ -95.405902592037691, 29.716834228133813 ], [ -95.406046322483149, 29.716810822906215 ] ] } },
{ "type": "Feature", "properties": { "weight": 77.225396744416187, "nodes": "91-93" }, "geometry": { "type": "LineString", "coordinates": [ [ -95.406046322483149, 29.716810822906215 ], [ -95.406064288788841, 29.716756210687258 ], [ -95.406234968692814, 29.716639184403721 ], [ -95.406486496972377, 29.716389527876213 ] ] } },
{ "type": "Feature", "properties": { "weight": 140.89949493661166, "nodes": "92-95" }, "geometry": { "type": "LineString", "coordinates": [ [ -95.410555865209432, 29.71671720194124 ], [ -95.410573831515109, 29.716553365042429 ], [ -95.41056484836227, 29.715679563732671 ], [ -95.4105917978208, 29.715648356402362 ] ] } },
{ "type": "Feature", "properties": { "weight": 170.12489168102786, "nodes": "93-94" }, "geometry": { "type": "LineString", "coordinates": [ [ -95.406486496972377, 29.716389527876213 ], [ -95.406702092640558, 29.716444140294669 ], [ -95.406827856780325, 29.716436338522421 ], [ -95.407627357383205, 29.716124267135406 ], [ -95.407824986745709, 29.716100861742273 ] ] } },
{ "type": "Feature", "properties": { "weight": 109.87005768508881, "nodes": "93-97" }, "geometry": { "type": "LineString", "coordinates": [ [ -95.406486496972377, 29.716389527876213 ], [ -95.406531412736584, 29.716124267135406 ], [ -95.406531412736584, 29.715851203875943 ], [ -95.406477513819539, 29.715671761901007 ], [ -95.406387682291125, 29.71562495089827 ] ] } },
{ "type": "Feature", "properties": { "weight": 82.154328932550712, "nodes": "94-96" }, "geometry": { "type": "LineString", "coordinates": [ [ -95.407824986745709, 29.716100861742273 ], [ -95.408004649802521, 29.715952627459028 ], [ -95.408076515025272, 29.715851203875943 ], [ -95.408148380247994, 29.715671761901007 ], [ -95.408229228623568, 29.715632752733569 ] ] } }
]
}
