{
"type": "FeatureCollection",
"name": "gee_batch_4_29.71420_-95.38088",
"crs": { "type": "name", "properties": { "name": "urn:ogc:def:crs:OGC:1.3:CRS84" } },
"features": [
{ "type": "Feature", "properties": { "weight": 119.5096679918781, "nodes": "0-15" }, "geometry": { "type": "LineString", "coordinates": [ [ -95.383600098878148, 29.718192134710417 ], [ -95.383492301044058, 29.718153126522417 ], [ -95.38315992438892, 29.717778647146293 ], [ -95.383106025471875, 29.717685027083977 ], [ -95.382980261332108, 29.717575803567566 ], [ -95.382917379262224, 29.717560200198378 ] ] } },
{ "type": "Feature", "properties": { "weight": 31.041630560342618, "nodes": "1-8" }, "geometry": { "type": "LineString", "coordinates": [ [ -95.382234659646286, 29.718192134710417 ], [ -95.38229754171617, 29.718153126522417 ], [ -95.382405339550274, 29.718020498569818 ] ] } },
{ "type": "Feature", "properties": { "weight": 88.183766184073562, "nodes": "2-14" }, "geometry": { "type": "LineString", "coordinates": [ [ -95.380249382868385, 29.718192134710417 ], [ -95.380348197549637, 29.718137523242962 ], [ -95.380509894300786, 29.71774744046856 ], [ -95.380527860606463, 29.717622613660581 ] ] } },
{ "type": "Feature", "properties": { "weight": 114.00562059920027, "nodes": "3-9" }, "geometry": { "type": "LineString", "coordinates": [ [ -95.379836157837687, 29.718192134710417 ], [ -95.379512764335402, 29.718160928161232 ], [ -95.379288185514383, 29.71807511010093 ], [ -95.378910893095039, 29.717981490315115 ] ] } },
{ "type": "Feature", "properties": { "weight": 330.81680378124338, "nodes": "4-28" }, "geometry": { "type": "LineString", "coordinates": [ [ -95.378380887077412, 29.718192134710417 ], [ -95.378524617522871, 29.718106316676799 ], [ -95.378830044719479, 29.717068692827432 ], [ -95.378946825706407, 29.716600588331911 ], [ -95.379027674081982, 29.716140283449374 ], [ -95.37903665723482, 29.715875022049953 ] ] } },
{ "type": "Feature", "properties": { "weight": 310.13051228022812, "nodes": "5-25" }, "geometry": { "type": "LineString", "coordinates": [ [ -95.377725116920004, 29.718192134710417 ], [ -95.377877830518301, 29.718090713390083 ], [ -95.378300038701852, 29.71663959712324 ], [ -95.378389870230251, 29.716179292419582 ], [ -95.378434785994457, 29.71612467985705 ], [ -95.378506651217194, 29.716093472665118 ] ] } },
{ "type": "Feature", "properties": { "weight": 33.384776310850235, "nodes": "6-9" }, "geometry": { "type": "LineString", "coordinates": [ [ -95.378776145802433, 29.718184333074031 ], [ -95.37882106156664, 29.718160928161232 ], [ -95.378856994177994, 29.718036101867451 ], [ -95.378910893095039, 29.717981490315115 ] ] } },
{ "type": "Feature", "properties": { "weight": 304.06601717798213, "nodes": "7-25" }, "geometry": { "type": "LineString", "coordinates": [ [ -95.378057493575128, 29.718184333074031 ], [ -95.3782012240206, 29.718090713390083 ], [ -95.378623432204122, 29.716623993608529 ], [ -95.378605465898445, 29.7165537777623 ], [ -95.378623432204122, 29.716202697794433 ], [ -95.378506651217194, 29.716093472665118 ] ] } },
{ "type": "Feature", "properties": { "weight": 127.08326112068524, "nodes": "9-17" }, "geometry": { "type": "LineString", "coordinates": [ [ -95.378910893095039, 29.717981490315115 ], [ -95.37892885940073, 29.717825457144716 ], [ -95.379009707776291, 29.717575803567566 ], [ -95.37917140452744, 29.717138908313483 ], [ -95.379216320291633, 29.717099899716182 ] ] } },
{ "type": "Feature", "properties": { "weight": 49.840620433565938, "nodes": "10-12" }, "geometry": { "type": "LineString", "coordinates": [ [ -95.382477204772997, 29.71796588700899 ], [ -95.382773648816766, 29.717692828759166 ] ] } },
{ "type": "Feature", "properties": { "weight": 506.94826817189073, "nodes": "11-42" }, "geometry": { "type": "LineString", "coordinates": [ [ -95.384013323908846, 29.717763043808635 ], [ -95.383806711393504, 29.717458778239546 ], [ -95.383573149419618, 29.717006279020815 ], [ -95.383348570598599, 29.716460156557595 ], [ -95.383177890694611, 29.715882823865819 ], [ -95.383070092860521, 29.715352299005403 ], [ -95.383070092860521, 29.714852978928544 ], [ -95.383150941236082, 29.714384864100925 ], [ -95.383213823305965, 29.714228825339994 ], [ -95.383240772764509, 29.71421322145056 ] ] } },
{ "type": "Feature", "properties": { "weight": 15.142135623730955, "nodes": "13-15" }, "geometry": { "type": "LineString", "coordinates": [ [ -95.382827547733811, 29.7176460186989 ], [ -95.382917379262224, 29.717560200198378 ] ] } },
{ "type": "Feature", "properties": { "weight": 157.22539674441617, "nodes": "14-19" }, "geometry": { "type": "LineString", "coordinates": [ [ -95.380527860606463, 29.717622613660581 ], [ -95.38057277637067, 29.717575803567566 ], [ -95.380644641593392, 29.717388562977227 ], [ -95.38092311933147, 29.716538174234248 ] ] } },
{ "type": "Feature", "properties": { "weight": 173.75230867899739, "nodes": "14-17" }, "geometry": { "type": "LineString", "coordinates": [ [ -95.380527860606463, 29.717622613660581 ], [ -95.380482944842257, 29.717591406934332 ], [ -95.380384130161005, 29.717575803567566 ], [ -95.379890056754746, 29.717411968070131 ], [ -95.379575646405286, 29.717271537430907 ], [ -95.379324118125751, 29.717131106595236 ], [ -95.379216320291633, 29.717099899716182 ] ] } },
{ "type": "Feature", "properties": { "weight": 280.18433614939056, "nodes": "15-19" }, "geometry": { "type": "LineString", "coordinates": [ [ -95.382917379262224, 29.717560200198378 ], [ -95.382890429803695, 29.717489985007024 ], [ -95.382746699358236, 29.717357356178216 ], [ -95.38243228900879, 29.717146710031127 ], [ -95.38208194604799, 29.716943865175395 ], [ -95.381596855794569, 29.716741019909772 ], [ -95.381129731846826, 29.716584984811131 ], [ -95.38092311933147, 29.716538174234248 ] ] } },
{ "type": "Feature", "properties": { "weight": 342.57568516986026, "nodes": "16-18" }, "geometry": { "type": "LineString", "coordinates": [ [ -95.376296795618259, 29.717302744256603 ], [ -95.376350694535304, 29.717404166373104 ], [ -95.377240026666584, 29.718067308455453 ], [ -95.377374773959204, 29.718153126522417 ], [ -95.377491554946133, 29.718153126522417 ], [ -95.377518504404648, 29.718129721602335 ], [ -95.377662234850121, 29.717700630433757 ], [ -95.377770032684211, 29.717326149369505 ], [ -95.377823931601256, 29.717021882476107 ] ] } },
{ "type": "Feature", "properties": { "weight": 138.18376618407359, "nodes": "17-24" }, "geometry": { "type": "LineString", "coordinates": [ [ -95.379216320291633, 29.717099899716182 ], [ -95.379225303444485, 29.71695946864039 ], [ -95.37941394965415, 29.716413345922494 ], [ -95.379458865418357, 29.716109076262295 ] ] } },
{ "type": "Feature", "properties": { "weight": 76.213203435596427, "nodes": "18-21" }, "geometry": { "type": "LineString", "coordinates": [ [ -95.377823931601256, 29.717021882476107 ], [ -95.377877830518301, 29.716928261707977 ], [ -95.377958678893876, 29.716475760097776 ] ] } },
{ "type": "Feature", "properties": { "weight": 145.95236669535484, "nodes": "18-22" }, "geometry": { "type": "LineString", "coordinates": [ [ -95.377823931601256, 29.717021882476107 ], [ -95.37768918430865, 29.716982873833331 ], [ -95.377419689723396, 29.71680343388131 ], [ -95.377105279373964, 29.71663959712324 ], [ -95.376898666858608, 29.716452354786593 ], [ -95.376844767941563, 29.716374337043238 ] ] } },
{ "type": "Feature", "properties": { "weight": 4.0, "nodes": "19-20" }, "geometry": { "type": "LineString", "coordinates": [ [ -95.38092311933147, 29.716538174234248 ], [ -95.38092311933147, 29.716506967170861 ] ] } },
{ "type": "Feature", "properties": { "weight": 103.83404772394645, "nodes": "20-29" }, "geometry": { "type": "LineString", "coordinates": [ [ -95.38092311933147, 29.716506967170861 ], [ -95.380959051942838, 29.716460156557595 ], [ -95.381003967707045, 29.716280715671175 ], [ -95.38105786662409, 29.716202697794433 ], [ -95.381129731846826, 29.715945238370956 ], [ -95.381183630763871, 29.715836012961503 ], [ -95.381174647611033, 29.715797003857897 ] ] } },
{ "type": "Feature", "properties": { "weight": 165.98837665649717, "nodes": "20-26" }, "geometry": { "type": "LineString", "coordinates": [ [ -95.38092311933147, 29.716506967170861 ], [ -95.380860237261587, 29.716467958327986 ], [ -95.380752439427482, 29.716452354786593 ], [ -95.380321248091107, 29.716327526368126 ], [ -95.379988871435984, 29.716163688833316 ], [ -95.379746326309274, 29.715999851031114 ], [ -95.37968344423939, 29.71597644560897 ] ] } },
{ "type": "Feature", "properties": { "weight": 166.49090197343884, "nodes": "21-34" }, "geometry": { "type": "LineString", "coordinates": [ [ -95.377958678893876, 29.716475760097776 ], [ -95.378066476727966, 29.716405544147854 ], [ -95.378255122937645, 29.715664372792254 ], [ -95.378273089243322, 29.715313289713837 ] ] } },
{ "type": "Feature", "properties": { "weight": 243.79898987322332, "nodes": "21-39" }, "geometry": { "type": "LineString", "coordinates": [ [ -95.377958678893876, 29.716475760097776 ], [ -95.377913763129669, 29.716421147696529 ], [ -95.377904779976831, 29.716062265463481 ], [ -95.377895796823992, 29.714665733259434 ], [ -95.377940712588199, 29.714618921787583 ] ] } },
{ "type": "Feature", "properties": { "weight": 241.1665222413705, "nodes": "22-38" }, "geometry": { "type": "LineString", "coordinates": [ [ -95.376844767941563, 29.716374337043238 ], [ -95.376871717400093, 29.716272913886232 ], [ -95.376844767941563, 29.715742391087389 ], [ -95.376772902718841, 29.715492732329547 ], [ -95.376683071190428, 29.715258676680175 ], [ -95.376584256509176, 29.715071431767765 ], [ -95.376467475522247, 29.714923195964417 ], [ -95.376332728229613, 29.714806167544012 ], [ -95.376287812465407, 29.714712544709457 ] ] } },
{ "type": "Feature", "properties": { "weight": 73.112698372208087, "nodes": "22-23" }, "geometry": { "type": "LineString", "coordinates": [ [ -95.376844767941563, 29.716374337043238 ], [ -95.376656121731912, 29.716350931708408 ], [ -95.376341711382452, 29.716241706740387 ], [ -95.376296795618259, 29.716179292419582 ] ] } },
{ "type": "Feature", "properties": { "weight": 31.863484975469312, "nodes": "24-26" }, "geometry": { "type": "LineString", "coordinates": [ [ -95.379458865418357, 29.716109076262295 ], [ -95.37968344423939, 29.71597644560897 ] ] } },
{ "type": "Feature", "properties": { "weight": 87.384776310850242, "nodes": "24-32" }, "geometry": { "type": "LineString", "coordinates": [ [ -95.379458865418357, 29.716109076262295 ], [ -95.37941394965415, 29.716070067264805 ], [ -95.37941394965415, 29.715867220233473 ], [ -95.379449882265519, 29.715594156274804 ], [ -95.37944089911268, 29.715492732329547 ], [ -95.37941394965415, 29.715469326789169 ] ] } },
{ "type": "Feature", "properties": { "weight": 98.963990038857631, "nodes": "25-33" }, "geometry": { "type": "LineString", "coordinates": [ [ -95.378506651217194, 29.716093472665118 ], [ -95.378569533287077, 29.715742391087389 ], [ -95.378596482745593, 29.715352299005403 ] ] } },
{ "type": "Feature", "properties": { "weight": 159.69848480983501, "nodes": "26-37" }, "geometry": { "type": "LineString", "coordinates": [ [ -95.37968344423939, 29.71597644560897 ], [ -95.379692427392229, 29.715500534175128 ], [ -95.379746326309274, 29.715048026129157 ], [ -95.379746326309274, 29.714852978928544 ], [ -95.379692427392229, 29.714798365644466 ] ] } },
{ "type": "Feature", "properties": { "weight": 28.792417163603837, "nodes": "27-28" }, "geometry": { "type": "LineString", "coordinates": [ [ -95.37882106156664, 29.715953040181372 ], [ -95.378883943636524, 29.715921832936075 ], [ -95.378937842553569, 29.71592963474831 ], [ -95.37903665723482, 29.715875022049953 ] ] } },
{ "type": "Feature", "properties": { "weight": 38.13556291411146, "nodes": "28-31" }, "geometry": { "type": "LineString", "coordinates": [ [ -95.37903665723482, 29.715875022049953 ], [ -95.379072589846189, 29.715836012961503 ], [ -95.379117505610395, 29.715609759949594 ] ] } },
{ "type": "Feature", "properties": { "weight": 23.44927141309622, "nodes": "28-30" }, "geometry": { "type": "LineString", "coordinates": [ [ -95.37903665723482, 29.715875022049953 ], [ -95.378883943636524, 29.715750192913571 ] ] } },
{ "type": "Feature", "properties": { "weight": 40.27769853784239, "nodes": "31-32" }, "geometry": { "type": "LineString", "coordinates": [ [ -95.379117505610395, 29.715609759949594 ], [ -95.37941394965415, 29.715469326789169 ] ] } },
{ "type": "Feature", "properties": { "weight": 169.72134935173835, "nodes": "31-41" }, "geometry": { "type": "LineString", "coordinates": [ [ -95.379117505610395, 29.715609759949594 ], [ -95.379099539304704, 29.715601958112501 ], [ -95.379099539304704, 29.715219667352226 ], [ -95.379072589846189, 29.715141648650839 ], [ -95.379045640387659, 29.714314646688521 ] ] } },
{ "type": "Feature", "properties": { "weight": 67.313708498984766, "nodes": "32-36" }, "geometry": { "type": "LineString", "coordinates": [ [ -95.37941394965415, 29.715469326789169 ], [ -95.379485814876887, 29.71497000729439 ] ] } },
{ "type": "Feature", "properties": { "weight": 37.892922226992169, "nodes": "33-34" }, "geometry": { "type": "LineString", "coordinates": [ [ -95.378596482745593, 29.715352299005403 ], [ -95.378542583828548, 29.715313289713837 ], [ -95.378273089243322, 29.715313289713837 ] ] } },
{ "type": "Feature", "properties": { "weight": 212.44927141309623, "nodes": "33-46" }, "geometry": { "type": "LineString", "coordinates": [ [ -95.378596482745593, 29.715352299005403 ], [ -95.378605465898445, 29.714572110293911 ], [ -95.378542583828548, 29.713924549058593 ], [ -95.378524617522871, 29.713854331324228 ], [ -95.378479701758664, 29.713815321450582 ], [ -95.378398853383104, 29.713807519474035 ] ] } },
{ "type": "Feature", "properties": { "weight": 11.414213562373096, "nodes": "34-35" }, "geometry": { "type": "LineString", "coordinates": [ [ -95.378273089243322, 29.715313289713837 ], [ -95.378264106090484, 29.715227469219023 ] ] } },
{ "type": "Feature", "properties": { "weight": 192.76297991208097, "nodes": "35-46" }, "geometry": { "type": "LineString", "coordinates": [ [ -95.378264106090484, 29.715227469219023 ], [ -95.37830902185469, 29.715196261748176 ], [ -95.378318005007529, 29.715165054267622 ], [ -95.378273089243322, 29.713932351026042 ], [ -95.378398853383104, 29.713807519474035 ] ] } },
{ "type": "Feature", "properties": { "weight": 96.248261286319547, "nodes": "35-39" }, "geometry": { "type": "LineString", "coordinates": [ [ -95.378264106090484, 29.715227469219023 ], [ -95.378183257714909, 29.715188459878949 ], [ -95.378039527269451, 29.714696940895205 ], [ -95.377940712588199, 29.714618921787583 ] ] } },
{ "type": "Feature", "properties": { "weight": 34.863484975469305, "nodes": "36-37" }, "geometry": { "type": "LineString", "coordinates": [ [ -95.379485814876887, 29.71497000729439 ], [ -95.37954869694677, 29.714946601632132 ], [ -95.379584629558138, 29.714915394073966 ], [ -95.379593612710977, 29.714868582718534 ], [ -95.379692427392229, 29.714798365644466 ] ] } },
{ "type": "Feature", "properties": { "weight": 170.32590180780454, "nodes": "36-45" }, "geometry": { "type": "LineString", "coordinates": [ [ -95.379485814876887, 29.71497000729439 ], [ -95.379431915959842, 29.714899790291248 ], [ -95.379360050737105, 29.714283438933904 ], [ -95.379279202361545, 29.713924549058593 ], [ -95.379225303444485, 29.71386993526944 ], [ -95.379099539304704, 29.713807519474035 ] ] } },
{ "type": "Feature", "properties": { "weight": 205.97056274847716, "nodes": "37-56" }, "geometry": { "type": "LineString", "coordinates": [ [ -95.379692427392229, 29.714798365644466 ], [ -95.379710393697906, 29.714533100699168 ], [ -95.379674461086537, 29.714127400015325 ], [ -95.379665477933699, 29.713464231905657 ], [ -95.379710393697906, 29.713230171526941 ] ] } },
{ "type": "Feature", "properties": { "weight": 190.55634918610406, "nodes": "39-57" }, "geometry": { "type": "LineString", "coordinates": [ [ -95.377940712588199, 29.714618921787583 ], [ -95.377904779976831, 29.714221023395584 ], [ -95.377877830518301, 29.713300389697849 ], [ -95.377841897906947, 29.713167755333782 ] ] } },
{ "type": "Feature", "properties": { "weight": 118.84062043356596, "nodes": "40-47" }, "geometry": { "type": "LineString", "coordinates": [ [ -95.381614822100246, 29.714540902619337 ], [ -95.381650754711615, 29.714353656368139 ], [ -95.381713636781498, 29.714174211716365 ], [ -95.381749569392866, 29.714127400015325 ], [ -95.381848384074118, 29.71375290562122 ], [ -95.381893299838325, 29.713713895708167 ] ] } },
{ "type": "Feature", "properties": { "weight": 70.378203601230737, "nodes": "41-45" }, "geometry": { "type": "LineString", "coordinates": [ [ -95.379045640387659, 29.714314646688521 ], [ -95.379081572999027, 29.714291240873475 ], [ -95.379099539304704, 29.714244429227001 ], [ -95.379072589846189, 29.71386993526944 ], [ -95.379099539304704, 29.713807519474035 ] ] } },
{ "type": "Feature", "properties": { "weight": 22.035057850723128, "nodes": "41-43" }, "geometry": { "type": "LineString", "coordinates": [ [ -95.379045640387659, 29.714314646688521 ], [ -95.378901909942201, 29.714197617558707 ] ] } },
{ "type": "Feature", "properties": { "weight": 70.840620433565945, "nodes": "44-49" }, "geometry": { "type": "LineString", "coordinates": [ [ -95.385127234861159, 29.713862133297138 ], [ -95.385019437027069, 29.713799717496876 ], [ -95.384839773970228, 29.713737301657815 ], [ -95.384696043524769, 29.713643677826461 ], [ -95.384606211996356, 29.713620271854978 ] ] } },
{ "type": "Feature", "properties": { "weight": 89.970562748477136, "nodes": "45-59" }, "geometry": { "type": "LineString", "coordinates": [ [ -95.379099539304704, 29.713807519474035 ], [ -95.379000724623452, 29.713300389697849 ], [ -95.378991741470614, 29.713144349251341 ] ] } },
{ "type": "Feature", "properties": { "weight": 86.071067811865476, "nodes": "46-58" }, "geometry": { "type": "LineString", "coordinates": [ [ -95.378398853383104, 29.713807519474035 ], [ -95.378353937618897, 29.713152151279424 ] ] } },
{ "type": "Feature", "properties": { "weight": 503.50518732331176, "nodes": "47-73" }, "geometry": { "type": "LineString", "coordinates": [ [ -95.381893299838325, 29.713713895708167 ], [ -95.381956181908208, 29.71375290562122 ], [ -95.382261609104816, 29.713830925401858 ], [ -95.382486187925835, 29.71386993526944 ], [ -95.382674834135514, 29.713877737241141 ], [ -95.382899412956533, 29.713862133297138 ], [ -95.383132974930405, 29.713815321450582 ], [ -95.383456368432689, 29.713690489753052 ], [ -95.383627048336663, 29.713589063884516 ], [ -95.383761795629283, 29.713479835911503 ], [ -95.384076205978729, 29.71315995330691 ], [ -95.384731976136138, 29.712574799563491 ], [ -95.385118251708306, 29.712145684650778 ], [ -95.385172150625365, 29.712059861448154 ], [ -95.385199100083881, 29.711927225445244 ] ] } },
{ "type": "Feature", "properties": { "weight": 8.2360679774997898, "nodes": "47-48" }, "geometry": { "type": "LineString", "coordinates": [ [ -95.381893299838325, 29.713713895708167 ], [ -95.381902282991163, 29.713651479815745 ] ] } },
{ "type": "Feature", "properties": { "weight": 139.31932909818505, "nodes": "48-54" }, "geometry": { "type": "LineString", "coordinates": [ [ -95.381902282991163, 29.713651479815745 ], [ -95.381821434615588, 29.713620271854978 ], [ -95.381686687322983, 29.71360466787096 ], [ -95.381003967707045, 29.713401815858017 ], [ -95.380779388886012, 29.713394013849339 ] ] } },
{ "type": "Feature", "properties": { "weight": 161.41016174788757, "nodes": "48-66" }, "geometry": { "type": "LineString", "coordinates": [ [ -95.381902282991163, 29.713651479815745 ], [ -95.381929232449679, 29.713542251910638 ], [ -95.382090929200828, 29.713191161410759 ], [ -95.382261609104816, 29.71255919541699 ], [ -95.382288558563332, 29.71252798711669 ] ] } },
{ "type": "Feature", "properties": { "weight": 53.071067811865476, "nodes": "50-61" }, "geometry": { "type": "LineString", "coordinates": [ [ -95.378695297426859, 29.713511043915922 ], [ -95.378668347968329, 29.713113141132936 ] ] } },
{ "type": "Feature", "properties": { "weight": 189.32590180780454, "nodes": "52-57" }, "geometry": { "type": "LineString", "coordinates": [ [ -95.376296795618259, 29.713472033908882 ], [ -95.376368660840981, 29.713409617866095 ], [ -95.377159178291009, 29.713237973548345 ], [ -95.37755443701603, 29.713183359385706 ], [ -95.377841897906947, 29.713167755333782 ] ] } },
{ "type": "Feature", "properties": { "weight": 80.449271413096213, "nodes": "53-55" }, "geometry": { "type": "LineString", "coordinates": [ [ -95.379979888283145, 29.713401815858017 ], [ -95.380186500798487, 29.713440825892338 ], [ -95.380554810064993, 29.713456429901822 ], [ -95.380644641593392, 29.713386211840046 ] ] } },
{ "type": "Feature", "properties": { "weight": 15.414213562373096, "nodes": "54-55" }, "geometry": { "type": "LineString", "coordinates": [ [ -95.380779388886012, 29.713394013849339 ], [ -95.380644641593392, 29.713386211840046 ] ] } },
{ "type": "Feature", "properties": { "weight": 115.52033922496169, "nodes": "55-56" }, "geometry": { "type": "LineString", "coordinates": [ [ -95.380644641593392, 29.713386211840046 ], [ -95.38057277637067, 29.713308191713811 ], [ -95.380294298632577, 29.71324577556916 ], [ -95.37995293882463, 29.713214567482282 ], [ -95.379710393697906, 29.713230171526941 ] ] } },
{ "type": "Feature", "properties": { "weight": 25.21320343559643, "nodes": "56-63" }, "geometry": { "type": "LineString", "coordinates": [ [ -95.379710393697906, 29.713230171526941 ], [ -95.379620562169492, 29.713144349251341 ], [ -95.37954869694677, 29.713105339101826 ] ] } },
{ "type": "Feature", "properties": { "weight": 4.2360679774997898, "nodes": "57-60" }, "geometry": { "type": "LineString", "coordinates": [ [ -95.377841897906947, 29.713167755333782 ], [ -95.377850881059786, 29.71313654722265 ] ] } },
{ "type": "Feature", "properties": { "weight": 36.892922226992169, "nodes": "58-61" }, "geometry": { "type": "LineString", "coordinates": [ [ -95.378353937618897, 29.713152151279424 ], [ -95.378425802841619, 29.713113141132936 ], [ -95.378668347968329, 29.713113141132936 ] ] } },
{ "type": "Feature", "properties": { "weight": 6.4787086646190746, "nodes": "58-62" }, "geometry": { "type": "LineString", "coordinates": [ [ -95.378353937618897, 29.713152151279424 ], [ -95.37830902185469, 29.713120943163453 ] ] } },
{ "type": "Feature", "properties": { "weight": 63.892922226992169, "nodes": "59-63" }, "geometry": { "type": "LineString", "coordinates": [ [ -95.378991741470614, 29.713144349251341 ], [ -95.379045640387659, 29.713120943163453 ], [ -95.379494798029725, 29.713120943163453 ], [ -95.37954869694677, 29.713105339101826 ] ] } },
{ "type": "Feature", "properties": { "weight": 9.8929222269921695, "nodes": "59-64" }, "geometry": { "type": "LineString", "coordinates": [ [ -95.378991741470614, 29.713144349251341 ], [ -95.378937842553569, 29.713089735037773 ] ] } },
{ "type": "Feature", "properties": { "weight": 51.828427124746192, "nodes": "60-62" }, "geometry": { "type": "LineString", "coordinates": [ [ -95.377850881059786, 29.71313654722265 ], [ -95.37830902185469, 29.713120943163453 ] ] } },
{ "type": "Feature", "properties": { "weight": 188.76955262170048, "nodes": "60-74" }, "geometry": { "type": "LineString", "coordinates": [ [ -95.377850881059786, 29.71313654722265 ], [ -95.377823931601256, 29.713066328937145 ], [ -95.377770032684211, 29.712691830585012 ], [ -95.377734100072857, 29.712293924555254 ], [ -95.37768918430865, 29.712200299377898 ], [ -95.37768918430865, 29.712137882544486 ], [ -95.377635285391605, 29.711966236052529 ], [ -95.377617319085914, 29.711747776456541 ] ] } },
{ "type": "Feature", "properties": { "weight": 31.064495102245981, "nodes": "61-64" }, "geometry": { "type": "LineString", "coordinates": [ [ -95.378668347968329, 29.713113141132936 ], [ -95.378874960483685, 29.713113141132936 ], [ -95.378937842553569, 29.713089735037773 ] ] } },
{ "type": "Feature", "properties": { "weight": 118.2842712474619, "nodes": "62-70" }, "geometry": { "type": "LineString", "coordinates": [ [ -95.37830902185469, 29.713120943163453 ], [ -95.378273089243322, 29.712816663524269 ], [ -95.37817427456207, 29.71252798711669 ], [ -95.378156308256393, 29.712293924555254 ], [ -95.378129358797864, 29.712262716172503 ] ] } },
{ "type": "Feature", "properties": { "weight": 211.92388155425118, "nodes": "63-79" }, "geometry": { "type": "LineString", "coordinates": [ [ -95.37954869694677, 29.713105339101826 ], [ -95.379539713793932, 29.712894684032488 ], [ -95.379449882265519, 29.712645018192777 ], [ -95.379297168667222, 29.712301726649432 ], [ -95.379009707776291, 29.711794589267122 ], [ -95.378982758317775, 29.711661952913776 ] ] } },
{ "type": "Feature", "properties": { "weight": 200.32590180780454, "nodes": "64-81" }, "geometry": { "type": "LineString", "coordinates": [ [ -95.378937842553569, 29.713089735037773 ], [ -95.37892885940073, 29.71293369426386 ], [ -95.378767162649595, 29.712309528742999 ], [ -95.378704280579697, 29.712161288861562 ], [ -95.378650381662638, 29.711849204185217 ], [ -95.378614449051284, 29.711771182864556 ], [ -95.378605465898445, 29.711646348625386 ] ] } },
{ "type": "Feature", "properties": { "weight": 187.55129855222071, "nodes": "65-67" }, "geometry": { "type": "LineString", "coordinates": [ [ -95.380869220414425, 29.713074130971293 ], [ -95.380411079619535, 29.713011714681134 ], [ -95.380015820894513, 29.712871277886393 ], [ -95.379943955671791, 29.71283226763077 ], [ -95.379503781182564, 29.712442164240851 ] ] } },
{ "type": "Feature", "properties": { "weight": 373.69905477515192, "nodes": "66-73" }, "geometry": { "type": "LineString", "coordinates": [ [ -95.382288558563332, 29.71252798711669 ], [ -95.3823244911747, 29.712566997490544 ], [ -95.382378390091745, 29.712582601635837 ], [ -95.383070092860521, 29.712691830585012 ], [ -95.383483317891219, 29.71268402852116 ], [ -95.383815694546342, 29.712629414057183 ], [ -95.383995357603169, 29.712574799563491 ], [ -95.384426548939544, 29.712395351732205 ], [ -95.384660110913416, 29.712262716172503 ], [ -95.385010453874216, 29.711989642409616 ], [ -95.385199100083881, 29.711927225445244 ] ] } },
{ "type": "Feature", "properties": { "weight": 334.72849202667476, "nodes": "66-77" }, "geometry": { "type": "LineString", "coordinates": [ [ -95.382288558563332, 29.71252798711669 ], [ -95.382225676493448, 29.712488976727677 ], [ -95.381983131366724, 29.712442164240851 ], [ -95.381255495986593, 29.712223705680419 ], [ -95.381012950859883, 29.712130080437579 ], [ -95.380869220414425, 29.712098872003896 ], [ -95.380770405733173, 29.712052059335189 ], [ -95.380455995383741, 29.711958433932285 ], [ -95.380096669270088, 29.711817995664227 ], [ -95.379674461086537, 29.711700963624121 ] ] } },
{ "type": "Feature", "properties": { "weight": 123.76955262170047, "nodes": "66-80" }, "geometry": { "type": "LineString", "coordinates": [ [ -95.382288558563332, 29.71252798711669 ], [ -95.382315508021861, 29.712496778806695 ], [ -95.3823244911747, 29.712395351732205 ], [ -95.382504154231526, 29.711802391400099 ], [ -95.382522120537203, 29.711646348625386 ] ] } },
{ "type": "Feature", "properties": { "weight": 83.698484809835008, "nodes": "68-71" }, "geometry": { "type": "LineString", "coordinates": [ [ -95.376745953260311, 29.712379747557804 ], [ -95.376853751094401, 29.712379747557804 ], [ -95.377060363609758, 29.712340737111198 ], [ -95.377293925583629, 29.712239309879077 ], [ -95.377419689723396, 29.712215903580187 ] ] } },
{ "type": "Feature", "properties": { "weight": 81.66904755831213, "nodes": "69-72" }, "geometry": { "type": "LineString", "coordinates": [ [ -95.376287812465407, 29.712278320365094 ], [ -95.37637764399382, 29.712130080437579 ], [ -95.376817818483048, 29.71195063181143 ] ] } },
{ "type": "Feature", "properties": { "weight": 95.012193308819747, "nodes": "72-75" }, "geometry": { "type": "LineString", "coordinates": [ [ -95.376817818483048, 29.71195063181143 ], [ -95.376970532081344, 29.711942829689974 ], [ -95.377392740264881, 29.711778984999349 ], [ -95.377563420168869, 29.711739974319318 ] ] } },
{ "type": "Feature", "properties": { "weight": 62.355339059327378, "nodes": "72-76" }, "geometry": { "type": "LineString", "coordinates": [ [ -95.376817818483048, 29.71195063181143 ], [ -95.376898666858608, 29.711841402055875 ], [ -95.377159178291009, 29.711732172181485 ], [ -95.377240026666584, 29.71171656790402 ] ] } },
{ "type": "Feature", "properties": { "weight": 77.840620433565945, "nodes": "73-84" }, "geometry": { "type": "LineString", "coordinates": [ [ -95.385199100083881, 29.711927225445244 ], [ -95.385396729446384, 29.711700963624121 ], [ -95.385477577821959, 29.711420086171298 ] ] } },
{ "type": "Feature", "properties": { "weight": 38.142135623730944, "nodes": "74-78" }, "geometry": { "type": "LineString", "coordinates": [ [ -95.377617319085914, 29.711747776456541 ], [ -95.377868847365463, 29.711700963624121 ], [ -95.377922746282508, 29.711669755057052 ] ] } },
{ "type": "Feature", "properties": { "weight": 6.2360679774997898, "nodes": "74-75" }, "geometry": { "type": "LineString", "coordinates": [ [ -95.377617319085914, 29.711747776456541 ], [ -95.377563420168869, 29.711739974319318 ] ] } },
{ "type": "Feature", "properties": { "weight": 162.49747468305833, "nodes": "75-90" }, "geometry": { "type": "LineString", "coordinates": [ [ -95.377563420168869, 29.711739974319318 ], [ -95.377518504404648, 29.711427888333372 ], [ -95.377338841347836, 29.710749097964513 ], [ -95.377338841347836, 29.710663273568095 ], [ -95.377428672876249, 29.710585251325881 ] ] } },
{ "type": "Feature", "properties": { "weight": 82.206630725976922, "nodes": "77-79" }, "geometry": { "type": "LineString", "coordinates": [ [ -95.379674461086537, 29.711700963624121 ], [ -95.379611579016654, 29.711724370043054 ], [ -95.379422932806989, 29.711708765764371 ], [ -95.379243269750177, 29.711669755057052 ], [ -95.378982758317775, 29.711661952913776 ] ] } },
{ "type": "Feature", "properties": { "weight": 120.56196978530431, "nodes": "77-85" }, "geometry": { "type": "LineString", "coordinates": [ [ -95.379674461086537, 29.711700963624121 ], [ -95.379620562169492, 29.711607337893817 ], [ -95.379566663252447, 29.711560524995924 ], [ -95.37892885940073, 29.711373273186098 ], [ -95.37879411210811, 29.711365471019775 ] ] } },
{ "type": "Feature", "properties": { "weight": 66.892922226992169, "nodes": "78-83" }, "geometry": { "type": "LineString", "coordinates": [ [ -95.377922746282508, 29.711669755057052 ], [ -95.378506651217194, 29.711630744334574 ] ] } },
{ "type": "Feature", "properties": { "weight": 163.53910524340094, "nodes": "78-90" }, "geometry": { "type": "LineString", "coordinates": [ [ -95.377922746282508, 29.711669755057052 ], [ -95.377904779976831, 29.711560524995924 ], [ -95.377536470710339, 29.710663273568095 ], [ -95.377482571793294, 29.710608658004912 ], [ -95.377428672876249, 29.710585251325881 ] ] } },
{ "type": "Feature", "properties": { "weight": 15.242640687119286, "nodes": "79-82" }, "geometry": { "type": "LineString", "coordinates": [ [ -95.378982758317775, 29.711661952913776 ], [ -95.378856994177994, 29.711638546480287 ] ] } },
{ "type": "Feature", "properties": { "weight": 213.91730884463169, "nodes": "80-91" }, "geometry": { "type": "LineString", "coordinates": [ [ -95.382522120537203, 29.711646348625386 ], [ -95.382558053148571, 29.711622942188267 ], [ -95.382585002607087, 29.711560524995924 ], [ -95.383007210790623, 29.710312173000677 ], [ -95.383150941236082, 29.710234150485629 ] ] } },
{ "type": "Feature", "properties": { "weight": 431.67619023324858, "nodes": "80-93" }, "geometry": { "type": "LineString", "coordinates": [ [ -95.382522120537203, 29.711646348625386 ], [ -95.38245923846732, 29.711599535745687 ], [ -95.38218974388208, 29.711544920691779 ], [ -95.380986001401368, 29.711186021027039 ], [ -95.380878203567264, 29.711170416664689 ], [ -95.379961921977468, 29.710905142133676 ], [ -95.379917006213262, 29.710850526702057 ], [ -95.379970905130307, 29.710655471346598 ], [ -95.380159551339972, 29.710257557246507 ], [ -95.380240399715532, 29.710218545975344 ] ] } },
{ "type": "Feature", "properties": { "weight": 28.414213562373096, "nodes": "81-82" }, "geometry": { "type": "LineString", "coordinates": [ [ -95.378605465898445, 29.711646348625386 ], [ -95.378856994177994, 29.711638546480287 ] ] } },
{ "type": "Feature", "properties": { "weight": 11.82842712474619, "nodes": "81-83" }, "geometry": { "type": "LineString", "coordinates": [ [ -95.378605465898445, 29.711646348625386 ], [ -95.378506651217194, 29.711630744334574 ] ] } },
{ "type": "Feature", "properties": { "weight": 37.89949493661166, "nodes": "82-85" }, "geometry": { "type": "LineString", "coordinates": [ [ -95.378856994177994, 29.711638546480287 ], [ -95.37879411210811, 29.711365471019775 ] ] } },
{ "type": "Feature", "properties": { "weight": 146.49747468305833, "nodes": "83-89" }, "geometry": { "type": "LineString", "coordinates": [ [ -95.378506651217194, 29.711630744334574 ], [ -95.378488684911503, 29.711466899134663 ], [ -95.378219190326277, 29.710795911240719 ], [ -95.378192240867747, 29.710600855779173 ] ] } },
{ "type": "Feature", "properties": { "weight": 118.28989184666217, "nodes": "85-88" }, "geometry": { "type": "LineString", "coordinates": [ [ -95.37879411210811, 29.711365471019775 ], [ -95.378704280579697, 29.71124063627618 ], [ -95.378578516439916, 29.710951955337134 ], [ -95.378497668064341, 29.710850526702057 ], [ -95.378425802841619, 29.710678878009261 ], [ -95.378362920771735, 29.710600855779173 ] ] } },
{ "type": "Feature", "properties": { "weight": 102.53910524340095, "nodes": "86-87" }, "geometry": { "type": "LineString", "coordinates": [ [ -95.384148071201466, 29.711349866685318 ], [ -95.384615195149209, 29.710717889101577 ] ] } },
{ "type": "Feature", "properties": { "weight": 52.970562748477143, "nodes": "88-92" }, "geometry": { "type": "LineString", "coordinates": [ [ -95.378362920771735, 29.710600855779173 ], [ -95.378407836535942, 29.71056184464139 ], [ -95.378452752300149, 29.710265359498923 ], [ -95.378479701758664, 29.710234150485629 ] ] } },
{ "type": "Feature", "properties": { "weight": 19.0, "nodes": "88-89" }, "geometry": { "type": "LineString", "coordinates": [ [ -95.378362920771735, 29.710600855779173 ], [ -95.378192240867747, 29.710600855779173 ] ] } },
{ "type": "Feature", "properties": { "weight": 70.419834161573348, "nodes": "89-94" }, "geometry": { "type": "LineString", "coordinates": [ [ -95.378192240867747, 29.710600855779173 ], [ -95.378048510422289, 29.710312173000677 ], [ -95.377850881059786, 29.710218545975344 ] ] } },
{ "type": "Feature", "properties": { "weight": 66.355339059327378, "nodes": "90-95" }, "geometry": { "type": "LineString", "coordinates": [ [ -95.377428672876249, 29.710585251325881 ], [ -95.377329858194997, 29.710319975248844 ], [ -95.377132228832494, 29.710210743719291 ] ] } }
]
}
