{
"type": "FeatureCollection",
"name": "gee_batch_3_40.74265_-73.99229",
"crs": { "type": "name", "properties": { "name": "urn:ogc:def:crs:OGC:1.3:CRS84" } },
"features": [
{ "type": "Feature", "properties": { "name": "road_network" }, "geometry": { "type": "MultiLineString", "coordinates": [ [ [ -73.996571074441334, 40.746130227336224 ], [ -73.996355478773154, 40.746103004458369 ], [ -73.995511062406067, 40.745783134808811 ], [ -73.994963090082763, 40.745551738784144 ], [ -73.994828342790143, 40.745510904107988 ], [ -73.994594780816257, 40.745402011515637 ] ], [ [ -73.995340382502093, 40.746130227336224 ], [ -73.995178685750957, 40.746116615898693 ], [ -73.995097837375368, 40.746082587292662 ] ], [ [ -73.994567831357742, 40.746130227336224 ], [ -73.99433426938387, 40.746082587292662 ], [ -73.994298336772516, 40.746028141486804 ] ], [ [ -73.992600520885532, 40.746130227336224 ], [ -73.992286110536071, 40.746089393015261 ], [ -73.991998649645168, 40.745919249741348 ], [ -73.991549492003102, 40.745728688757794 ], [ -73.991495593086057, 40.745674242662204 ] ], [ [ -73.991450677321851, 40.746130227336224 ], [ -73.99134287948776, 40.746116615898693 ], [ -73.991172199583772, 40.746034947214973 ], [ -73.990714058788882, 40.745864803801766 ] ], [ [ -73.994298336772516, 40.746028141486804 ], [ -73.994343252536723, 40.746000918567148 ], [ -73.9943612188424, 40.745946472694428 ] ], [ [ -73.994298336772516, 40.746028141486804 ], [ -73.994262404161148, 40.746028141486804 ] ], [ [ -73.994262404161148, 40.746028141486804 ], [ -73.994163589479896, 40.746021335757931 ], [ -73.994037825340129, 40.745980501370099 ], [ -73.993651549767947, 40.745810357817611 ], [ -73.993031712221907, 40.745572156112829 ], [ -73.992636453496885, 40.745388399929062 ], [ -73.992357975758821, 40.745293118744996 ], [ -73.992304076841762, 40.745252283910041 ], [ -73.992025599103684, 40.745143390894235 ], [ -73.991944750728123, 40.745129779254732 ] ], [ [ -73.990714058788882, 40.745864803801766 ], [ -73.990678126177514, 40.745892026777128 ], [ -73.990570328343409, 40.746089393015261 ], [ -73.990453547356481, 40.746096198737163 ], [ -73.990094221242842, 40.745919249741348 ], [ -73.989887608727486, 40.745851192309907 ], [ -73.989564215225201, 40.74570146571557 ], [ -73.989097091277458, 40.745524515669487 ], [ -73.988845562997895, 40.745402011515637 ], [ -73.988387422203004, 40.745231866483159 ], [ -73.988216742299016, 40.745143390894235 ], [ -73.987947247713791, 40.745034497700154 ], [ -73.987920298255261, 40.744986856871677 ], [ -73.987875382491055, 40.744959633525795 ], [ -73.987722668892758, 40.744905186800594 ] ], [ [ -73.990714058788882, 40.745864803801766 ], [ -73.990741008247397, 40.745776329054877 ], [ -73.990875755540017, 40.745578961887659 ], [ -73.990902704998533, 40.745483680976612 ] ], [ [ -73.994424100912283, 40.745837580815262 ], [ -73.994549865052065, 40.745721882998289 ], [ -73.994585797663419, 40.745626602291999 ] ], [ [ -73.994370201995238, 40.745721882998289 ], [ -73.994522915593535, 40.745456457834095 ], [ -73.994594780816257, 40.745402011515637 ] ], [ [ -73.992286110536071, 40.74568104842659 ], [ -73.992259161077556, 40.745653825364862 ], [ -73.992043565409375, 40.745572156112829 ] ], [ [ -73.991495593086057, 40.745674242662204 ], [ -73.991603390920147, 40.745538127228208 ], [ -73.991783053976988, 40.745361176747537 ], [ -73.991944750728123, 40.745129779254732 ] ], [ [ -73.991495593086057, 40.745674242662204 ], [ -73.991432711016174, 40.745667436897122 ], [ -73.991028469138314, 40.745497292543696 ], [ -73.990902704998533, 40.745483680976612 ] ], [ [ -73.996885484790781, 40.745578961887659 ], [ -73.996858535332251, 40.745531321449199 ], [ -73.996795653262353, 40.745490486760502 ], [ -73.996364461925992, 40.745327147754978 ], [ -73.995502079253228, 40.744952827687584 ], [ -73.995241567820841, 40.744830322480674 ], [ -73.995142753139575, 40.744748652217382 ] ], [ [ -73.990902704998533, 40.745483680976612 ], [ -73.990812873470134, 40.745388399929062 ] ], [ [ -73.994594780816257, 40.745402011515637 ], [ -73.994594780816257, 40.745347565152606 ] ], [ [ -73.990812873470134, 40.745388399929062 ], [ -73.990651176718998, 40.745361176747537 ], [ -73.990040322325783, 40.745136585074832 ], [ -73.989914558186001, 40.745061721015396 ], [ -73.989294720639961, 40.744789487361565 ], [ -73.987983180325159, 40.744299463976546 ], [ -73.987740635198435, 40.744190569400679 ], [ -73.987695719434228, 40.744142927967673 ] ], [ [ -73.990812873470134, 40.745388399929062 ], [ -73.990938637609901, 40.745177419980841 ], [ -73.991100334361036, 40.744959633525795 ], [ -73.991163216430934, 40.744823516629239 ], [ -73.99120813219514, 40.744796293216496 ] ], [ [ -73.994594780816257, 40.745347565152606 ], [ -73.994621730274801, 40.745333953554884 ], [ -73.995016988999808, 40.744748652217382 ] ], [ [ -73.994594780816257, 40.745347565152606 ], [ -73.994307319925355, 40.745272701330649 ], [ -73.994082741104322, 40.745184225796059 ], [ -73.99384917913045, 40.745116167612437 ], [ -73.993642566615108, 40.745020886038354 ], [ -73.993067644833275, 40.744803099070722 ], [ -73.992672386108254, 40.744673787721247 ], [ -73.992519672509957, 40.744598923140856 ], [ -73.992447807287235, 40.744592117265732 ] ], [ [ -73.991944750728123, 40.745129779254732 ], [ -73.991908818116755, 40.745088944319484 ], [ -73.99120813219514, 40.744796293216496 ] ], [ [ -73.992277127383232, 40.74486435172745 ], [ -73.992115430632097, 40.744789487361565 ], [ -73.992007632798007, 40.744769069792611 ], [ -73.99198966649233, 40.744748652217382 ] ], [ [ -73.99120813219514, 40.744796293216496 ], [ -73.991315930029245, 40.744687399454087 ], [ -73.991531525697425, 40.744687399454087 ] ], [ [ -73.99120813219514, 40.744796293216496 ], [ -73.990893721845694, 40.744701011184141 ] ], [ [ -73.990660159871837, 40.744769069792611 ], [ -73.990803890317295, 40.744769069792611 ], [ -73.990893721845694, 40.744701011184141 ] ], [ [ -73.996876501637942, 40.744762263934895 ], [ -73.996813619568044, 40.744680593588022 ], [ -73.996463276607244, 40.744537670239666 ], [ -73.996337512467463, 40.744510446709917 ], [ -73.99622073148052, 40.744449193727242 ], [ -73.99587038851972, 40.744326687592661 ], [ -73.995663776004363, 40.744238210799566 ], [ -73.995573944475964, 40.74417015164785 ] ], [ [ -73.995142753139575, 40.744748652217382 ], [ -73.995016988999808, 40.744748652217382 ] ], [ [ -73.995016988999808, 40.744748652217382 ], [ -73.994972073235601, 40.744714622911403 ], [ -73.994388168300915, 40.744496834940868 ], [ -73.994055791645806, 40.744353911197621 ], [ -73.993930027506025, 40.744306269881619 ], [ -73.993840195977612, 40.744292658070783 ] ], [ [ -73.99198966649233, 40.744748652217382 ], [ -73.992034582256537, 40.744632952506024 ] ], [ [ -73.99198966649233, 40.744748652217382 ], [ -73.991648306684354, 40.744728234635886 ], [ -73.991531525697425, 40.744687399454087 ] ], [ [ -73.995142753139575, 40.744748652217382 ], [ -73.995169702598105, 40.74466698185379 ], [ -73.995511062406067, 40.744245016710899 ], [ -73.995520045558905, 40.744210987147234 ], [ -73.995573944475964, 40.74417015164785 ] ], [ [ -73.990893721845694, 40.744701011184141 ], [ -73.990875755540017, 40.744673787721247 ], [ -73.990714058788882, 40.744585311389912 ], [ -73.990462530509319, 40.744496834940868 ], [ -73.990139137007048, 40.744333493494949 ], [ -73.989186922805871, 40.743972779714063 ], [ -73.988719798858128, 40.743754989314283 ], [ -73.988513186342786, 40.743686929668094 ], [ -73.988135893923456, 40.743605258000734 ], [ -73.987902331949584, 40.743509974262061 ] ], [ [ -73.991531525697425, 40.744687399454087 ], [ -73.991693222448561, 40.744374328894033 ], [ -73.991765087671283, 40.744306269881619 ], [ -73.991792037129827, 40.74421779306136 ] ], [ [ -73.990327783216699, 40.744687399454087 ], [ -73.990211002229771, 40.744680593588022 ], [ -73.990013372867253, 40.744619340762043 ] ], [ [ -73.992447807287235, 40.744592117265732 ], [ -73.992402891523028, 40.744544476120367 ], [ -73.992304076841762, 40.744490029055292 ], [ -73.992079498020729, 40.744401552479502 ], [ -73.992025599103684, 40.744394746584177 ] ], [ [ -73.989914558186001, 40.744585311389912 ], [ -73.989716928823498, 40.744558087879668 ], [ -73.989510316308156, 40.744496834940868 ] ], [ [ -73.993840195977612, 40.744292658070783 ], [ -73.992896964929272, 40.743863884603321 ], [ -73.992600520885532, 40.743789019111261 ], [ -73.992286110536071, 40.7437481833528 ] ], [ [ -73.991792037129827, 40.74421779306136 ], [ -73.991935767575285, 40.744142927967673 ] ], [ [ -73.991792037129827, 40.74421779306136 ], [ -73.991181182736611, 40.743972779714063 ], [ -73.990705075636043, 40.7437481833528 ], [ -73.990435581050789, 40.743646093846948 ], [ -73.989824726657588, 40.743373854398591 ], [ -73.989393535321213, 40.743210510194693 ], [ -73.98868386624676, 40.742822566102681 ] ], [ [ -73.995942253742456, 40.744204181232412 ], [ -73.995744624379952, 40.744129316123413 ], [ -73.995654792851525, 40.744054450930122 ] ], [ [ -73.992277127383232, 40.744197375316901 ], [ -73.992070514867891, 40.744190569400679 ], [ -73.99198966649233, 40.744176957566161 ], [ -73.991935767575285, 40.744142927967673 ] ], [ [ -73.995573944475964, 40.74417015164785 ], [ -73.995573944475964, 40.744068062789708 ] ], [ [ -73.991935767575285, 40.744142927967673 ], [ -73.991953733880962, 40.744088480573879 ], [ -73.992070514867891, 40.743925138125057 ], [ -73.992115430632097, 40.743809436981088 ] ], [ [ -73.995573944475964, 40.744068062789708 ], [ -73.995654792851525, 40.744054450930122 ] ], [ [ -73.995573944475964, 40.744068062789708 ], [ -73.995331399349254, 40.744000003463896 ], [ -73.99473851126173, 40.743768601235161 ], [ -73.99457681451058, 40.743666511760658 ], [ -73.993894094894657, 40.743407884390578 ], [ -73.993588667698063, 40.743244540270261 ], [ -73.9933371394185, 40.74314925601481 ], [ -73.992977813304861, 40.742972299178263 ], [ -73.992843066012227, 40.742945075007775 ], [ -73.992789167095182, 40.74290423873115 ] ], [ [ -73.995654792851525, 40.744054450930122 ], [ -73.995852422214043, 40.743761795275077 ], [ -73.995924287436765, 40.743700541602905 ], [ -73.996094967340753, 40.743435108371621 ] ], [ [ -73.996885484790781, 40.743829854844648 ], [ -73.996822602720883, 40.743734571427737 ], [ -73.996373445078831, 40.7435440041844 ], [ -73.996202765174843, 40.743496362288255 ], [ -73.996121916799268, 40.743435108371621 ] ], [ [ -73.992115430632097, 40.743809436981088 ], [ -73.992286110536071, 40.7437481833528 ] ], [ [ -73.992115430632097, 40.743809436981088 ], [ -73.992043565409375, 40.743775407194555 ], [ -73.99182796974118, 40.743775407194555 ] ], [ [ -73.992286110536071, 40.7437481833528 ], [ -73.992277127383232, 40.743537198201324 ] ], [ [ -73.987695719434228, 40.7437481833528 ], [ -73.987722668892758, 40.743666511760658 ], [ -73.98782148357401, 40.743537198201324 ], [ -73.987902331949584, 40.743509974262061 ] ], [ [ -73.992277127383232, 40.743537198201324 ], [ -73.992331026300278, 40.743509974262061 ], [ -73.992654419802577, 40.743040359555728 ], [ -73.992681369261092, 40.742951881051439 ] ], [ [ -73.992277127383232, 40.743537198201324 ], [ -73.992106447479259, 40.743503168275502 ], [ -73.99188186865824, 40.743414690386885 ], [ -73.991522542544587, 40.743333018385222 ], [ -73.99136982894629, 40.7432785703284 ], [ -73.991262031112186, 40.743237734256539 ], [ -73.991163216430934, 40.743135643967179 ] ], [ [ -73.987902331949584, 40.743509974262061 ], [ -73.987920298255261, 40.743401078393575 ] ], [ [ -73.996121916799268, 40.743435108371621 ], [ -73.996094967340753, 40.743435108371621 ] ], [ [ -73.996094967340753, 40.743435108371621 ], [ -73.996023102118016, 40.743373854398591 ], [ -73.995915304283926, 40.74335343639504 ], [ -73.995025972152646, 40.743019941449802 ], [ -73.994046808492968, 40.742618384092751 ], [ -73.99395697696454, 40.74255712936754 ], [ -73.99344493725259, 40.742339334332158 ], [ -73.993292223654294, 40.742305303793458 ], [ -73.99322934158441, 40.742257661010029 ] ], [ [ -73.996121916799268, 40.743435108371621 ], [ -73.996166832563475, 40.743387466397472 ], [ -73.996175815716313, 40.743326212380559 ], [ -73.996238697786211, 40.743230928242127 ], [ -73.996481242912921, 40.742911044778992 ], [ -73.996544124982805, 40.742856596376733 ] ], [ [ -73.987920298255261, 40.743401078393575 ], [ -73.988144877076294, 40.743319406375193 ], [ -73.988261658063223, 40.743237734256539 ], [ -73.988495220037109, 40.743019941449802 ], [ -73.988585051565508, 40.742917850826146 ], [ -73.988638950482553, 40.742822566102681 ] ], [ [ -73.987920298255261, 40.743401078393575 ], [ -73.987740635198435, 40.743333018385222 ], [ -73.987704702587067, 40.743292182346785 ] ], [ [ -73.991163216430934, 40.743135643967179 ], [ -73.991190165889449, 40.743122031916762 ], [ -73.991387795251967, 40.742802147929893 ], [ -73.991513559391734, 40.74265922054488 ] ], [ [ -73.991163216430934, 40.743135643967179 ], [ -73.991091351208198, 40.743128837942315 ], [ -73.990336766369538, 40.742829372158887 ], [ -73.990076254937151, 40.742700056971941 ], [ -73.989770827740543, 40.742631996246253 ], [ -73.989204889111548, 40.742407395357326 ], [ -73.989016242901897, 40.742373364853457 ] ], [ [ -73.996885484790781, 40.743081195748779 ], [ -73.996795653262353, 40.742958687094408 ], [ -73.996624973358379, 40.742897432682611 ], [ -73.996571074441334, 40.742856596376733 ] ], [ [ -73.992681369261092, 40.742951881051439 ], [ -73.992789167095182, 40.74290423873115 ] ], [ [ -73.992681369261092, 40.742951881051439 ], [ -73.992600520885532, 40.742897432682611 ], [ -73.99239390837019, 40.742856596376733 ], [ -73.992322043147439, 40.742822566102681 ], [ -73.992295093688924, 40.742788535811222 ] ], [ [ -73.992789167095182, 40.74290423873115 ], [ -73.992789167095182, 40.742877014532809 ] ], [ [ -73.992789167095182, 40.742877014532809 ], [ -73.992816116553712, 40.742863402429457 ], [ -73.99285204916508, 40.742774923689765 ], [ -73.993049678527584, 40.742509486764497 ], [ -73.993166459514526, 40.742257661010029 ] ], [ [ -73.992789167095182, 40.742877014532809 ], [ -73.992690352413931, 40.742808953988195 ], [ -73.992546621968486, 40.742747699438482 ], [ -73.99220526216051, 40.742631996246253 ], [ -73.992115430632097, 40.742618384092751 ], [ -73.99188186865824, 40.742523098940275 ] ], [ [ -73.996571074441334, 40.742856596376733 ], [ -73.996544124982805, 40.742856596376733 ] ], [ [ -73.996544124982805, 40.742856596376733 ], [ -73.996454293454406, 40.742781729750838 ], [ -73.996283613550403, 40.742706863040681 ], [ -73.995645809698686, 40.742502680675557 ], [ -73.99525055097368, 40.742339334332158 ], [ -73.993858162283288, 40.741699557291334 ], [ -73.993768330754875, 40.741672332599897 ], [ -73.993723414990669, 40.741631495541853 ] ], [ [ -73.996571074441334, 40.742856596376733 ], [ -73.996615990205541, 40.742822566102681 ], [ -73.996696838581101, 40.742652414471266 ], [ -73.996813619568044, 40.742516292852734 ], [ -73.996885484790781, 40.742264467124031 ], [ -73.996849552179398, 40.74215556921633 ], [ -73.994567831357742, 40.741270767106911 ], [ -73.99422647154978, 40.741121030200858 ], [ -73.994136640021367, 40.741052967859396 ] ], [ [ -73.98868386624676, 40.742822566102681 ], [ -73.988917428220631, 40.742448231939001 ], [ -73.989016242901897, 40.742373364853457 ] ], [ [ -73.98868386624676, 40.742822566102681 ], [ -73.988638950482553, 40.742822566102681 ] ], [ [ -73.988638950482553, 40.742822566102681 ], [ -73.988450304272902, 40.74274089337392 ], [ -73.9882796243689, 40.742700056971941 ], [ -73.988198775993339, 40.74265922054488 ], [ -73.988144877076294, 40.74265922054488 ] ], [ [ -73.991792037129827, 40.742597965857293 ], [ -73.99188186865824, 40.742523098940275 ] ], [ [ -73.991792037129827, 40.742597965857293 ], [ -73.991747121365606, 40.742597965857293 ], [ -73.991675256142884, 40.742563935450903 ], [ -73.991576441461632, 40.742563935450903 ], [ -73.991387795251967, 40.742509486764497 ], [ -73.991064401749682, 40.742380170955613 ], [ -73.990902704998533, 40.742346140437803 ], [ -73.990776940858765, 40.742284885461885 ], [ -73.990642193566146, 40.742250854895318 ], [ -73.990480496814996, 40.742175987587608 ] ], [ [ -73.99188186865824, 40.742523098940275 ], [ -73.991657289837192, 40.742414201456015 ], [ -73.991432711016174, 40.742339334332158 ], [ -73.991064401749682, 40.742182793709972 ], [ -73.990938637609901, 40.742162375340783 ] ], [ [ -73.989016242901897, 40.742373364853457 ], [ -73.988971327137691, 40.742264467124031 ], [ -73.988971327137691, 40.742073895668547 ] ], [ [ -73.99322934158441, 40.742257661010029 ], [ -73.993166459514526, 40.742257661010029 ] ], [ [ -73.993166459514526, 40.742257661010029 ], [ -73.993112560597481, 40.742210018192466 ], [ -73.992995779610538, 40.742196405952612 ], [ -73.99236695891166, 40.741937772866038 ], [ -73.991684239295722, 40.741726781971622 ], [ -73.991010502832637, 40.741420503675883 ], [ -73.990911688151385, 40.741345635433532 ] ], [ [ -73.99322934158441, 40.742257661010029 ], [ -73.99360663400374, 40.741733588139951 ], [ -73.993624600309431, 40.741658720250001 ], [ -73.993651549767947, 40.741631495541853 ] ], [ [ -73.990938637609901, 40.742162375340783 ], [ -73.990893721845694, 40.74215556921633 ] ], [ [ -73.990893721845694, 40.74215556921633 ], [ -73.99085778923434, 40.742101120195613 ], [ -73.990642193566146, 40.741992222020478 ], [ -73.990489479967835, 40.741924160570463 ], [ -73.990390665286597, 40.741910548272109 ] ], [ [ -73.988971327137691, 40.742073895668547 ], [ -73.989070141818942, 40.742046671130325 ], [ -73.989097091277458, 40.742019446580976 ] ], [ [ -73.988971327137691, 40.742073895668547 ], [ -73.988953360831999, 40.741992222020478 ], [ -73.989016242901897, 40.741447728470398 ] ], [ [ -73.990390665286597, 40.741910548272109 ], [ -73.990354732675229, 40.741869711360323 ], [ -73.990246934841139, 40.741822068264881 ], [ -73.989878625574647, 40.741685944947008 ], [ -73.989743878282027, 40.741658720250001 ], [ -73.989618114142246, 40.74159065845874 ], [ -73.989573198378054, 40.741536208975589 ] ], [ [ -73.989204889111548, 40.741835680581346 ], [ -73.989321670098491, 40.741665526425301 ] ], [ [ -73.993723414990669, 40.741631495541853 ], [ -73.993777313907728, 40.741515790407909 ], [ -73.993894094894657, 40.741379666463232 ], [ -73.994064774798645, 40.741114223969845 ], [ -73.994136640021367, 40.741052967859396 ] ], [ [ -73.993723414990669, 40.741631495541853 ], [ -73.993651549767947, 40.741631495541853 ] ], [ [ -73.993651549767947, 40.741631495541853 ], [ -73.993588667698063, 40.741583852275781 ], [ -73.993507819322488, 40.74157023990778 ], [ -73.99236695891166, 40.741141448889714 ], [ -73.992232211619026, 40.741059774096676 ], [ -73.991423727863335, 40.740760298997536 ], [ -73.99120813219514, 40.740644592348119 ], [ -73.990381682133744, 40.740283858560986 ] ], [ [ -73.989573198378054, 40.741536208975589 ], [ -73.989654046753614, 40.741332023016781 ], [ -73.989815743504749, 40.741052967859396 ], [ -73.989869642421795, 40.740978099203353 ], [ -73.989941507644531, 40.740930455469268 ] ], [ [ -73.989573198378054, 40.741536208975589 ], [ -73.98943845108542, 40.741515790407909 ], [ -73.989276754334284, 40.741447728470398 ], [ -73.989133023888826, 40.741427309875554 ], [ -73.989016242901897, 40.741447728470398 ] ], [ [ -73.996885484790781, 40.741488565641262 ], [ -73.996831585873721, 40.741413697475515 ], [ -73.995618860240157, 40.740944067968208 ], [ -73.995457163489021, 40.740896424209744 ] ], [ [ -73.989016242901897, 40.741447728470398 ], [ -73.98889946191494, 40.741366054053444 ], [ -73.988450304272902, 40.741161867572302 ], [ -73.988073011853558, 40.74101213042109 ], [ -73.9879292814081, 40.7409849054483 ] ], [ [ -73.987695719434228, 40.741379666463232 ], [ -73.987722668892758, 40.741270767106911 ], [ -73.987839449879701, 40.741134642660789 ], [ -73.987884365643907, 40.741032549143384 ], [ -73.9879292814081, 40.7409849054483 ] ], [ [ -73.990911688151385, 40.741345635433532 ], [ -73.991010502832637, 40.741243542239971 ] ], [ [ -73.990911688151385, 40.741345635433532 ], [ -73.990812873470134, 40.741332023016781 ], [ -73.990696092483191, 40.741284379536197 ], [ -73.990219985382609, 40.741052967859396 ], [ -73.990121170701357, 40.740978099203353 ], [ -73.990049305478621, 40.740964486711391 ] ], [ [ -73.994136640021367, 40.741052967859396 ], [ -73.994217488396941, 40.740923649218765 ] ], [ [ -73.994136640021367, 40.741052967859396 ], [ -73.994055791645806, 40.7409849054483 ], [ -73.993894094894657, 40.74095087421663 ], [ -73.993534768781018, 40.740801136590449 ], [ -73.99322934158441, 40.740705848834651 ], [ -73.992744251330976, 40.74050846662054 ], [ -73.992357975758821, 40.740372340614378 ], [ -73.992313059994601, 40.74033150275821 ], [ -73.992151363243465, 40.740256633290116 ], [ -73.990974570221269, 40.739793801980326 ], [ -73.990830839775811, 40.739698512781487 ] ], [ [ -73.9879292814081, 40.7409849054483 ], [ -73.987893348796746, 40.740944067968208 ], [ -73.987749618351273, 40.740896424209744 ], [ -73.987695719434228, 40.740828361638457 ] ], [ [ -73.990049305478621, 40.740964486711391 ], [ -73.989941507644531, 40.740930455469268 ] ], [ [ -73.989941507644531, 40.740930455469268 ], [ -73.989941507644531, 40.740821555377501 ] ], [ [ -73.994370201995238, 40.740923649218765 ], [ -73.99433426938387, 40.740937261719083 ], [ -73.994235454702618, 40.740937261719083 ], [ -73.994217488396941, 40.740923649218765 ] ], [ [ -73.994217488396941, 40.740923649218765 ], [ -73.994235454702618, 40.740821555377501 ], [ -73.994477999829328, 40.740467628847945 ] ], [ [ -73.995304449890725, 40.740910036715654 ], [ -73.995421230877668, 40.740923649218765 ], [ -73.995457163489021, 40.740896424209744 ] ], [ [ -73.995457163489021, 40.740896424209744 ], [ -73.995412247724815, 40.740828361638457 ], [ -73.994603763969124, 40.74050846662054 ], [ -73.994549865052065, 40.740467628847945 ] ], [ [ -73.988522169495624, 40.740896424209744 ], [ -73.988549118954154, 40.740876005445678 ], [ -73.988540135801301, 40.7408079428535 ], [ -73.988558102106992, 40.740746686460994 ], [ -73.988594034718346, 40.740705848834651 ] ], [ [ -73.989941507644531, 40.740821555377501 ], [ -73.990049305478621, 40.740705848834651 ], [ -73.990282867452493, 40.740372340614378 ], [ -73.990381682133744, 40.740283858560986 ] ], [ [ -73.989941507644531, 40.740821555377501 ], [ -73.989743878282027, 40.740760298997536 ], [ -73.988971327137691, 40.740447209952244 ], [ -73.988755731469496, 40.740399565837897 ], [ -73.988629967329715, 40.740317890133909 ], [ -73.988495220037109, 40.740263439608874 ], [ -73.987749618351273, 40.740025218037765 ], [ -73.987695719434228, 40.739957154575023 ] ], [ [ -73.996885484790781, 40.740705848834651 ], [ -73.996849552179398, 40.740637786068355 ], [ -73.996795653262353, 40.740610560942343 ], [ -73.996211748327681, 40.740392759533066 ], [ -73.995151736292414, 40.739936735522626 ], [ -73.995016988999808, 40.739902703754694 ], [ -73.994972073235601, 40.739861865610195 ] ], [ [ -73.994549865052065, 40.740467628847945 ], [ -73.994477999829328, 40.740467628847945 ] ], [ [ -73.994477999829328, 40.740467628847945 ], [ -73.994415117759445, 40.740413178445472 ], [ -73.994181555785573, 40.74033150275821 ], [ -73.993453920405429, 40.740018411694621 ], [ -73.992115430632097, 40.739480708385855 ], [ -73.992070514867891, 40.739439869982277 ] ], [ [ -73.994549865052065, 40.740467628847945 ], [ -73.994621730274801, 40.740283858560986 ], [ -73.994855292248673, 40.739970767273142 ], [ -73.994891224860027, 40.739861865610195 ] ], [ [ -73.990381682133744, 40.740283858560986 ], [ -73.990381682133744, 40.740243020650496 ] ], [ [ -73.990381682133744, 40.740243020650496 ], [ -73.990651176718998, 40.739848252889793 ], [ -73.990794907164442, 40.739698512781487 ] ], [ [ -73.990381682133744, 40.740243020650496 ], [ -73.990300833758184, 40.740202182714924 ], [ -73.9902379516883, 40.740195376389892 ], [ -73.990013372867253, 40.740113700435195 ], [ -73.989770827740543, 40.739997992661017 ], [ -73.989564215225201, 40.739950348224923 ], [ -73.989510316308156, 40.739895897399023 ], [ -73.98941150162689, 40.739855059250338 ], [ -73.988594034718346, 40.739575997896701 ], [ -73.987920298255261, 40.739262903277073 ], [ -73.987776567809803, 40.739201645461733 ], [ -73.987731652045596, 40.739201645461733 ] ], [ [ -73.996885484790781, 40.739977573621154 ], [ -73.996858535332251, 40.739923122817544 ], [ -73.996795653262353, 40.739882284685578 ], [ -73.995834455908366, 40.73946709558745 ], [ -73.995618860240157, 40.739364999510613 ], [ -73.99549309610039, 40.739276516117265 ] ], [ [ -73.994972073235601, 40.739861865610195 ], [ -73.995016988999808, 40.7398142210766 ], [ -73.995052921611162, 40.739718931907007 ], [ -73.995313433043563, 40.739399031553631 ], [ -73.995349365654931, 40.739276516117265 ] ], [ [ -73.994972073235601, 40.739861865610195 ], [ -73.994891224860027, 40.739861865610195 ] ], [ [ -73.994891224860027, 40.739861865610195 ], [ -73.994819359637305, 40.739807414711869 ], [ -73.99422647154978, 40.739589610672816 ], [ -73.993319173112823, 40.739208451888445 ], [ -73.993076627986113, 40.739167613317726 ] ], [ [ -73.990830839775811, 40.739698512781487 ], [ -73.990794907164442, 40.739698512781487 ] ], [ [ -73.990794907164442, 40.739698512781487 ], [ -73.990741008247397, 40.73965086813088 ], [ -73.990642193566146, 40.739623642600925 ], [ -73.989689979364982, 40.739208451888445 ], [ -73.989204889111548, 40.739188032606222 ] ], [ [ -73.990830839775811, 40.739698512781487 ], [ -73.990866772387179, 40.73967128727103 ], [ -73.990920671304224, 40.739555578727291 ], [ -73.991145250125243, 40.739262903277073 ], [ -73.991226098500832, 40.739208451888445 ], [ -73.991432711016174, 40.739208451888445 ], [ -73.991971700186639, 40.739419450771095 ], [ -73.992070514867891, 40.739439869982277 ] ], [ [ -73.992070514867891, 40.739439869982277 ], [ -73.992277127383232, 40.739174419747926 ] ], [ [ -73.99549309610039, 40.739276516117265 ], [ -73.995349365654931, 40.739276516117265 ] ], [ [ -73.995349365654931, 40.739276516117265 ], [ -73.995295466737886, 40.7392288711644 ], [ -73.995241567820841, 40.739208451888445 ], [ -73.994918174318556, 40.739167613317726 ] ], [ [ -73.99549309610039, 40.739276516117265 ], [ -73.995573944475964, 40.739215258314459 ], [ -73.995717674921409, 40.739167613317726 ] ] ] } }
]
}
