{
"type": "FeatureCollection",
"name": "gee_batch_1_40.74833_-74.00359",
"crs": { "type": "name", "properties": { "name": "urn:ogc:def:crs:OGC:1.3:CRS84" } },
"features": [
{ "type": "Feature", "properties": { "weight": 23.313708498984759, "nodes": "0-2" }, "geometry": { "type": "LineString", "coordinates": [ [ -74.000263773895767, 40.75181202143127 ], [ -74.000173942367354, 40.751798411156699 ], [ -74.000084110838955, 40.751757580316259 ] ] } },
{ "type": "Feature", "properties": { "weight": 37.45584412271571, "nodes": "1-3" }, "geometry": { "type": "LineString", "coordinates": [ [ -73.999643936349727, 40.751805216294329 ], [ -73.999599020585521, 40.751784800879342 ], [ -73.999545121668476, 40.751703139156682 ], [ -73.999464273292915, 40.751635087644516 ], [ -73.999464273292915, 40.751614672177283 ] ] } },
{ "type": "Feature", "properties": { "weight": 10.485281374238571, "nodes": "3-5" }, "geometry": { "type": "LineString", "coordinates": [ [ -73.999464273292915, 40.751614672177283 ], [ -73.99951817220996, 40.751560230900687 ] ] } },
{ "type": "Feature", "properties": { "weight": 87.218824034796697, "nodes": "5-6" }, "geometry": { "type": "LineString", "coordinates": [ [ -73.99951817220996, 40.751560230900687 ], [ -73.999401391223017, 40.751471763731153 ], [ -73.999042065109364, 40.751301634228142 ], [ -73.998997149345158, 40.75119275111777 ] ] } },
{ "type": "Feature", "properties": { "weight": 38.455844122715703, "nodes": "7-8" }, "geometry": { "type": "LineString", "coordinates": [ [ -74.001251920708299, 40.750593890823602 ], [ -74.001224971249783, 40.750566669772994 ], [ -74.000982426123073, 40.750464590733934 ] ] } },
{ "type": "Feature", "properties": { "weight": 90.325901807804527, "nodes": "9-10" }, "geometry": { "type": "LineString", "coordinates": [ [ -73.999967329852012, 40.750008635779594 ], [ -73.999491222751431, 40.749831697194075 ], [ -73.999338509153134, 40.749756838420005 ], [ -73.999293593388927, 40.749756838420005 ] ] } }
]
}
