{
"type": "FeatureCollection",
"name": "gee_batch_0_33.41347_-112.10576",
"crs": { "type": "name", "properties": { "name": "urn:ogc:def:crs:OGC:1.3:CRS84" } },
"features": [
{ "type": "Feature", "properties": { "name": "road_network" }, "geometry": { "type": "MultiLineString", "coordinates": [ [ [ -112.109722821420718, 33.416843293453397 ], [ -112.109704855115041, 33.416730821701627 ], [ -112.109579090975259, 33.416460888903032 ], [ -112.109534175211053, 33.41622844609855 ], [ -112.109561124669582, 33.415996002671896 ], [ -112.109677905656511, 33.415718569380466 ], [ -112.10968688880935, 33.415613594390429 ], [ -112.109624006739466, 33.41544113520272 ], [ -112.109534175211053, 33.415396145793089 ] ], [ [ -112.104395811785892, 33.416235944263249 ], [ -112.104629373759764, 33.41586103523543 ], [ -112.104737171593854, 33.415748562211462 ], [ -112.10483598627512, 33.415688576539118 ], [ -112.105042598790462, 33.415636089041826 ] ], [ [ -112.107593814197372, 33.416205951600588 ], [ -112.107243471236558, 33.416175958927568 ], [ -112.10701889241551, 33.41613096989861 ], [ -112.106120577131406, 33.415883529822743 ], [ -112.105123447166022, 33.415688576539118 ], [ -112.105042598790462, 33.415636089041826 ] ], [ [ -112.108123820214985, 33.416078482668702 ], [ -112.108249584354766, 33.415966009926372 ], [ -112.10844721371727, 33.415418640500818 ], [ -112.108474163175799, 33.415403644029638 ] ], [ [ -112.101170859915896, 33.415733565797261 ], [ -112.101224758832942, 33.415666081901307 ], [ -112.101521202876711, 33.415636089041826 ], [ -112.101853579531834, 33.415643587257676 ] ], [ [ -112.105042598790462, 33.415636089041826 ], [ -112.105105480860345, 33.415501121045978 ], [ -112.105168362930229, 33.415448633435396 ], [ -112.105285143917172, 33.415403644029638 ] ], [ [ -112.101593068099447, 33.415291170413283 ], [ -112.101826630073305, 33.415268675672536 ], [ -112.102096124658544, 33.415201191415321 ], [ -112.102275787715371, 33.415141205364883 ], [ -112.102338669785254, 33.415066222743569 ] ], [ [ -112.102338669785254, 33.415066222743569 ], [ -112.103713092169968, 33.415043727944557 ], [ -112.103838856309736, 33.415021233139711 ], [ -112.104171232964859, 33.415036229676922 ], [ -112.105006666179094, 33.414946250414815 ], [ -112.105392941751276, 33.414871267625166 ] ], [ [ -112.102338669785254, 33.415066222743569 ], [ -112.102284770868209, 33.415006236599908 ], [ -112.102239855104003, 33.414998738329039 ], [ -112.101781714309098, 33.414991240057525 ] ], [ [ -112.105904981463226, 33.414706305260076 ], [ -112.106551768467781, 33.414526345958961 ], [ -112.10683024620586, 33.414473857759226 ], [ -112.107737544642816, 33.414376379589839 ], [ -112.108141786520662, 33.414361382938679 ], [ -112.108563994704213, 33.414301396308169 ], [ -112.109022135499103, 33.414136432860609 ], [ -112.110171979062784, 33.413626543859799 ], [ -112.110297743202551, 33.413566556721719 ], [ -112.110351642119596, 33.41349157274086 ] ], [ [ -112.105743284712077, 33.412156847049211 ], [ -112.10569836894787, 33.412119354458319 ], [ -112.104521575925673, 33.411856905868923 ], [ -112.103335799750639, 33.411654444986667 ], [ -112.102608164370494, 33.411504473658511 ], [ -112.101754764850583, 33.411429487897323 ], [ -112.101377472431253, 33.411436986476346 ], [ -112.10126069144431, 33.411466980786003 ] ] ] } }
]
}
