{
"type": "FeatureCollection",
"name": "gee_batch_1_39.96635_-75.19007",
"crs": { "type": "name", "properties": { "name": "urn:ogc:def:crs:OGC:1.3:CRS84" } },
"features": [
{ "type": "Feature", "properties": { "weight": 17.828427124746192, "nodes": "0-1" }, "geometry": { "type": "LineString", "coordinates": [ [ -75.18780475251738, 39.96979538496246 ], [ -75.187678988377598, 39.96979538496246 ], [ -75.187652038919083, 39.969781615886326 ] ] } },
{ "type": "Feature", "properties": { "weight": 284.19595949289328, "nodes": "1-3" }, "geometry": { "type": "LineString", "coordinates": [ [ -75.187652038919083, 39.969781615886326 ], [ -75.187274746499753, 39.969760962266918 ], [ -75.187059150831558, 39.969705885917982 ], [ -75.185657778988329, 39.969506233781118 ], [ -75.185594896918445, 39.969478695509579 ], [ -75.185567947459916, 39.969416734358063 ], [ -75.185523031695709, 39.969375426892512 ], [ -75.185496082237194, 39.969334119401999 ], [ -75.185487099084355, 39.969258388937888 ] ] } },
{ "type": "Feature", "properties": { "weight": 19.384776310850238, "nodes": "1-2" }, "geometry": { "type": "LineString", "coordinates": [ [ -75.187652038919083, 39.969781615886326 ], [ -75.187768819906012, 39.969685232275701 ] ] } },
{ "type": "Feature", "properties": { "weight": 22.549776476484549, "nodes": "4-6" }, "geometry": { "type": "LineString", "coordinates": [ [ -75.187903567198632, 39.967165441094416 ], [ -75.187858651434425, 39.967069053795008 ], [ -75.187813735670218, 39.967041514541634 ] ] } },
{ "type": "Feature", "properties": { "weight": 30.142135623730951, "nodes": "6-7" }, "geometry": { "type": "LineString", "coordinates": [ [ -75.187813735670218, 39.967041514541634 ], [ -75.187723904141805, 39.966862509124354 ] ] } },
{ "type": "Feature", "properties": { "weight": 114.26702730475881, "nodes": "7-12" }, "geometry": { "type": "LineString", "coordinates": [ [ -75.187723904141805, 39.966862509124354 ], [ -75.187463392709404, 39.966711042635943 ], [ -75.187175931818501, 39.96650449688363 ], [ -75.187095083442927, 39.966311720285127 ] ] } },
{ "type": "Feature", "properties": { "weight": 65.076688411065732, "nodes": "9-10" }, "geometry": { "type": "LineString", "coordinates": [ [ -75.187903567198632, 39.966683503238357 ], [ -75.187867634587263, 39.966607769837793 ], [ -75.187768819906012, 39.966566460674848 ], [ -75.187607123154876, 39.96644253303625 ], [ -75.187562207390656, 39.966366799368743 ] ] } },
{ "type": "Feature", "properties": { "weight": 24.721349351738358, "nodes": "10-11" }, "geometry": { "type": "LineString", "coordinates": [ [ -75.187562207390656, 39.966366799368743 ], [ -75.187687971530451, 39.966332374946681 ], [ -75.187759836753173, 39.966346144717583 ] ] } },
{ "type": "Feature", "properties": { "weight": 62.591407036827157, "nodes": "10-12" }, "geometry": { "type": "LineString", "coordinates": [ [ -75.187562207390656, 39.966366799368743 ], [ -75.187436443250888, 39.96629795050729 ], [ -75.187211864429855, 39.966249756263011 ], [ -75.187175931818501, 39.966249756263011 ], [ -75.187095083442927, 39.966311720285127 ] ] } },
{ "type": "Feature", "properties": { "weight": 45.834047723946455, "nodes": "12-13" }, "geometry": { "type": "LineString", "coordinates": [ [ -75.187095083442927, 39.966311720285127 ], [ -75.186852538316202, 39.966139597862806 ], [ -75.186816605704848, 39.966091403506908 ] ] } },
{ "type": "Feature", "properties": { "weight": 169.71629871785501, "nodes": "13-17" }, "geometry": { "type": "LineString", "coordinates": [ [ -75.186816605704848, 39.966091403506908 ], [ -75.1869154203861, 39.966015669450414 ], [ -75.186861521469055, 39.965822891473479 ], [ -75.18653812796677, 39.965499298647288 ], [ -75.186493212202564, 39.965464873788413 ], [ -75.186205751311647, 39.965361599107759 ], [ -75.186115919783234, 39.965361599107759 ], [ -75.186071004019027, 39.965389139037853 ] ] } },
{ "type": "Feature", "properties": { "weight": 146.74573596937793, "nodes": "13-17" }, "geometry": { "type": "LineString", "coordinates": [ [ -75.186816605704848, 39.966091403506908 ], [ -75.186583043730977, 39.966036324201411 ], [ -75.186304565992899, 39.965816006535682 ], [ -75.186196768158808, 39.965698962486968 ], [ -75.186071004019027, 39.965389139037853 ] ] } },
{ "type": "Feature", "properties": { "weight": 166.10107502870528, "nodes": "14-18" }, "geometry": { "type": "LineString", "coordinates": [ [ -75.187768819906012, 39.965981244851541 ], [ -75.187652038919083, 39.965788466777546 ], [ -75.187283729652592, 39.965464873788413 ], [ -75.186960336150307, 39.965093084207943 ] ] } },
{ "type": "Feature", "properties": { "weight": 236.39191898578667, "nodes": "15-25" }, "geometry": { "type": "LineString", "coordinates": [ [ -75.187894584045793, 39.965740272174102 ], [ -75.187849668281586, 39.965581918237881 ], [ -75.18780475251738, 39.965540608455065 ], [ -75.187795769364541, 39.965506183616988 ], [ -75.187732887294644, 39.965464873788413 ], [ -75.187678988377598, 39.965389139037853 ], [ -75.187472375862242, 39.965203244294429 ], [ -75.187391527486682, 39.965086199196648 ], [ -75.187238813888385, 39.964927843745421 ], [ -75.187193898124178, 39.964845223364385 ], [ -75.187005251914499, 39.964618016801722 ], [ -75.186960336150307, 39.964528510978816 ], [ -75.186870504621893, 39.964445890115208 ] ] } },
{ "type": "Feature", "properties": { "weight": 105.29646455628166, "nodes": "16-19" }, "geometry": { "type": "LineString", "coordinates": [ [ -75.187032201373043, 39.965664537728635 ], [ -75.186933386691777, 39.965513068585985 ], [ -75.186627959495183, 39.965203244294429 ], [ -75.186592026883815, 39.965079314184656 ] ] } },
{ "type": "Feature", "properties": { "weight": 196.08888171988548, "nodes": "17-26" }, "geometry": { "type": "LineString", "coordinates": [ [ -75.186071004019027, 39.965389139037853 ], [ -75.185909307267892, 39.965258324271097 ], [ -75.185819475739464, 39.965168819286461 ], [ -75.185792526280949, 39.96511373923768 ], [ -75.185567947459916, 39.964480315487179 ], [ -75.185558964307077, 39.964266877901515 ], [ -75.185603880071284, 39.964218682225443 ] ] } },
{ "type": "Feature", "properties": { "weight": 44.970562748477136, "nodes": "18-21" }, "geometry": { "type": "LineString", "coordinates": [ [ -75.186960336150307, 39.965093084207943 ], [ -75.186987285608822, 39.965072429171968 ], [ -75.186987285608822, 39.964996693986677 ], [ -75.186960336150307, 39.964900303629506 ], [ -75.186897454080409, 39.964824568253526 ] ] } },
{ "type": "Feature", "properties": { "weight": 31.543203766865055, "nodes": "18-20" }, "geometry": { "type": "LineString", "coordinates": [ [ -75.186960336150307, 39.965093084207943 ], [ -75.186699824717905, 39.965044889114303 ] ] } },
{ "type": "Feature", "properties": { "weight": 14.071067811865477, "nodes": "19-20" }, "geometry": { "type": "LineString", "coordinates": [ [ -75.186592026883815, 39.965079314184656 ], [ -75.186663892106552, 39.965072429171968 ], [ -75.186699824717905, 39.965044889114303 ] ] } },
{ "type": "Feature", "properties": { "weight": 180.52186130069785, "nodes": "19-26" }, "geometry": { "type": "LineString", "coordinates": [ [ -75.186592026883815, 39.965079314184656 ], [ -75.186502195355402, 39.965058659144525 ], [ -75.18645727959121, 39.965031119081303 ], [ -75.185837442045155, 39.96437703931926 ], [ -75.185765576822419, 39.96428064808844 ], [ -75.185603880071284, 39.964218682225443 ] ] } },
{ "type": "Feature", "properties": { "weight": 169.69343417595167, "nodes": "20-27" }, "geometry": { "type": "LineString", "coordinates": [ [ -75.186699824717905, 39.965044889114303 ], [ -75.186681858412229, 39.964927843745421 ], [ -75.186636942648022, 39.964865878468999 ], [ -75.186322532298576, 39.964604246682754 ], [ -75.185873374656509, 39.964142946094398 ] ] } },
{ "type": "Feature", "properties": { "weight": 28.242640687119284, "nodes": "22-23" }, "geometry": { "type": "LineString", "coordinates": [ [ -75.187687971530451, 39.964673097249886 ], [ -75.187678988377598, 39.964487200559489 ] ] } },
{ "type": "Feature", "properties": { "weight": 23.242640687119287, "nodes": "23-24" }, "geometry": { "type": "LineString", "coordinates": [ [ -75.187678988377598, 39.964487200559489 ], [ -75.187876617740102, 39.964466545340464 ] ] } },
{ "type": "Feature", "properties": { "weight": 171.00562059920026, "nodes": "23-30" }, "geometry": { "type": "LineString", "coordinates": [ [ -75.187678988377598, 39.964487200559489 ], [ -75.187643055766245, 39.964445890115208 ], [ -75.187553224237817, 39.964019014062622 ], [ -75.187472375862242, 39.963461317139625 ], [ -75.187436443250888, 39.963385580169607 ] ] } },
{ "type": "Feature", "properties": { "weight": 312.50309528225858, "nodes": "26-31" }, "geometry": { "type": "LineString", "coordinates": [ [ -75.185603880071284, 39.964218682225443 ], [ -75.185478115931517, 39.963833115593751 ], [ -75.185496082237194, 39.963722953299609 ], [ -75.185558964307077, 39.963654101775631 ], [ -75.18653812796677, 39.963475087488789 ], [ -75.18740051063952, 39.963385580169607 ] ] } },
{ "type": "Feature", "properties": { "weight": 46.485281374238568, "nodes": "30-33" }, "geometry": { "type": "LineString", "coordinates": [ [ -75.187436443250888, 39.963385580169607 ], [ -75.187490342167933, 39.963364924617771 ], [ -75.187831701975895, 39.963344269059697 ] ] } },
{ "type": "Feature", "properties": { "weight": 4.0, "nodes": "30-31" }, "geometry": { "type": "LineString", "coordinates": [ [ -75.187436443250888, 39.963385580169607 ], [ -75.18740051063952, 39.963385580169607 ] ] } },
{ "type": "Feature", "properties": { "weight": 89.213203435596427, "nodes": "31-35" }, "geometry": { "type": "LineString", "coordinates": [ [ -75.18740051063952, 39.963385580169607 ], [ -75.187373561181005, 39.963309843115702 ], [ -75.187319662263945, 39.962869189501617 ], [ -75.187247797041223, 39.962827878079693 ] ] } }
]
}
