{
"type": "FeatureCollection",
"name": "gee_batch_4_29.75218_-95.38799",
"crs": { "type": "name", "properties": { "name": "urn:ogc:def:crs:OGC:1.3:CRS84" } },
"features": [
{ "type": "Feature", "properties": { "name": "road_network" }, "geometry": { "type": "MultiLineString", "coordinates": [ [ [ -95.390208673953737, 29.75617121014788 ], [ -95.390244606565119, 29.756140015413081 ], [ -95.390235623412266, 29.75553171614396 ] ], [ [ -95.387873054215035, 29.75617121014788 ], [ -95.388025767813346, 29.756147814097694 ], [ -95.388897133638935, 29.756147814097694 ], [ -95.388933066250289, 29.75611661935562 ], [ -95.388942049403127, 29.75553171614396 ] ], [ [ -95.384109113174574, 29.75617121014788 ], [ -95.384037247951852, 29.756124418042049 ], [ -95.384028264799014, 29.755508319944486 ] ], [ [ -95.391349534364565, 29.756147814097694 ], [ -95.391376483823109, 29.756132216727874 ], [ -95.391358517517418, 29.755508319944486 ] ], [ [ -95.389732566853169, 29.756140015413081 ], [ -95.389750533158846, 29.756007437681898 ], [ -95.389741550006008, 29.755539514875903 ] ], [ [ -95.385699131227469, 29.75611661935562 ], [ -95.385708114380307, 29.75553171614396 ] ], [ [ -95.389741550006008, 29.755539514875903 ], [ -95.390235623412266, 29.75553171614396 ] ], [ [ -95.389741550006008, 29.755539514875903 ], [ -95.388942049403127, 29.75553171614396 ] ], [ [ -95.389741550006008, 29.755539514875903 ], [ -95.389714600547478, 29.753410438525265 ] ], [ [ -95.385708114380307, 29.75553171614396 ], [ -95.386184221480889, 29.755547313607241 ], [ -95.38779220583946, 29.755500521210116 ], [ -95.38892408309745, 29.755500521210116 ] ], [ [ -95.385708114380307, 29.75553171614396 ], [ -95.385106243139944, 29.755508319944486 ], [ -95.38469301810926, 29.755523917411406 ], [ -95.384028264799014, 29.755508319944486 ] ], [ [ -95.385708114380307, 29.75553171614396 ], [ -95.385708114380307, 29.754853224142025 ] ], [ [ -95.390235623412266, 29.75553171614396 ], [ -95.390648848442964, 29.755539514875903 ], [ -95.391358517517418, 29.755508319944486 ] ], [ [ -95.390235623412266, 29.75553171614396 ], [ -95.390244606565119, 29.755001400948252 ] ], [ [ -95.388942049403127, 29.75553171614396 ], [ -95.38892408309745, 29.755500521210116 ] ], [ [ -95.391358517517418, 29.755508319944486 ], [ -95.392122085508916, 29.755484923739559 ] ], [ [ -95.391358517517418, 29.755508319944486 ], [ -95.391358517517418, 29.755032596037449 ], [ -95.391340551211727, 29.754978004624991 ] ], [ [ -95.384028264799014, 29.755508319944486 ], [ -95.384010298493322, 29.755102784952609 ] ], [ [ -95.392256832801536, 29.755500521210116 ], [ -95.392283782260066, 29.755547313607241 ], [ -95.392301748565743, 29.755898255889232 ], [ -95.392301748565743, 29.756132216727874 ], [ -95.392265815954374, 29.756155612781694 ], [ -95.392175984425961, 29.756155612781694 ], [ -95.392140051814607, 29.756124418042049 ], [ -95.392122085508916, 29.755562911068083 ], [ -95.392167001273123, 29.755500521210116 ] ], [ [ -95.392256832801536, 29.755500521210116 ], [ -95.392167001273123, 29.755500521210116 ] ], [ [ -95.392256832801536, 29.755500521210116 ], [ -95.392283782260066, 29.755477125003367 ] ], [ [ -95.392167001273123, 29.755500521210116 ], [ -95.392122085508916, 29.755484923739559 ] ], [ [ -95.38892408309745, 29.755500521210116 ], [ -95.388942049403127, 29.755079388653019 ], [ -95.388942049403127, 29.754853224142025 ], [ -95.38892408309745, 29.754814230209238 ] ], [ [ -95.392122085508916, 29.755484923739559 ], [ -95.392095136050401, 29.755001400948252 ] ], [ [ -95.392283782260066, 29.755477125003367 ], [ -95.392526327386776, 29.755461527529171 ] ], [ [ -95.392283782260066, 29.755477125003367 ], [ -95.392283782260066, 29.755063791116925 ], [ -95.392274799107213, 29.754931211962088 ], [ -95.392247849648697, 29.754900016841347 ] ], [ [ -95.383426393558636, 29.755118382482642 ], [ -95.384010298493322, 29.755102784952609 ] ], [ [ -95.384010298493322, 29.755102784952609 ], [ -95.384001315340484, 29.753800382631873 ], [ -95.384028264799014, 29.753332449521903 ], [ -95.384046231104691, 29.753301253903565 ] ], [ [ -95.392095136050401, 29.755001400948252 ], [ -95.392184967578814, 29.754900016841347 ] ], [ [ -95.392095136050401, 29.755001400948252 ], [ -95.391726826783909, 29.754993602174441 ] ], [ [ -95.390244606565119, 29.755001400948252 ], [ -95.391340551211727, 29.754978004624991 ] ], [ [ -95.390244606565119, 29.755001400948252 ], [ -95.39019070764806, 29.754751839885223 ], [ -95.39019070764806, 29.754572467487353 ], [ -95.390226640259428, 29.75442429004698 ], [ -95.390253589717958, 29.75439309476846 ] ], [ [ -95.391340551211727, 29.754978004624991 ], [ -95.391331568058888, 29.753363645130527 ] ], [ [ -95.392247849648697, 29.754900016841347 ], [ -95.392265815954374, 29.754720644708655 ], [ -95.392220900190168, 29.754112336824889 ], [ -95.392202933884491, 29.754088940294093 ], [ -95.392202933884491, 29.75376138828948 ], [ -95.392167001273123, 29.753605410768206 ], [ -95.392167001273123, 29.753340248424973 ] ], [ [ -95.392247849648697, 29.754900016841347 ], [ -95.392184967578814, 29.754900016841347 ] ], [ [ -95.392184967578814, 29.754900016841347 ], [ -95.392131068661769, 29.754853224142025 ], [ -95.392131068661769, 29.75475963867785 ] ], [ [ -95.385708114380307, 29.754853224142025 ], [ -95.387612542782648, 29.754814230209238 ], [ -95.38892408309745, 29.754814230209238 ] ], [ [ -95.385708114380307, 29.754853224142025 ], [ -95.385699131227469, 29.754517875824277 ] ], [ [ -95.38892408309745, 29.754814230209238 ], [ -95.388942049403127, 29.754783035052085 ], [ -95.388942049403127, 29.754564668680167 ], [ -95.388915099944612, 29.754112336824889 ] ], [ [ -95.385699131227469, 29.754517875824277 ], [ -95.385402687183699, 29.754510077012842 ], [ -95.385348788266654, 29.754471082946552 ], [ -95.385348788266654, 29.7544476864995 ] ], [ [ -95.385699131227469, 29.754517875824277 ], [ -95.385708114380307, 29.754159129870096 ] ], [ [ -95.385708114380307, 29.754159129870096 ], [ -95.385896760589972, 29.754143532190785 ] ], [ [ -95.385708114380307, 29.754159129870096 ], [ -95.385699131227469, 29.753465030791514 ] ], [ [ -95.387334065044556, 29.754143532190785 ], [ -95.388915099944612, 29.754112336824889 ] ], [ [ -95.387334065044556, 29.754143532190785 ], [ -95.385896760589972, 29.754143532190785 ] ], [ [ -95.387334065044556, 29.754143532190785 ], [ -95.387289149280349, 29.753426036318661 ] ], [ [ -95.385896760589972, 29.754143532190785 ], [ -95.385887777437134, 29.753465030791514 ] ], [ [ -95.388915099944612, 29.754112336824889 ], [ -95.388906116791773, 29.753706796184638 ] ], [ [ -95.388187464564481, 29.753730192804639 ], [ -95.388906116791773, 29.753706796184638 ] ], [ [ -95.388906116791773, 29.753706796184638 ], [ -95.388906116791773, 29.75345723189816 ], [ -95.388933066250289, 29.753410438525265 ] ], [ [ -95.385887777437134, 29.753465030791514 ], [ -95.387289149280349, 29.753426036318661 ] ], [ [ -95.385887777437134, 29.753465030791514 ], [ -95.385770996450205, 29.75345723189816 ] ], [ [ -95.385699131227469, 29.753465030791514 ], [ -95.385770996450205, 29.75345723189816 ] ], [ [ -95.385699131227469, 29.753465030791514 ], [ -95.385106243139944, 29.753449433004192 ], [ -95.38489064747175, 29.753433835214441 ], [ -95.384845731707557, 29.753410438525265 ] ], [ [ -95.385770996450205, 29.75345723189816 ], [ -95.385753030144514, 29.752685138451977 ] ], [ [ -95.387289149280349, 29.753426036318661 ], [ -95.388286279245733, 29.753394840729452 ], [ -95.388933066250289, 29.753410438525265 ] ], [ [ -95.389714600547478, 29.753410438525265 ], [ -95.391331568058888, 29.753363645130527 ] ], [ [ -95.389714600547478, 29.753410438525265 ], [ -95.388933066250289, 29.753410438525265 ] ], [ [ -95.388933066250289, 29.753410438525265 ], [ -95.388933066250289, 29.752560355114529 ] ], [ [ -95.384845731707557, 29.753410438525265 ], [ -95.384881664318911, 29.753332449521903 ], [ -95.38489064747175, 29.752724133213068 ], [ -95.384917596930279, 29.752708535310454 ] ], [ [ -95.384845731707557, 29.753410438525265 ], [ -95.384046231104691, 29.753301253903565 ] ], [ [ -95.391331568058888, 29.753363645130527 ], [ -95.392167001273123, 29.753340248424973 ] ], [ [ -95.392526327386776, 29.753348047327432 ], [ -95.392167001273123, 29.753340248424973 ] ], [ [ -95.392167001273123, 29.753340248424973 ], [ -95.392149034967446, 29.752536958221469 ] ], [ [ -95.384046231104691, 29.753301253903565 ], [ -95.384010298493322, 29.753254460457857 ] ], [ [ -95.384010298493322, 29.753254460457857 ], [ -95.383453343017166, 29.753254460457857 ] ], [ [ -95.384010298493322, 29.753254460457857 ], [ -95.384019281646161, 29.752708535310454 ] ], [ [ -95.384917596930279, 29.752708535310454 ], [ -95.384019281646161, 29.752708535310454 ] ], [ [ -95.384917596930279, 29.752708535310454 ], [ -95.385753030144514, 29.752685138451977 ] ], [ [ -95.384917596930279, 29.752708535310454 ], [ -95.384872681166073, 29.75200662718051 ] ], [ [ -95.384019281646161, 29.752708535310454 ], [ -95.384019281646161, 29.752669540543291 ] ], [ [ -95.385753030144514, 29.752685138451977 ], [ -95.385762013297352, 29.752630545760962 ] ], [ [ -95.384019281646161, 29.752669540543291 ], [ -95.383426393558636, 29.752653942632183 ] ], [ [ -95.384019281646161, 29.752669540543291 ], [ -95.384028264799014, 29.752022225192356 ] ], [ [ -95.385762013297352, 29.752630545760962 ], [ -95.388933066250289, 29.752560355114529 ] ], [ [ -95.385762013297352, 29.752630545760962 ], [ -95.385744046991675, 29.752591550963459 ], [ -95.385726080685998, 29.751998828173686 ] ], [ [ -95.388933066250289, 29.752560355114529 ], [ -95.392149034967446, 29.752536958221469 ] ], [ [ -95.388933066250289, 29.752560355114529 ], [ -95.388915099944612, 29.751523087609549 ] ], [ [ -95.392149034967446, 29.752536958221469 ], [ -95.392553276845305, 29.75250576235555 ] ], [ [ -95.392149034967446, 29.752536958221469 ], [ -95.392131068661769, 29.751772656711633 ] ], [ [ -95.389373240739516, 29.752170406183797 ], [ -95.389355274433825, 29.752053421208753 ], [ -95.389391207045193, 29.752022225192356 ], [ -95.390199690800898, 29.751983230158203 ], [ -95.391133938696385, 29.751983230158203 ], [ -95.391196820766268, 29.751928637084902 ], [ -95.391205803919121, 29.751780455736053 ] ], [ [ -95.387199317751936, 29.752170406183797 ], [ -95.387181351446259, 29.751913039058497 ] ], [ [ -95.384028264799014, 29.752022225192356 ], [ -95.383435376711489, 29.752022225192356 ] ], [ [ -95.384028264799014, 29.752022225192356 ], [ -95.384872681166073, 29.75200662718051 ] ], [ [ -95.384028264799014, 29.752022225192356 ], [ -95.384010298493322, 29.751398302825503 ] ], [ [ -95.384872681166073, 29.75200662718051 ], [ -95.385726080685998, 29.751998828173686 ] ], [ [ -95.384872681166073, 29.75200662718051 ], [ -95.384872681166073, 29.750977153032505 ] ], [ [ -95.385726080685998, 29.751998828173686 ], [ -95.385744046991675, 29.751593278982316 ] ], [ [ -95.391205803919121, 29.751780455736053 ], [ -95.392131068661769, 29.751772656711633 ] ], [ [ -95.391205803919121, 29.751780455736053 ], [ -95.391169871307753, 29.751468494285643 ] ], [ [ -95.392131068661769, 29.751772656711633 ], [ -95.392544293692467, 29.751757058660957 ] ], [ [ -95.392131068661769, 29.751772656711633 ], [ -95.392122085508916, 29.75112533556884 ] ], [ [ -95.385744046991675, 29.751593278982316 ], [ -95.386049474188269, 29.751577680903722 ], [ -95.386525581288851, 29.751593278982316 ], [ -95.386561513900219, 29.751569881863517 ] ], [ [ -95.385744046991675, 29.751593278982316 ], [ -95.385735063838837, 29.751086340185768 ], [ -95.385708114380307, 29.750961554858048 ] ], [ [ -95.386561513900219, 29.751569881863517 ], [ -95.387019654695123, 29.751577680903722 ], [ -95.387325081891717, 29.751546484739261 ] ], [ [ -95.386561513900219, 29.751569881863517 ], [ -95.38655253074738, 29.750891363042932 ] ], [ [ -95.387325081891717, 29.751546484739261 ], [ -95.388133565647436, 29.751515288565098 ] ], [ [ -95.387325081891717, 29.751546484739261 ], [ -95.387325081891717, 29.750891363042932 ] ], [ [ -95.388915099944612, 29.751523087609549 ], [ -95.388133565647436, 29.751515288565098 ] ], [ [ -95.388915099944612, 29.751523087609549 ], [ -95.389714600547478, 29.751491891428099 ] ], [ [ -95.388915099944612, 29.751523087609549 ], [ -95.388906116791773, 29.750844568472214 ] ], [ [ -95.388133565647436, 29.751515288565098 ], [ -95.388133565647436, 29.75086796576031 ] ], [ [ -95.389714600547478, 29.751491891428099 ], [ -95.391169871307753, 29.751468494285643 ] ], [ [ -95.389714600547478, 29.751491891428099 ], [ -95.38970561739464, 29.750821171178671 ] ], [ [ -95.391169871307753, 29.751468494285643 ], [ -95.391169871307753, 29.751133134643627 ], [ -95.39118783761343, 29.75110193834082 ] ], [ [ -95.383426393558636, 29.751421699984345 ], [ -95.384010298493322, 29.751398302825503 ] ], [ [ -95.384010298493322, 29.751398302825503 ], [ -95.384028264799014, 29.751000550289646 ] ], [ [ -95.390469185386138, 29.751367106605219 ], [ -95.390478168538976, 29.750805572979939 ] ], [ [ -95.392122085508916, 29.75112533556884 ], [ -95.392175984425961, 29.75110193834082 ], [ -95.392544293692467, 29.75110193834082 ] ], [ [ -95.392122085508916, 29.75112533556884 ], [ -95.392113102356078, 29.751094139263603 ] ], [ [ -95.39118783761343, 29.75110193834082 ], [ -95.392113102356078, 29.751094139263603 ] ], [ [ -95.39118783761343, 29.75110193834082 ], [ -95.391169871307753, 29.750836769374974 ], [ -95.391142921849223, 29.750805572979939 ], [ -95.390478168538976, 29.750805572979939 ] ], [ [ -95.392113102356078, 29.751094139263603 ], [ -95.392095136050401, 29.749776086497246 ] ], [ [ -95.384028264799014, 29.751000550289646 ], [ -95.384872681166073, 29.750977153032505 ] ], [ [ -95.384028264799014, 29.751000550289646 ], [ -95.384010298493322, 29.750774376575194 ] ], [ [ -95.384872681166073, 29.750977153032505 ], [ -95.385708114380307, 29.750961554858048 ] ], [ [ -95.384872681166073, 29.750977153032505 ], [ -95.384854714860396, 29.750283031919825 ] ], [ [ -95.385708114380307, 29.750961554858048 ], [ -95.385744046991675, 29.750914760320097 ] ], [ [ -95.385744046991675, 29.750914760320097 ], [ -95.38655253074738, 29.750891363042932 ] ], [ [ -95.385744046991675, 29.750914760320097 ], [ -95.38571709753316, 29.750704184629015 ], [ -95.385726080685998, 29.750228437920573 ] ], [ [ -95.387325081891717, 29.750891363042932 ], [ -95.38655253074738, 29.750891363042932 ] ], [ [ -95.38655253074738, 29.750891363042932 ], [ -95.38655253074738, 29.750212839629611 ] ], [ [ -95.387325081891717, 29.750891363042932 ], [ -95.387343048197394, 29.750875764855127 ] ], [ [ -95.387343048197394, 29.750875764855127 ], [ -95.388133565647436, 29.75086796576031 ] ], [ [ -95.388133565647436, 29.75086796576031 ], [ -95.388906116791773, 29.750844568472214 ] ], [ [ -95.388133565647436, 29.75086796576031 ], [ -95.388124582494584, 29.75018944218861 ] ], [ [ -95.387343048197394, 29.750875764855127 ], [ -95.387325081891717, 29.750212839629611 ] ], [ [ -95.388906116791773, 29.750844568472214 ], [ -95.388933066250289, 29.750828970277126 ] ], [ [ -95.38970561739464, 29.750821171178671 ], [ -95.388933066250289, 29.750828970277126 ] ], [ [ -95.38970561739464, 29.750821171178671 ], [ -95.390478168538976, 29.750805572979939 ] ], [ [ -95.38970561739464, 29.750821171178671 ], [ -95.38970561739464, 29.750142647290239 ] ], [ [ -95.388933066250289, 29.750828970277126 ], [ -95.388915099944612, 29.750166044742155 ] ], [ [ -95.390478168538976, 29.750805572979939 ], [ -95.390496134844668, 29.750618394405837 ], [ -95.390478168538976, 29.750142647290239 ] ], [ [ -95.383426393558636, 29.750782175677283 ], [ -95.384010298493322, 29.750774376575194 ] ], [ [ -95.384010298493322, 29.750774376575194 ], [ -95.384019281646161, 29.750298630199865 ] ], [ [ -95.392571243150982, 29.75042341635282 ], [ -95.392328698024258, 29.75042341635282 ] ], [ [ -95.384019281646161, 29.750298630199865 ], [ -95.384854714860396, 29.750283031919825 ] ], [ [ -95.384019281646161, 29.750298630199865 ], [ -95.383992332187631, 29.750244036209107 ] ], [ [ -95.391313601753211, 29.750290831060148 ], [ -95.391313601753211, 29.750127048985931 ] ], [ [ -95.384854714860396, 29.750283031919825 ], [ -95.384872681166073, 29.750244036209107 ], [ -95.384863698013234, 29.749596705195206 ] ], [ [ -95.383992332187631, 29.750244036209107 ], [ -95.383857584895011, 29.750212839629611 ], [ -95.383552157698418, 29.750041258268823 ], [ -95.383435376711489, 29.749971065809316 ], [ -95.383390460947268, 29.74990087330066 ] ], [ [ -95.383992332187631, 29.750244036209107 ], [ -95.384010298493322, 29.750197241336217 ], [ -95.384010298493322, 29.749627901966448 ] ], [ [ -95.385726080685998, 29.750228437920573 ], [ -95.38655253074738, 29.750212839629611 ] ], [ [ -95.385726080685998, 29.750228437920573 ], [ -95.38571709753316, 29.750197241336217 ] ], [ [ -95.38655253074738, 29.750212839629611 ], [ -95.387325081891717, 29.750212839629611 ] ], [ [ -95.38655253074738, 29.750212839629611 ], [ -95.386525581288851, 29.749534311623606 ] ], [ [ -95.387325081891717, 29.750212839629611 ], [ -95.387343048197394, 29.750197241336217 ] ], [ [ -95.388124582494584, 29.75018944218861 ], [ -95.387343048197394, 29.750197241336217 ] ], [ [ -95.388124582494584, 29.75018944218861 ], [ -95.388915099944612, 29.750166044742155 ] ], [ [ -95.388124582494584, 29.75018944218861 ], [ -95.388115599341745, 29.749487516419421 ] ], [ [ -95.38571709753316, 29.750197241336217 ], [ -95.385708114380307, 29.749573307610405 ] ], [ [ -95.387343048197394, 29.750197241336217 ], [ -95.387325081891717, 29.749510914024246 ] ], [ [ -95.388915099944612, 29.750166044742155 ], [ -95.388888150486082, 29.749479717216602 ] ], [ [ -95.390478168538976, 29.750142647290239 ], [ -95.391313601753211, 29.750127048985931 ] ], [ [ -95.38970561739464, 29.750142647290239 ], [ -95.390478168538976, 29.750142647290239 ] ], [ [ -95.390478168538976, 29.750142647290239 ], [ -95.390460202233299, 29.749448520399245 ] ], [ [ -95.38970561739464, 29.750142647290239 ], [ -95.389687651088963, 29.749464118809136 ] ], [ [ -95.391313601753211, 29.750127048985931 ], [ -95.39132258490605, 29.74981508239 ], [ -95.391358517517418, 29.749768287316876 ], [ -95.391978355063472, 29.749760488135895 ], [ -95.392077169744724, 29.749729291405924 ] ], [ [ -95.392095136050401, 29.749776086497246 ], [ -95.392202933884491, 29.749744889772124 ], [ -95.392553276845305, 29.749729291405924 ] ], [ [ -95.392095136050401, 29.749776086497246 ], [ -95.392077169744724, 29.749729291405924 ] ], [ [ -95.392077169744724, 29.749729291405924 ], [ -95.392059203439032, 29.748964968488842 ] ], [ [ -95.384010298493322, 29.749627901966448 ], [ -95.384863698013234, 29.749596705195206 ] ], [ [ -95.384010298493322, 29.749627901966448 ], [ -95.383992332187631, 29.749604504388927 ], [ -95.383992332187631, 29.749417323572189 ] ], [ [ -95.384863698013234, 29.749596705195206 ], [ -95.385708114380307, 29.749573307610405 ] ], [ [ -95.384863698013234, 29.749596705195206 ], [ -95.384845731707557, 29.748925972265415 ] ], [ [ -95.385708114380307, 29.749573307610405 ], [ -95.38571709753316, 29.749534311623606 ] ], [ [ -95.386525581288851, 29.749534311623606 ], [ -95.387325081891717, 29.749510914024246 ] ], [ [ -95.386525581288851, 29.749534311623606 ], [ -95.38571709753316, 29.749534311623606 ] ], [ [ -95.386525581288851, 29.749534311623606 ], [ -95.386525581288851, 29.748847979773029 ] ], [ [ -95.38571709753316, 29.749534311623606 ], [ -95.385708114380307, 29.748902574524067 ] ], [ [ -95.387325081891717, 29.749510914024246 ], [ -95.388115599341745, 29.749487516419421 ] ], [ [ -95.387325081891717, 29.749510914024246 ], [ -95.387316098738879, 29.748847979773029 ] ], [ [ -95.388115599341745, 29.749487516419421 ], [ -95.388888150486082, 29.749479717216602 ] ], [ [ -95.388115599341745, 29.749487516419421 ], [ -95.388106616188907, 29.748832381267263 ] ], [ [ -95.388888150486082, 29.749479717216602 ], [ -95.389687651088963, 29.749464118809136 ] ], [ [ -95.388888150486082, 29.749479717216602 ], [ -95.388897133638935, 29.748816782759082 ] ], [ [ -95.389687651088963, 29.749464118809136 ], [ -95.390460202233299, 29.749448520399245 ] ], [ [ -95.389687651088963, 29.749464118809136 ], [ -95.389669684783271, 29.748793384992258 ] ], [ [ -95.390460202233299, 29.749448520399245 ], [ -95.391115972390708, 29.749432921986934 ], [ -95.391133938696385, 29.749409524363909 ], [ -95.391133938696385, 29.74905076012702 ], [ -95.391151905002076, 29.74900396469712 ], [ -95.391205803919121, 29.748964968488842 ] ], [ [ -95.390460202233299, 29.749448520399245 ], [ -95.390460202233299, 29.748777786478001 ] ], [ [ -95.383992332187631, 29.749417323572189 ], [ -95.383857584895011, 29.749401725155018 ], [ -95.383659955532508, 29.749245740849819 ], [ -95.38356114085127, 29.749206744735599 ], [ -95.383390460947268, 29.749089756301913 ] ], [ [ -95.383992332187631, 29.749417323572189 ], [ -95.383992332187631, 29.748941570756607 ] ], [ [ -95.392526327386776, 29.748964968488842 ], [ -95.392059203439032, 29.748964968488842 ] ], [ [ -95.392059203439032, 29.748964968488842 ], [ -95.391412416434477, 29.748980566973973 ], [ -95.391205803919121, 29.748964968488842 ] ], [ [ -95.392059203439032, 29.748964968488842 ], [ -95.392032253980517, 29.748286432036711 ] ], [ [ -95.391205803919121, 29.748964968488842 ], [ -95.391205803919121, 29.748777786478001 ] ], [ [ -95.383992332187631, 29.748941570756607 ], [ -95.384845731707557, 29.748925972265415 ] ], [ [ -95.383992332187631, 29.748941570756607 ], [ -95.383992332187631, 29.748621801201985 ], [ -95.383902500659218, 29.748411220694393 ] ], [ [ -95.384845731707557, 29.748925972265415 ], [ -95.384872681166073, 29.748918173018904 ] ], [ [ -95.384872681166073, 29.748918173018904 ], [ -95.385708114380307, 29.748902574524067 ] ], [ [ -95.384872681166073, 29.748918173018904 ], [ -95.384863698013234, 29.748426819265674 ], [ -95.384836748554704, 29.748231836950136 ] ], [ [ -95.385708114380307, 29.748902574524067 ], [ -95.385726080685998, 29.748871377527109 ] ], [ [ -95.385726080685998, 29.748871377527109 ], [ -95.385878794284295, 29.748871377527109 ], [ -95.385887777437134, 29.748863578276357 ], [ -95.386130322563844, 29.748863578276357 ], [ -95.386139305716682, 29.748855779024989 ], [ -95.386390833996245, 29.748855779024989 ], [ -95.386399817149083, 29.748847979773029 ], [ -95.386525581288851, 29.748847979773029 ] ], [ [ -95.385726080685998, 29.748871377527109 ], [ -95.38571709753316, 29.748239636250045 ] ], [ [ -95.387316098738879, 29.748847979773029 ], [ -95.388106616188907, 29.748832381267263 ] ], [ [ -95.387316098738879, 29.748847979773029 ], [ -95.386525581288851, 29.748847979773029 ] ], [ [ -95.387316098738879, 29.748847979773029 ], [ -95.387325081891717, 29.748224037649631 ] ], [ [ -95.386525581288851, 29.748847979773029 ], [ -95.386525581288851, 29.748231836950136 ] ], [ [ -95.388106616188907, 29.748832381267263 ], [ -95.388897133638935, 29.748816782759082 ] ], [ [ -95.388106616188907, 29.748832381267263 ], [ -95.388106616188907, 29.748263034146113 ], [ -95.388079666730391, 29.748216238348515 ], [ -95.387828138450828, 29.748192840441526 ], [ -95.387387963961601, 29.748200639744461 ], [ -95.387325081891717, 29.748224037649631 ] ], [ [ -95.388897133638935, 29.748816782759082 ], [ -95.389669684783271, 29.748793384992258 ] ], [ [ -95.388897133638935, 29.748816782759082 ], [ -95.388897133638935, 29.748231836950136 ] ], [ [ -95.389669684783271, 29.748793384992258 ], [ -95.390460202233299, 29.748777786478001 ] ], [ [ -95.389669684783271, 29.748793384992258 ], [ -95.389678667936124, 29.748224037649631 ] ], [ [ -95.391205803919121, 29.748777786478001 ], [ -95.390460202233299, 29.748777786478001 ] ], [ [ -95.390460202233299, 29.748777786478001 ], [ -95.390460202233299, 29.748224037649631 ], [ -95.390424269621931, 29.748200639744461 ] ], [ [ -95.391205803919121, 29.748777786478001 ], [ -95.391223770224798, 29.748590604117659 ], [ -95.391196820766268, 29.748231836950136 ], [ -95.391169871307753, 29.748216238348515 ] ], [ [ -95.383902500659218, 29.748411220694393 ], [ -95.383965382729102, 29.748333227801542 ], [ -95.384073180563206, 29.748263034146113 ], [ -95.384836748554704, 29.748231836950136 ] ], [ [ -95.383902500659218, 29.748411220694393 ], [ -95.383597073462624, 29.748333227801542 ], [ -95.383444359864328, 29.748239636250045 ] ], [ [ -95.392032253980517, 29.748286432036711 ], [ -95.392140051814607, 29.748208439046792 ] ], [ [ -95.392032253980517, 29.748286432036711 ], [ -95.391906489840721, 29.748192840441526 ] ], [ [ -95.38571709753316, 29.748239636250045 ], [ -95.385744046991675, 29.748224037649631 ], [ -95.386525581288851, 29.748231836950136 ] ], [ [ -95.38571709753316, 29.748239636250045 ], [ -95.385681164921778, 29.748224037649631 ], [ -95.384836748554704, 29.748231836950136 ] ], [ [ -95.386525581288851, 29.748231836950136 ], [ -95.386777109568399, 29.748208439046792 ], [ -95.387325081891717, 29.748224037649631 ] ] ] } }
]
}
