{
"type": "FeatureCollection",
"name": "gee_batch_1_32.70659_-117.13559",
"crs": { "type": "name", "properties": { "name": "urn:ogc:def:crs:OGC:1.3:CRS84" } },
"features": [
{ "type": "Feature", "properties": { "name": "road_network" }, "geometry": { "type": "MultiLineString", "coordinates": [ [ [ -117.139467987840561, 32.710458246272772 ], [ -117.13823729590132, 32.710443129203469 ], [ -117.138174413831436, 32.710412895057168 ] ], [ [ -117.137419828992762, 32.710458246272772 ], [ -117.138012717080301, 32.710450687738437 ], [ -117.138111531761538, 32.710443129203469 ], [ -117.138174413831436, 32.710412895057168 ] ], [ [ -117.133907416231864, 32.710458246272772 ], [ -117.133844534161966, 32.710405336518996 ], [ -117.133835551009128, 32.710276841272027 ], [ -117.133853517314819, 32.708470329679663 ] ], [ [ -117.132928252572185, 32.710458246272772 ], [ -117.132973168336392, 32.710420453594708 ], [ -117.132964185183553, 32.70905234786882 ], [ -117.13298215148923, 32.708485447083262 ] ], [ [ -117.139593751980328, 32.710435570667855 ], [ -117.13958476882749, 32.709490748673005 ] ], [ [ -117.136054389760901, 32.710435570667855 ], [ -117.136009473996708, 32.710397777980177 ], [ -117.136009473996708, 32.710034967363917 ] ], [ [ -117.134886579891557, 32.710420453594708 ], [ -117.134895563044395, 32.708485447083262 ] ], [ [ -117.131167554615303, 32.710420453594708 ], [ -117.131149588309626, 32.709037230561286 ], [ -117.13118552092098, 32.708780235941298 ], [ -117.131176537768141, 32.708485447083262 ] ], [ [ -117.138174413831436, 32.710412895057168 ], [ -117.138156447525745, 32.709498307288669 ] ], [ [ -117.137177283866052, 32.710034967363917 ], [ -117.136009473996708, 32.710034967363917 ] ], [ [ -117.136009473996708, 32.710034967363917 ], [ -117.136018457149547, 32.709536100357383 ] ], [ [ -117.135407602756359, 32.709823327156386 ], [ -117.135407602756359, 32.709543658969203 ], [ -117.135425569062036, 32.709520983131817 ], [ -117.136000490843855, 32.709513424518079 ] ], [ [ -117.136018457149547, 32.709536100357383 ], [ -117.13675507568253, 32.709513424518079 ], [ -117.136826940905252, 32.709483190056702 ], [ -117.137069486031962, 32.709279107174432 ], [ -117.137195250171743, 32.709226196721346 ], [ -117.137392879534247, 32.709188403521352 ], [ -117.137545593132558, 32.709188403521352 ], [ -117.137698306730854, 32.709233755359421 ], [ -117.137851020329151, 32.709309341704973 ], [ -117.13799475077461, 32.70943027972465 ], [ -117.138147464372906, 32.709460514203947 ] ], [ [ -117.136018457149547, 32.709536100357383 ], [ -117.136000490843855, 32.709513424518079 ] ], [ [ -117.136000490843855, 32.709513424518079 ], [ -117.136009473996708, 32.70885582267109 ] ], [ [ -117.138156447525745, 32.709498307288669 ], [ -117.13958476882749, 32.709490748673005 ] ], [ [ -117.13958476882749, 32.709490748673005 ], [ -117.140114774845131, 32.709498307288669 ], [ -117.140150707456499, 32.709460514203947 ], [ -117.140159690609337, 32.708659297040448 ], [ -117.140150707456499, 32.708485447083262 ], [ -117.140105791692292, 32.708432536159485 ] ], [ [ -117.13958476882749, 32.709490748673005 ], [ -117.139575785674651, 32.70896920264569 ] ], [ [ -117.138156447525745, 32.709498307288669 ], [ -117.138147464372906, 32.709460514203947 ] ], [ [ -117.138147464372906, 32.709460514203947 ], [ -117.138147464372906, 32.70896920264569 ] ], [ [ -117.139575785674651, 32.70896920264569 ], [ -117.138147464372906, 32.70896920264569 ] ], [ [ -117.139575785674651, 32.70896920264569 ], [ -117.139593751980328, 32.708916292008809 ], [ -117.139593751980328, 32.708432536159485 ] ], [ [ -117.138147464372906, 32.70896920264569 ], [ -117.138147464372906, 32.708840705330246 ] ], [ [ -117.136009473996708, 32.70885582267109 ], [ -117.137285081700142, 32.708870940009355 ], [ -117.138147464372906, 32.708840705330246 ] ], [ [ -117.136009473996708, 32.70885582267109 ], [ -117.136000490843855, 32.708470329679663 ] ], [ [ -117.138147464372906, 32.708840705330246 ], [ -117.138147464372906, 32.708455212273513 ] ], [ [ -117.134895563044395, 32.708485447083262 ], [ -117.136000490843855, 32.708470329679663 ] ], [ [ -117.134895563044395, 32.708485447083262 ], [ -117.133853517314819, 32.708470329679663 ] ], [ [ -117.13298215148923, 32.708485447083262 ], [ -117.133853517314819, 32.708470329679663 ] ], [ [ -117.13298215148923, 32.708485447083262 ], [ -117.13209281935795, 32.708477888381779 ] ], [ [ -117.131176537768141, 32.708485447083262 ], [ -117.13209281935795, 32.708477888381779 ] ], [ [ -117.131176537768141, 32.708485447083262 ], [ -117.131077723086889, 32.708477888381779 ], [ -117.131005857864167, 32.708417418746926 ] ], [ [ -117.136000490843855, 32.708470329679663 ], [ -117.138147464372906, 32.708455212273513 ] ], [ [ -117.136000490843855, 32.708470329679663 ], [ -117.136018457149547, 32.707963895179113 ] ], [ [ -117.133853517314819, 32.708470329679663 ], [ -117.133853517314819, 32.70797901266851 ] ], [ [ -117.13209281935795, 32.708477888381779 ], [ -117.132101802510789, 32.707963895179113 ] ], [ [ -117.138147464372906, 32.708455212273513 ], [ -117.139593751980328, 32.708432536159485 ] ], [ [ -117.138147464372906, 32.708455212273513 ], [ -117.138138481220068, 32.707933660192623 ] ], [ [ -117.140105791692292, 32.708432536159485 ], [ -117.140150707456499, 32.708364507782797 ], [ -117.140150707456499, 32.707442340226109 ], [ -117.140105791692292, 32.707396987477416 ] ], [ [ -117.140105791692292, 32.708432536159485 ], [ -117.139593751980328, 32.708432536159485 ] ], [ [ -117.139593751980328, 32.708432536159485 ], [ -117.13958476882749, 32.707926101444386 ] ], [ [ -117.133853517314819, 32.70797901266851 ], [ -117.13449132116655, 32.70797901266851 ], [ -117.13457216954211, 32.707941218940199 ] ], [ [ -117.133853517314819, 32.70797901266851 ], [ -117.133673854257992, 32.70795633643344 ], [ -117.132101802510789, 32.707963895179113 ] ], [ [ -117.133853517314819, 32.70797901266851 ], [ -117.133862500467657, 32.70743478143627 ] ], [ [ -117.136018457149547, 32.707963895179113 ], [ -117.135569299507495, 32.707963895179113 ], [ -117.135470484826243, 32.707933660192623 ] ], [ [ -117.136018457149547, 32.707963895179113 ], [ -117.138138481220068, 32.707933660192623 ] ], [ [ -117.136018457149547, 32.707963895179113 ], [ -117.136009473996708, 32.707419663854644 ] ], [ [ -117.132101802510789, 32.707963895179113 ], [ -117.131014841017006, 32.707971453924124 ] ], [ [ -117.132101802510789, 32.707963895179113 ], [ -117.132101802510789, 32.707449899015323 ] ], [ [ -117.138138481220068, 32.707933660192623 ], [ -117.13958476882749, 32.707926101444386 ] ], [ [ -117.138138481220068, 32.707933660192623 ], [ -117.138138481220068, 32.707404546270475 ] ], [ [ -117.13457216954211, 32.707941218940199 ], [ -117.134608102153479, 32.707971453924124 ], [ -117.135120141865414, 32.707971453924124 ], [ -117.135389636450668, 32.707963895179113 ], [ -117.135470484826243, 32.707933660192623 ] ], [ [ -117.13457216954211, 32.707941218940199 ], [ -117.13457216954211, 32.707419663854644 ] ], [ [ -117.13958476882749, 32.707926101444386 ], [ -117.13958476882749, 32.707396987477416 ] ], [ [ -117.135470484826243, 32.707933660192623 ], [ -117.135461501673404, 32.707487692951759 ], [ -117.135479467979081, 32.707419663854644 ] ], [ [ -117.131059756781212, 32.707457457803891 ], [ -117.132101802510789, 32.707449899015323 ] ], [ [ -117.132101802510789, 32.707449899015323 ], [ -117.133862500467657, 32.70743478143627 ] ], [ [ -117.132101802510789, 32.707449899015323 ], [ -117.132083836205112, 32.706913223390274 ] ], [ [ -117.133862500467657, 32.70743478143627 ], [ -117.13457216954211, 32.707419663854644 ] ], [ [ -117.133862500467657, 32.70743478143627 ], [ -117.133862500467657, 32.706920782224309 ] ], [ [ -117.136009473996708, 32.707419663854644 ], [ -117.138138481220068, 32.707404546270475 ] ], [ [ -117.136009473996708, 32.707419663854644 ], [ -117.135479467979081, 32.707419663854644 ] ], [ [ -117.136009473996708, 32.707419663854644 ], [ -117.136009473996708, 32.706898105720285 ] ], [ [ -117.135479467979081, 32.707419663854644 ], [ -117.13457216954211, 32.707419663854644 ] ], [ [ -117.135479467979081, 32.707419663854644 ], [ -117.135479467979081, 32.706376544537129 ] ], [ [ -117.13457216954211, 32.707419663854644 ], [ -117.134581152694963, 32.706391662295488 ] ], [ [ -117.138138481220068, 32.707404546270475 ], [ -117.13958476882749, 32.707396987477416 ] ], [ [ -117.138138481220068, 32.707404546270475 ], [ -117.138138481220068, 32.706890546884331 ] ], [ [ -117.140105791692292, 32.707396987477416 ], [ -117.13958476882749, 32.707396987477416 ] ], [ [ -117.13958476882749, 32.707396987477416 ], [ -117.139566802521813, 32.706882988047731 ] ], [ [ -117.140105791692292, 32.707396987477416 ], [ -117.14014172430366, 32.707351634705674 ], [ -117.140150707456499, 32.706429456680176 ], [ -117.140096808539454, 32.706353867894791 ] ], [ [ -117.133862500467657, 32.706920782224309 ], [ -117.132083836205112, 32.706913223390274 ] ], [ [ -117.133862500467657, 32.706920782224309 ], [ -117.133871483620496, 32.706391662295488 ] ], [ [ -117.131014841017006, 32.706928341057697 ], [ -117.132083836205112, 32.706913223390274 ] ], [ [ -117.132083836205112, 32.706913223390274 ], [ -117.132083836205112, 32.706399221173704 ] ], [ [ -117.136009473996708, 32.706898105720285 ], [ -117.138138481220068, 32.706890546884331 ] ], [ [ -117.136009473996708, 32.706898105720285 ], [ -117.136009473996708, 32.706376544537129 ] ], [ [ -117.139566802521813, 32.706882988047731 ], [ -117.138138481220068, 32.706890546884331 ] ], [ [ -117.138138481220068, 32.706890546884331 ], [ -117.138138481220068, 32.706361426776212 ] ], [ [ -117.139566802521813, 32.706882988047731 ], [ -117.139593751980328, 32.706618428363484 ] ], [ [ -117.132083836205112, 32.706399221173704 ], [ -117.133871483620496, 32.706391662295488 ] ], [ [ -117.132083836205112, 32.706399221173704 ], [ -117.131077723086889, 32.706399221173704 ] ], [ [ -117.132083836205112, 32.706399221173704 ], [ -117.132083836205112, 32.70534853095964 ] ], [ [ -117.134581152694963, 32.706391662295488 ], [ -117.133871483620496, 32.706391662295488 ] ], [ [ -117.134581152694963, 32.706391662295488 ], [ -117.135479467979081, 32.706376544537129 ] ], [ [ -117.134581152694963, 32.706391662295488 ], [ -117.134563186389272, 32.705340971992413 ] ], [ [ -117.133871483620496, 32.706391662295488 ], [ -117.133880466773334, 32.70534853095964 ] ], [ [ -117.136009473996708, 32.706376544537129 ], [ -117.138138481220068, 32.706361426776212 ] ], [ [ -117.136009473996708, 32.706376544537129 ], [ -117.135479467979081, 32.706376544537129 ] ], [ [ -117.136009473996708, 32.706376544537129 ], [ -117.136000490843855, 32.705325854056035 ] ], [ [ -117.135479467979081, 32.706376544537129 ], [ -117.135479467979081, 32.705333413024547 ] ], [ [ -117.138138481220068, 32.706361426776212 ], [ -117.140096808539454, 32.706353867894791 ] ], [ [ -117.138138481220068, 32.706361426776212 ], [ -117.138120514914391, 32.70528805920388 ] ], [ [ -117.140096808539454, 32.706353867894791 ], [ -117.140159690609337, 32.706285837933194 ], [ -117.140150707456499, 32.705386325786179 ], [ -117.140069859080938, 32.70528805920388 ], [ -117.139755448731492, 32.705250264335724 ] ], [ [ -117.131688577480077, 32.705877657074339 ], [ -117.131365183977806, 32.705870098151927 ] ], [ [ -117.131068739934051, 32.705371207857482 ], [ -117.132083836205112, 32.70534853095964 ] ], [ [ -117.133880466773334, 32.70534853095964 ], [ -117.132083836205112, 32.70534853095964 ] ], [ [ -117.132083836205112, 32.70534853095964 ], [ -117.132056886746582, 32.705189792513373 ], [ -117.13187722368977, 32.704970581813804 ], [ -117.131859257384093, 32.704887432786876 ] ], [ [ -117.134563186389272, 32.705340971992413 ], [ -117.133880466773334, 32.70534853095964 ] ], [ [ -117.133880466773334, 32.70534853095964 ], [ -117.133880466773334, 32.704849637749028 ] ], [ [ -117.135479467979081, 32.705333413024547 ], [ -117.136000490843855, 32.705325854056035 ] ], [ [ -117.134563186389272, 32.705340971992413 ], [ -117.135290821769416, 32.705340971992413 ], [ -117.135299804922269, 32.705333413024547 ], [ -117.135479467979081, 32.705333413024547 ] ], [ [ -117.135479467979081, 32.705333413024547 ], [ -117.135479467979081, 32.704849637749028 ] ], [ [ -117.134563186389272, 32.705340971992413 ], [ -117.13457216954211, 32.704993258807697 ], [ -117.134554203236434, 32.704947904814141 ], [ -117.134015214065954, 32.704569953971372 ], [ -117.133889449926173, 32.704547276869903 ] ], [ [ -117.136000490843855, 32.705325854056035 ], [ -117.137725256189384, 32.705295618175597 ], [ -117.137788138259268, 32.705257823310639 ] ], [ [ -117.138120514914391, 32.70528805920388 ], [ -117.139674600355903, 32.705295618175597 ], [ -117.139755448731492, 32.705250264335724 ] ], [ [ -117.138120514914391, 32.70528805920388 ], [ -117.138021700233139, 32.705257823310639 ] ], [ [ -117.138021700233139, 32.705257823310639 ], [ -117.138066615997346, 32.70521246945156 ], [ -117.138111531761538, 32.70505373076324 ], [ -117.138165430678598, 32.704970581813804 ], [ -117.138677470390547, 32.704426332231378 ] ], [ [ -117.138021700233139, 32.705257823310639 ], [ -117.137788138259268, 32.705257823310639 ] ], [ [ -117.137788138259268, 32.705257823310639 ], [ -117.137689323578016, 32.705091525714643 ], [ -117.136234052817727, 32.704078615482494 ] ], [ [ -117.139755448731492, 32.705250264335724 ], [ -117.139701549814447, 32.705136879635198 ], [ -117.139557819368974, 32.705031053784708 ], [ -117.139521886757606, 32.704947904814141 ] ], [ [ -117.139521886757606, 32.704947904814141 ], [ -117.139611718286019, 32.704894991792528 ], [ -117.140159690609337, 32.704887432786876 ], [ -117.140186640067867, 32.70483451972941 ] ], [ [ -117.139521886757606, 32.704947904814141 ], [ -117.139387139464986, 32.704910109801901 ], [ -117.138677470390547, 32.704426332231378 ] ], [ [ -117.131859257384093, 32.704887432786876 ], [ -117.13198502152386, 32.704857196757878 ], [ -117.133880466773334, 32.704849637749028 ] ], [ [ -117.131859257384093, 32.704887432786876 ], [ -117.131787392161357, 32.704857196757878 ], [ -117.131751459549989, 32.704789165655164 ], [ -117.131733493244283, 32.704312946483888 ] ], [ [ -117.135479467979081, 32.704849637749028 ], [ -117.13583879409272, 32.704494363610713 ] ], [ [ -117.135479467979081, 32.704849637749028 ], [ -117.135371670144991, 32.704826960718634 ], [ -117.135245906005224, 32.704751370575693 ], [ -117.134060129830175, 32.70393499295168 ], [ -117.133889449926173, 32.703889638420243 ] ], [ [ -117.133880466773334, 32.704849637749028 ], [ -117.133889449926173, 32.704547276869903 ] ], [ [ -117.136377783263214, 32.704842078739539 ], [ -117.13583879409272, 32.704494363610713 ] ], [ [ -117.140186640067867, 32.704819401707219 ], [ -117.140159690609337, 32.704766488609401 ], [ -117.139063745962716, 32.704010583786193 ] ], [ [ -117.138021700233139, 32.704653103294142 ], [ -117.136629311542762, 32.703677983635387 ] ], [ [ -117.133889449926173, 32.704547276869903 ], [ -117.133880466773334, 32.70435830080018 ], [ -117.133853517314819, 32.704297828373328 ] ], [ [ -117.13583879409272, 32.704494363610713 ], [ -117.136234052817727, 32.704078615482494 ] ], [ [ -117.13583879409272, 32.704494363610713 ], [ -117.134266742345517, 32.703398296185391 ], [ -117.134149961358588, 32.703292468273006 ] ], [ [ -117.138677470390547, 32.704426332231378 ], [ -117.138677470390547, 32.704403655093408 ] ], [ [ -117.138677470390547, 32.704403655093408 ], [ -117.139063745962716, 32.704010583786193 ] ], [ [ -117.138677470390547, 32.704403655093408 ], [ -117.138524756792236, 32.704320505538199 ], [ -117.137015587114917, 32.703269790846882 ] ], [ [ -117.131733493244283, 32.704312946483888 ], [ -117.133853517314819, 32.704297828373328 ] ], [ [ -117.131733493244283, 32.704312946483888 ], [ -117.131077723086889, 32.704312946483888 ] ], [ [ -117.131733493244283, 32.704312946483888 ], [ -117.131733493244283, 32.703783811090567 ] ], [ [ -117.133853517314819, 32.704297828373328 ], [ -117.133871483620496, 32.704267592144546 ], [ -117.133871483620496, 32.703912315688839 ], [ -117.133889449926173, 32.703889638420243 ] ], [ [ -117.140186640067867, 32.704207119656232 ], [ -117.140105791692292, 32.704025701945412 ], [ -117.139629684591696, 32.703693101850952 ], [ -117.139485954146238, 32.703617510747492 ] ], [ [ -117.136234052817727, 32.704078615482494 ], [ -117.136602362084233, 32.703677983635387 ] ], [ [ -117.136234052817727, 32.704078615482494 ], [ -117.134563186389272, 32.702937187934964 ] ], [ [ -117.139063745962716, 32.704010583786193 ], [ -117.139333240547941, 32.703738456482284 ], [ -117.139485954146238, 32.703617510747492 ] ], [ [ -117.139063745962716, 32.704010583786193 ], [ -117.137419828992762, 32.702884273721033 ] ], [ [ -117.133889449926173, 32.703889638420243 ], [ -117.133871483620496, 32.703768692890364 ] ], [ [ -117.131733493244283, 32.703783811090567 ], [ -117.131032807322683, 32.703791370189705 ], [ -117.131005857864167, 32.703768692890364 ] ], [ [ -117.131733493244283, 32.703783811090567 ], [ -117.131724510091445, 32.703254672559595 ] ], [ [ -117.132640791681254, 32.703783811090567 ], [ -117.132137735122157, 32.703783811090567 ] ], [ [ -117.133045033559128, 32.703776251990789 ], [ -117.133871483620496, 32.703768692890364 ] ], [ [ -117.133871483620496, 32.703768692890364 ], [ -117.133871483620496, 32.703609951633631 ], [ -117.133961315148909, 32.70332270483221 ] ], [ [ -117.136629311542762, 32.703677983635387 ], [ -117.136602362084233, 32.703677983635387 ] ], [ [ -117.136602362084233, 32.703677983635387 ], [ -117.136323884346169, 32.703458769221832 ], [ -117.135299804922269, 32.702748208455453 ], [ -117.135209973393856, 32.702725530891016 ] ], [ [ -117.136629311542762, 32.703677983635387 ], [ -117.137015587114917, 32.703269790846882 ] ], [ [ -117.139485954146238, 32.703617510747492 ], [ -117.139485954146238, 32.703579715171756 ] ], [ [ -117.139485954146238, 32.703579715171756 ], [ -117.139836297107067, 32.703231995123865 ], [ -117.139872229718435, 32.703148844476893 ] ], [ [ -117.139485954146238, 32.703579715171756 ], [ -117.138309161124042, 32.70278600438337 ], [ -117.138048649691655, 32.702733090079803 ] ], [ [ -117.140186640067867, 32.703375618786154 ], [ -117.140042909622409, 32.703254672559595 ] ], [ [ -117.133961315148909, 32.70332270483221 ], [ -117.134149961358588, 32.703292468273006 ] ], [ [ -117.133961315148909, 32.70332270483221 ], [ -117.133871483620496, 32.703262231703562 ] ], [ [ -117.134149961358588, 32.703292468273006 ], [ -117.13435657387393, 32.703141285323319 ], [ -117.134563186389272, 32.702937187934964 ] ], [ [ -117.137015587114917, 32.703269790846882 ], [ -117.137329997464349, 32.702937187934964 ], [ -117.137419828992762, 32.702884273721033 ] ], [ [ -117.137015587114917, 32.703269790846882 ], [ -117.136296934887639, 32.702778445199066 ], [ -117.13608133921943, 32.702733090079803 ] ], [ [ -117.131077723086889, 32.703269790846882 ], [ -117.131724510091445, 32.703254672559595 ] ], [ [ -117.133871483620496, 32.703262231703562 ], [ -117.131724510091445, 32.703254672559595 ] ], [ [ -117.131724510091445, 32.703254672559595 ], [ -117.131724510091445, 32.702778445199066 ] ], [ [ -117.133871483620496, 32.703262231703562 ], [ -117.133862500467657, 32.70278600438337 ], [ -117.133817584703451, 32.702748208455453 ], [ -117.132703673751138, 32.702725530891016 ] ], [ [ -117.139872229718435, 32.703148844476893 ], [ -117.139935111788319, 32.703133726169114 ], [ -117.14014172430366, 32.702922069591331 ], [ -117.140186640067867, 32.702770886014122 ] ], [ [ -117.139872229718435, 32.703148844476893 ], [ -117.139297307936587, 32.702748208455453 ], [ -117.139216459561013, 32.702733090079803 ] ], [ [ -117.134563186389272, 32.702937187934964 ], [ -117.134563186389272, 32.702831359475738 ] ], [ [ -117.137419828992762, 32.702884273721033 ], [ -117.137428812145629, 32.702838918655559 ], [ -117.137491694215512, 32.702763326828538 ], [ -117.137608475202455, 32.702733090079803 ] ], [ [ -117.134563186389272, 32.702831359475738 ], [ -117.13484166412735, 32.702733090079803 ] ], [ [ -117.134563186389272, 32.702831359475738 ], [ -117.13414097820575, 32.702725530891016 ] ], [ [ -117.131724510091445, 32.702778445199066 ], [ -117.131679594327238, 32.702748208455453 ], [ -117.131014841017006, 32.702755767642309 ] ] ] } }
]
}
