{
"type": "FeatureCollection",
"name": "gee_batch_0_29.45913_-98.48881",
"crs": { "type": "name", "properties": { "name": "urn:ogc:def:crs:OGC:1.3:CRS84" } },
"features": [
{ "type": "Feature", "properties": { "weight": 82.89949493661166, "nodes": "0-5" }, "geometry": { "type": "LineString", "coordinates": [ [ -98.487044887733106, 29.463130243463908 ], [ -98.486990988816061, 29.463083315154144 ], [ -98.486999971968913, 29.462504530881759 ] ] } },
{ "type": "Feature", "properties": { "weight": 251.54977647648457, "nodes": "1-4" }, "geometry": { "type": "LineString", "coordinates": [ [ -98.493378010486154, 29.463083315154144 ], [ -98.493360044180477, 29.463098957926473 ], [ -98.491823925044628, 29.463091136540609 ], [ -98.491805958738937, 29.463075493767072 ], [ -98.49178799243326, 29.462903423098911 ], [ -98.49178799243326, 29.462504530881759 ] ] } },
{ "type": "Feature", "properties": { "weight": 161.31370849898474, "nodes": "2-3" }, "geometry": { "type": "LineString", "coordinates": [ [ -98.491976638642925, 29.462559280886804 ], [ -98.492201217463958, 29.46257492373995 ], [ -98.492443762590668, 29.462559280886804 ], [ -98.493063600136708, 29.462567102313677 ], [ -98.493395976791831, 29.462543638031232 ] ] } },
{ "type": "Feature", "properties": { "weight": 536.96399003885767, "nodes": "4-5" }, "geometry": { "type": "LineString", "coordinates": [ [ -98.49178799243326, 29.462504530881759 ], [ -98.489892547183771, 29.462488888017742 ], [ -98.486999971968913, 29.462504530881759 ] ] } },
{ "type": "Feature", "properties": { "weight": 55.650281539872879, "nodes": "4-9" }, "geometry": { "type": "LineString", "coordinates": [ [ -98.49178799243326, 29.462504530881759 ], [ -98.491805958738937, 29.462074351242318 ] ] } },
{ "type": "Feature", "properties": { "weight": 159.07106781186548, "nodes": "5-7" }, "geometry": { "type": "LineString", "coordinates": [ [ -98.486999971968913, 29.462504530881759 ], [ -98.485975892545014, 29.462520173743354 ], [ -98.485589616972831, 29.462496709450051 ] ] } },
{ "type": "Feature", "properties": { "weight": 120.82842712474618, "nodes": "5-14" }, "geometry": { "type": "LineString", "coordinates": [ [ -98.486999971968913, 29.462504530881759 ], [ -98.486999971968913, 29.461565954770695 ] ] } },
{ "type": "Feature", "properties": { "weight": 153.72792206135784, "nodes": "6-7" }, "geometry": { "type": "LineString", "coordinates": [ [ -98.484242144046661, 29.462504530881759 ], [ -98.484260110352338, 29.462488888017742 ], [ -98.48457452070177, 29.462512352312856 ], [ -98.485589616972831, 29.462496709450051 ] ] } },
{ "type": "Feature", "properties": { "weight": 76.87005768508881, "nodes": "7-11" }, "geometry": { "type": "LineString", "coordinates": [ [ -98.485589616972831, 29.462496709450051 ], [ -98.485571650667154, 29.46215256585792 ], [ -98.485517751750109, 29.462035243911892 ], [ -98.485436903374534, 29.461957029205809 ] ] } },
{ "type": "Feature", "properties": { "weight": 79.325901807804513, "nodes": "8-11" }, "geometry": { "type": "LineString", "coordinates": [ [ -98.484870964745539, 29.46225424476804 ], [ -98.485212324553515, 29.462027422444002 ], [ -98.485320122387606, 29.461980493623969 ], [ -98.485436903374534, 29.461957029205809 ] ] } },
{ "type": "Feature", "properties": { "weight": 176.24264068711926, "nodes": "9-10" }, "geometry": { "type": "LineString", "coordinates": [ [ -98.491805958738937, 29.462074351242318 ], [ -98.493378010486154, 29.462066529777438 ] ] } },
{ "type": "Feature", "properties": { "weight": 64.828427124746185, "nodes": "9-13" }, "geometry": { "type": "LineString", "coordinates": [ [ -98.491805958738937, 29.462074351242318 ], [ -98.49178799243326, 29.461573776274175 ] ] } },
{ "type": "Feature", "properties": { "weight": 66.426406871192839, "nodes": "11-12" }, "geometry": { "type": "LineString", "coordinates": [ [ -98.485436903374534, 29.461957029205809 ], [ -98.485490802291579, 29.461878814439416 ], [ -98.4858860610166, 29.461691098753992 ] ] } },
{ "type": "Feature", "properties": { "weight": 535.07106781186553, "nodes": "13-14" }, "geometry": { "type": "LineString", "coordinates": [ [ -98.49178799243326, 29.461573776274175 ], [ -98.487440146458113, 29.461581597777052 ], [ -98.486999971968913, 29.461565954770695 ] ] } },
{ "type": "Feature", "properties": { "weight": 62.656854249492383, "nodes": "13-17" }, "geometry": { "type": "LineString", "coordinates": [ [ -98.49178799243326, 29.461573776274175 ], [ -98.491805958738937, 29.461096663458186 ] ] } },
{ "type": "Feature", "properties": { "weight": 8.4142135623730958, "nodes": "14-15" }, "geometry": { "type": "LineString", "coordinates": [ [ -98.486999971968913, 29.461565954770695 ], [ -98.486990988816061, 29.461503382721144 ] ] } },
{ "type": "Feature", "properties": { "weight": 32.828427124746192, "nodes": "15-16" }, "geometry": { "type": "LineString", "coordinates": [ [ -98.486990988816061, 29.461503382721144 ], [ -98.486703527925144, 29.461487739702729 ] ] } },
{ "type": "Feature", "properties": { "weight": 103.65685424949238, "nodes": "15-19" }, "geometry": { "type": "LineString", "coordinates": [ [ -98.486990988816061, 29.461503382721144 ], [ -98.486990988816061, 29.460705585705799 ] ] } },
{ "type": "Feature", "properties": { "weight": 174.82842712474618, "nodes": "17-18" }, "geometry": { "type": "LineString", "coordinates": [ [ -98.493369027333316, 29.461096663458186 ], [ -98.491805958738937, 29.461096663458186 ] ] } },
{ "type": "Feature", "properties": { "weight": 52.828427124746185, "nodes": "17-21" }, "geometry": { "type": "LineString", "coordinates": [ [ -98.491805958738937, 29.461096663458186 ], [ -98.49178799243326, 29.46068994256434 ] ] } },
{ "type": "Feature", "properties": { "weight": 537.31370849898474, "nodes": "19-21" }, "geometry": { "type": "LineString", "coordinates": [ [ -98.486990988816061, 29.460705585705799 ], [ -98.489057113969537, 29.460713407275627 ], [ -98.49178799243326, 29.46068994256434 ] ] } },
{ "type": "Feature", "properties": { "weight": 40.242640687119277, "nodes": "19-23" }, "geometry": { "type": "LineString", "coordinates": [ [ -98.486990988816061, 29.460705585705799 ], [ -98.486990988816061, 29.460431830381971 ], [ -98.486964039357545, 29.460400544012202 ] ] } },
{ "type": "Feature", "properties": { "weight": 58.426406871192846, "nodes": "20-23" }, "geometry": { "type": "LineString", "coordinates": [ [ -98.486631662702408, 29.460705585705799 ], [ -98.486847258370602, 29.460447473563235 ], [ -98.486964039357545, 29.460400544012202 ] ] } },
{ "type": "Feature", "properties": { "weight": 94.236067977499786, "nodes": "21-25" }, "geometry": { "type": "LineString", "coordinates": [ [ -98.49178799243326, 29.46068994256434 ], [ -98.491796975586098, 29.459954712194488 ] ] } },
{ "type": "Feature", "properties": { "weight": 398.09545442950503, "nodes": "22-33" }, "geometry": { "type": "LineString", "coordinates": [ [ -98.486128606143311, 29.460549154182658 ], [ -98.485877077863762, 29.460650834700147 ], [ -98.484933846815423, 29.460869838545456 ], [ -98.484745200605772, 29.460862016987697 ], [ -98.48464638592452, 29.460791622940697 ], [ -98.484592487007461, 29.460666477847628 ], [ -98.484565537548932, 29.460416187198298 ], [ -98.484556554396093, 29.459172546376269 ] ] } },
{ "type": "Feature", "properties": { "weight": 67.656854249492383, "nodes": "23-28" }, "geometry": { "type": "LineString", "coordinates": [ [ -98.486964039357545, 29.460400544012202 ], [ -98.486990988816061, 29.460111144634389 ], [ -98.486982005663222, 29.459884317517826 ] ] } },
{ "type": "Feature", "properties": { "weight": 339.34876634970789, "nodes": "24-25" }, "geometry": { "type": "LineString", "coordinates": [ [ -98.488832535148504, 29.460072036547032 ], [ -98.489111012886582, 29.460025106822297 ], [ -98.489641018904209, 29.459985998701768 ], [ -98.490018311323539, 29.460001641951788 ], [ -98.490224923838895, 29.459970355449332 ], [ -98.491482565236666, 29.45997817707585 ], [ -98.491796975586098, 29.459954712194488 ] ] } },
{ "type": "Feature", "properties": { "weight": 174.41421356237311, "nodes": "25-26" }, "geometry": { "type": "LineString", "coordinates": [ [ -98.491796975586098, 29.459954712194488 ], [ -98.493360044180477, 29.459946890566158 ] ] } },
{ "type": "Feature", "properties": { "weight": 76.828427124746185, "nodes": "25-29" }, "geometry": { "type": "LineString", "coordinates": [ [ -98.491796975586098, 29.459954712194488 ], [ -98.491796975586098, 29.459360266722683 ] ] } },
{ "type": "Feature", "properties": { "weight": 81.89949493661166, "nodes": "27-28" }, "geometry": { "type": "LineString", "coordinates": [ [ -98.486272336588755, 29.459939068937224 ], [ -98.486559797479686, 29.459892139150977 ], [ -98.486982005663222, 29.459884317517826 ] ] } },
{ "type": "Feature", "properties": { "weight": 159.89949493661166, "nodes": "28-37" }, "geometry": { "type": "LineString", "coordinates": [ [ -98.486982005663222, 29.459884317517826 ], [ -98.487008955121752, 29.4586563136324 ] ] } },
{ "type": "Feature", "properties": { "weight": 76.656854249492383, "nodes": "29-30" }, "geometry": { "type": "LineString", "coordinates": [ [ -98.491796975586098, 29.459360266722683 ], [ -98.491123239123013, 29.459344623373756 ] ] } },
{ "type": "Feature", "properties": { "weight": 13.650281539872886, "nodes": "29-32" }, "geometry": { "type": "LineString", "coordinates": [ [ -98.491796975586098, 29.459360266722683 ], [ -98.491814941891775, 29.459258584911503 ] ] } },
{ "type": "Feature", "properties": { "weight": 179.14213562373095, "nodes": "31-32" }, "geometry": { "type": "LineString", "coordinates": [ [ -98.493386993638993, 29.459274228273699 ], [ -98.492551560424758, 29.459282049953899 ], [ -98.491985621795763, 29.459250763229495 ], [ -98.491814941891775, 29.459258584911503 ] ] } },
{ "type": "Feature", "properties": { "weight": 76.242640687119291, "nodes": "32-36" }, "geometry": { "type": "LineString", "coordinates": [ [ -98.491814941891775, 29.459258584911503 ], [ -98.491796975586098, 29.45918036806431 ], [ -98.491805958738937, 29.458671957087482 ] ] } },
{ "type": "Feature", "properties": { "weight": 35.242640687119291, "nodes": "33-34" }, "geometry": { "type": "LineString", "coordinates": [ [ -98.484251127199499, 29.45918036806431 ], [ -98.484556554396093, 29.459172546376269 ] ] } },
{ "type": "Feature", "properties": { "weight": 94.568542494923804, "nodes": "33-40" }, "geometry": { "type": "LineString", "coordinates": [ [ -98.484556554396093, 29.459172546376269 ], [ -98.484592487007461, 29.459086507768067 ], [ -98.484888931051216, 29.458820569790419 ], [ -98.484906897356908, 29.458781461205486 ], [ -98.484888931051216, 29.458570274586339 ] ] } },
{ "type": "Feature", "properties": { "weight": 180.89949493661169, "nodes": "35-36" }, "geometry": { "type": "LineString", "coordinates": [ [ -98.493395976791831, 29.458703243990399 ], [ -98.493360044180477, 29.458664135360237 ], [ -98.492839021315675, 29.458679778814115 ], [ -98.491805958738937, 29.458671957087482 ] ] } },
{ "type": "Feature", "properties": { "weight": 11.828427124746192, "nodes": "36-39" }, "geometry": { "type": "LineString", "coordinates": [ [ -98.491805958738937, 29.458671957087482 ], [ -98.49178799243326, 29.458585918054688 ] ] } },
{ "type": "Feature", "properties": { "weight": 62.485281374238568, "nodes": "37-38" }, "geometry": { "type": "LineString", "coordinates": [ [ -98.487008955121752, 29.4586563136324 ], [ -98.486541831174009, 29.458648491903954 ], [ -98.486469965951272, 29.458625026715008 ] ] } },
{ "type": "Feature", "properties": { "weight": 51.242640687119291, "nodes": "37-44" }, "geometry": { "type": "LineString", "coordinates": [ [ -98.487008955121752, 29.4586563136324 ], [ -98.487035904580267, 29.458265226471362 ] ] } },
{ "type": "Feature", "properties": { "weight": 150.53910524340097, "nodes": "39-45" }, "geometry": { "type": "LineString", "coordinates": [ [ -98.49178799243326, 29.458585918054688 ], [ -98.491644261987801, 29.458554631115575 ], [ -98.491464598930989, 29.458452948496827 ], [ -98.490997474983246, 29.45824958295356 ], [ -98.49087171084345, 29.458210474148501 ], [ -98.49062916571674, 29.458179187093599 ] ] } },
{ "type": "Feature", "properties": { "weight": 105.24264068711929, "nodes": "39-48" }, "geometry": { "type": "LineString", "coordinates": [ [ -98.49178799243326, 29.458585918054688 ], [ -98.491796975586098, 29.457795919887889 ], [ -98.491779009280421, 29.457772454501722 ] ] } },
{ "type": "Feature", "properties": { "weight": 46.041630560342611, "nodes": "40-42" }, "geometry": { "type": "LineString", "coordinates": [ [ -98.484888931051216, 29.458570274586339 ], [ -98.485239274012031, 29.458437305007976 ] ] } },
{ "type": "Feature", "properties": { "weight": 248.08888171988553, "nodes": "40-54" }, "geometry": { "type": "LineString", "coordinates": [ [ -98.484888931051216, 29.458570274586339 ], [ -98.484852998439862, 29.458546809379293 ], [ -98.484817065828494, 29.458468591983269 ], [ -98.484655369077359, 29.458014929897033 ], [ -98.484592487007461, 29.457678592902781 ], [ -98.484610453313138, 29.457467403987632 ], [ -98.484664352230197, 29.457248392796426 ], [ -98.484826048981333, 29.456943340706459 ], [ -98.484852998439862, 29.456833834604275 ] ] } },
{ "type": "Feature", "properties": { "weight": 116.08326112068524, "nodes": "41-43" }, "geometry": { "type": "LineString", "coordinates": [ [ -98.485984875697852, 29.458523344166817 ], [ -98.485939959933646, 29.458515522428115 ], [ -98.48577826318251, 29.45841383977017 ], [ -98.485535718055786, 29.458319978764681 ], [ -98.48526622347056, 29.458280869986751 ], [ -98.485131476177926, 29.458273048229362 ], [ -98.485068594108043, 29.458288691743544 ] ] } },
{ "type": "Feature", "properties": { "weight": 407.8700576850888, "nodes": "44-45" }, "geometry": { "type": "LineString", "coordinates": [ [ -98.487035904580267, 29.458265226471362 ], [ -98.488598973174632, 29.458265226471362 ], [ -98.488922366676917, 29.458288691743544 ], [ -98.489560170528648, 29.458241761193751 ], [ -98.490188991227527, 29.45824958295356 ], [ -98.490557300494018, 29.458218295910719 ], [ -98.49062916571674, 29.458179187093599 ] ] } },
{ "type": "Feature", "properties": { "weight": 12.414213562373096, "nodes": "44-46" }, "geometry": { "type": "LineString", "coordinates": [ [ -98.487035904580267, 29.458265226471362 ], [ -98.487026921427429, 29.458171365328365 ] ] } },
{ "type": "Feature", "properties": { "weight": 49.691912100215504, "nodes": "45-47" }, "geometry": { "type": "LineString", "coordinates": [ [ -98.49062916571674, 29.458179187093599 ], [ -98.490557300494018, 29.458022751674324 ], [ -98.490476452118443, 29.457928890306974 ], [ -98.490458485812766, 29.457850672434503 ] ] } },
{ "type": "Feature", "properties": { "weight": 249.46298679765215, "nodes": "46-53" }, "geometry": { "type": "LineString", "coordinates": [ [ -98.487026921427429, 29.458171365328365 ], [ -98.486901157287647, 29.458163543562527 ], [ -98.486748443689351, 29.458093147642852 ], [ -98.486541831174009, 29.457983642781812 ], [ -98.486434033339918, 29.457889781378277 ], [ -98.486128606143311, 29.457529978526846 ], [ -98.48577826318251, 29.457068490392807 ], [ -98.485715381112612, 29.456951162566387 ], [ -98.48570639795976, 29.456833834604275 ] ] } },
{ "type": "Feature", "properties": { "weight": 172.82842712474618, "nodes": "46-55" }, "geometry": { "type": "LineString", "coordinates": [ [ -98.487026921427429, 29.458171365328365 ], [ -98.487044887733106, 29.456826012735302 ] ] } },
{ "type": "Feature", "properties": { "weight": 151.97056274847716, "nodes": "47-48" }, "geometry": { "type": "LineString", "coordinates": [ [ -98.490458485812766, 29.457850672434503 ], [ -98.49052136788265, 29.457819385268635 ], [ -98.491374767402561, 29.457819385268635 ], [ -98.491680194599169, 29.457795919887889 ], [ -98.491779009280421, 29.457772454501722 ] ] } },
{ "type": "Feature", "properties": { "weight": 156.26045459513932, "nodes": "47-51" }, "geometry": { "type": "LineString", "coordinates": [ [ -98.490458485812766, 29.457850672434503 ], [ -98.490359671131515, 29.457788098093108 ], [ -98.490135092310481, 29.457514334895656 ], [ -98.489937462947978, 29.457232749121822 ], [ -98.48990153033661, 29.457123243332028 ], [ -98.48990153033661, 29.456841656472633 ] ] } },
{ "type": "Feature", "properties": { "weight": 7.2426406871192848, "nodes": "48-49" }, "geometry": { "type": "LineString", "coordinates": [ [ -98.491779009280421, 29.457772454501722 ], [ -98.491805958738937, 29.457725523713108 ] ] } },
{ "type": "Feature", "properties": { "weight": 176.48528137423858, "nodes": "49-50" }, "geometry": { "type": "LineString", "coordinates": [ [ -98.491805958738937, 29.457725523713108 ], [ -98.49200358810144, 29.457733345512718 ], [ -98.493369027333316, 29.45769423650864 ] ] } },
{ "type": "Feature", "properties": { "weight": 114.0, "nodes": "49-52" }, "geometry": { "type": "LineString", "coordinates": [ [ -98.491805958738937, 29.457725523713108 ], [ -98.491805958738937, 29.456833834604275 ] ] } },
{ "type": "Feature", "properties": { "weight": 214.07106781186548, "nodes": "51-52" }, "geometry": { "type": "LineString", "coordinates": [ [ -98.48990153033661, 29.456841656472633 ], [ -98.491599346223595, 29.456849478340395 ], [ -98.491805958738937, 29.456833834604275 ] ] } },
{ "type": "Feature", "properties": { "weight": 319.65685424949237, "nodes": "51-55" }, "geometry": { "type": "LineString", "coordinates": [ [ -98.48990153033661, 29.456841656472633 ], [ -98.487044887733106, 29.456826012735302 ] ] } },
{ "type": "Feature", "properties": { "weight": 114.44927141309621, "nodes": "51-64" }, "geometry": { "type": "LineString", "coordinates": [ [ -98.48990153033661, 29.456841656472633 ], [ -98.489892547183771, 29.456724328383871 ], [ -98.489784749349681, 29.456262836584887 ], [ -98.489757799891152, 29.455996891204894 ] ] } },
{ "type": "Feature", "properties": { "weight": 5.4142135623730949, "nodes": "52-58" }, "geometry": { "type": "LineString", "coordinates": [ [ -98.491805958738937, 29.456833834604275 ], [ -98.491814941891775, 29.456794725253406 ] ] } },
{ "type": "Feature", "properties": { "weight": 151.07106781186548, "nodes": "53-55" }, "geometry": { "type": "LineString", "coordinates": [ [ -98.48570639795976, 29.456833834604275 ], [ -98.487044887733106, 29.456826012735302 ] ] } },
{ "type": "Feature", "properties": { "weight": 77.656854249492369, "nodes": "53-59" }, "geometry": { "type": "LineString", "coordinates": [ [ -98.48570639795976, 29.456833834604275 ], [ -98.485050627802366, 29.456818190865736 ], [ -98.485023678343836, 29.456802547124788 ] ] } },
{ "type": "Feature", "properties": { "weight": 20.478708664619074, "nodes": "54-59" }, "geometry": { "type": "LineString", "coordinates": [ [ -98.484852998439862, 29.456833834604275 ], [ -98.485023678343836, 29.456802547124788 ] ] } },
{ "type": "Feature", "properties": { "weight": 66.650281539872879, "nodes": "54-56" }, "geometry": { "type": "LineString", "coordinates": [ [ -98.484852998439862, 29.456833834604275 ], [ -98.484260110352338, 29.456833834604275 ] ] } },
{ "type": "Feature", "properties": { "weight": 94.87005768508881, "nodes": "55-62" }, "geometry": { "type": "LineString", "coordinates": [ [ -98.487044887733106, 29.456826012735302 ], [ -98.48701793827459, 29.456661753347717 ], [ -98.486901157287647, 29.456403630915595 ], [ -98.486874207829118, 29.456145507826715 ] ] } },
{ "type": "Feature", "properties": { "weight": 181.72792206135784, "nodes": "57-58" }, "geometry": { "type": "LineString", "coordinates": [ [ -98.493404959944669, 29.456810368995562 ], [ -98.493369027333316, 29.456771259635655 ], [ -98.491814941891775, 29.456794725253406 ] ] } },
{ "type": "Feature", "properties": { "weight": 65.414213562373092, "nodes": "58-61" }, "geometry": { "type": "LineString", "coordinates": [ [ -98.491814941891775, 29.456794725253406 ], [ -98.491805958738937, 29.456286302320244 ] ] } },
{ "type": "Feature", "properties": { "weight": 101.31932909818502, "nodes": "59-63" }, "geometry": { "type": "LineString", "coordinates": [ [ -98.485023678343836, 29.456802547124788 ], [ -98.485059610955204, 29.456700862749837 ], [ -98.48526622347056, 29.456419274718051 ], [ -98.485311139234767, 29.456309768050168 ], [ -98.485338088693283, 29.456122042058798 ] ] } },
{ "type": "Feature", "properties": { "weight": 45.414213562373092, "nodes": "60-61" }, "geometry": { "type": "LineString", "coordinates": [ [ -98.492210200616796, 29.456294124230819 ], [ -98.491805958738937, 29.456286302320244 ] ] } },
{ "type": "Feature", "properties": { "weight": 61.828427124746192, "nodes": "61-66" }, "geometry": { "type": "LineString", "coordinates": [ [ -98.491805958738937, 29.456286302320244 ], [ -98.491805958738937, 29.455809164634573 ] ] } },
{ "type": "Feature", "properties": { "weight": 57.248261286319547, "nodes": "62-68" }, "geometry": { "type": "LineString", "coordinates": [ [ -98.486874207829118, 29.456145507826715 ], [ -98.486928106746177, 29.45611422013495 ], [ -98.48712573610868, 29.455910849903283 ], [ -98.487161668720049, 29.455809164634573 ] ] } },
{ "type": "Feature", "properties": { "weight": 57.076688411065732, "nodes": "62-65" }, "geometry": { "type": "LineString", "coordinates": [ [ -98.486874207829118, 29.456145507826715 ], [ -98.486829292064911, 29.456129863982042 ], [ -98.486568780632524, 29.455910849903283 ], [ -98.486550814326847, 29.455832630474866 ] ] } },
{ "type": "Feature", "properties": { "weight": 70.154328932550698, "nodes": "63-71" }, "geometry": { "type": "LineString", "coordinates": [ [ -98.485338088693283, 29.456122042058798 ], [ -98.485418937068857, 29.456090754359796 ], [ -98.485562667514316, 29.455949959594886 ], [ -98.485715381112612, 29.45585609630972 ], [ -98.48577826318251, 29.455777876839086 ] ] } },
{ "type": "Feature", "properties": { "weight": 71.90511553581193, "nodes": "63-72" }, "geometry": { "type": "LineString", "coordinates": [ [ -98.485338088693283, 29.456122042058798 ], [ -98.485302156081914, 29.456098576285456 ], [ -98.48519435824781, 29.455918671842813 ], [ -98.485050627802366, 29.455770054888699 ], [ -98.485023678343836, 29.455676191437096 ] ] } },
{ "type": "Feature", "properties": { "weight": 31.44927141309622, "nodes": "64-67" }, "geometry": { "type": "LineString", "coordinates": [ [ -98.489757799891152, 29.455996891204894 ], [ -98.489865597725242, 29.455895206022429 ], [ -98.489910513489448, 29.455809164634573 ] ] } },
{ "type": "Feature", "properties": { "weight": 49.348766349707873, "nodes": "64-70" }, "geometry": { "type": "LineString", "coordinates": [ [ -98.489757799891152, 29.455996891204894 ], [ -98.489676951515577, 29.455981247337302 ], [ -98.48960508629284, 29.455942137657768 ], [ -98.489479322153073, 29.455863918253474 ], [ -98.489425423236028, 29.455793520738037 ] ] } },
{ "type": "Feature", "properties": { "weight": 70.071067811865476, "nodes": "65-68" }, "geometry": { "type": "LineString", "coordinates": [ [ -98.486550814326847, 29.455832630474866 ], [ -98.486595730091054, 29.455809164634573 ], [ -98.486766409995028, 29.455801342686605 ], [ -98.487161668720049, 29.455809164634573 ] ] } },
{ "type": "Feature", "properties": { "weight": 89.549776476484553, "nodes": "65-71" }, "geometry": { "type": "LineString", "coordinates": [ [ -98.486550814326847, 29.455832630474866 ], [ -98.486182505060356, 29.455785698788862 ], [ -98.48577826318251, 29.455777876839086 ] ] } },
{ "type": "Feature", "properties": { "weight": 176.48528137423858, "nodes": "66-69" }, "geometry": { "type": "LineString", "coordinates": [ [ -98.493369027333316, 29.455809164634573 ], [ -98.491805958738937, 29.455809164634573 ] ] } },
{ "type": "Feature", "properties": { "weight": 224.07668841106573, "nodes": "66-67" }, "geometry": { "type": "LineString", "coordinates": [ [ -98.489910513489448, 29.455809164634573 ], [ -98.49011712600479, 29.455816986581937 ], [ -98.490404586895721, 29.455793520738037 ], [ -98.490898660301994, 29.455699657308141 ], [ -98.491069340205968, 29.455707479263946 ], [ -98.491392733708238, 29.455770054888699 ], [ -98.491805958738937, 29.455809164634573 ] ] } },
{ "type": "Feature", "properties": { "weight": 61.0, "nodes": "66-76" }, "geometry": { "type": "LineString", "coordinates": [ [ -98.491805958738937, 29.455809164634573 ], [ -98.491805958738937, 29.455332024704891 ] ] } },
{ "type": "Feature", "properties": { "weight": 43.170620764834581, "nodes": "67-75" }, "geometry": { "type": "LineString", "coordinates": [ [ -98.489910513489448, 29.455809164634573 ], [ -98.489883564030933, 29.455762232937715 ], [ -98.489757799891152, 29.455652725560622 ], [ -98.48963203575137, 29.455605793791399 ] ] } },
{ "type": "Feature", "properties": { "weight": 262.59140703682721, "nodes": "68-70" }, "geometry": { "type": "LineString", "coordinates": [ [ -98.487161668720049, 29.455809164634573 ], [ -98.487655742126307, 29.455746589033943 ], [ -98.488086933462696, 29.455715301219154 ], [ -98.488473209034851, 29.455723123173751 ], [ -98.488697787855898, 29.455754410986135 ], [ -98.488868467759872, 29.455801342686605 ], [ -98.488994231899653, 29.455809164634573 ], [ -98.489326608554776, 29.455809164634573 ], [ -98.489425423236028, 29.455793520738037 ] ] } },
{ "type": "Feature", "properties": { "weight": 35.106125662588596, "nodes": "70-75" }, "geometry": { "type": "LineString", "coordinates": [ [ -98.489425423236028, 29.455793520738037 ], [ -98.489470339000235, 29.455730945127755 ], [ -98.48963203575137, 29.455605793791399 ] ] } },
{ "type": "Feature", "properties": { "weight": 90.620844288350028, "nodes": "71-72" }, "geometry": { "type": "LineString", "coordinates": [ [ -98.48577826318251, 29.455777876839086 ], [ -98.485742330571128, 29.455738767081144 ], [ -98.485445886527373, 29.455684013394709 ], [ -98.485320122387606, 29.455668369478875 ], [ -98.485023678343836, 29.455676191437096 ] ] } },
{ "type": "Feature", "properties": { "weight": 11.65685424949238, "nodes": "72-74" }, "geometry": { "type": "LineString", "coordinates": [ [ -98.485023678343836, 29.455676191437096 ], [ -98.484933846815423, 29.455644903600593 ] ] } },
{ "type": "Feature", "properties": { "weight": 79.899494936611674, "nodes": "73-74" }, "geometry": { "type": "LineString", "coordinates": [ [ -98.484242144046661, 29.455668369478875 ], [ -98.484269093505176, 29.455644903600593 ], [ -98.484529604937578, 29.455660547520047 ], [ -98.484933846815423, 29.455644903600593 ] ] } },
{ "type": "Feature", "properties": { "weight": 65.656854249492383, "nodes": "74-79" }, "geometry": { "type": "LineString", "coordinates": [ [ -98.484933846815423, 29.455644903600593 ], [ -98.484915880509746, 29.455167762898377 ], [ -98.484888931051216, 29.455152118902934 ] ] } },
{ "type": "Feature", "properties": { "weight": 57.656854249492383, "nodes": "75-78" }, "geometry": { "type": "LineString", "coordinates": [ [ -98.48963203575137, 29.455605793791399 ], [ -98.48960508629284, 29.455457176378957 ], [ -98.489596103140002, 29.455167762898377 ] ] } },
{ "type": "Feature", "properties": { "weight": 179.07106781186548, "nodes": "76-77" }, "geometry": { "type": "LineString", "coordinates": [ [ -98.491805958738937, 29.455332024704891 ], [ -98.493395976791831, 29.455324202720128 ] ] } },
{ "type": "Feature", "properties": { "weight": 266.89949493661163, "nodes": "76-78" }, "geometry": { "type": "LineString", "coordinates": [ [ -98.491805958738937, 29.455332024704891 ], [ -98.491805958738937, 29.455191228887021 ], [ -98.49176104297473, 29.455167762898377 ], [ -98.489596103140002, 29.455167762898377 ] ] } },
{ "type": "Feature", "properties": { "weight": 268.556349186104, "nodes": "78-80" }, "geometry": { "type": "LineString", "coordinates": [ [ -98.489596103140002, 29.455167762898377 ], [ -98.488958299288285, 29.455152118902934 ], [ -98.487817438877457, 29.455159940900959 ], [ -98.487224550789932, 29.455128652905248 ] ] } }
]
}
