{
"type": "FeatureCollection",
"name": "gee_batch_0_30.30818_-97.74248",
"crs": { "type": "name", "properties": { "name": "urn:ogc:def:crs:OGC:1.3:CRS84" } },
"features": [
{ "type": "Feature", "properties": { "weight": 29.798989873223331, "nodes": "0-1" }, "geometry": { "type": "LineString", "coordinates": [ [ -97.747071090440031, 30.312030931603815 ], [ -97.747044140981515, 30.311976646152367 ], [ -97.746954309453102, 30.311930115741486 ], [ -97.746909393688895, 30.311875830234204 ] ] } }
]
}
