{
"type": "FeatureCollection",
"name": "gee_batch_6_32.73567_-96.74713",
"crs": { "type": "name", "properties": { "name": "urn:ogc:def:crs:OGC:1.3:CRS84" } },
"features": [
{ "type": "Feature", "properties": { "name": "road_network" }, "geometry": { "type": "MultiLineString", "coordinates": [ [ [ -96.745674457245286, 32.739536270135915 ], [ -96.745773271926552, 32.739506045853283 ], [ -96.745854120302113, 32.73944559725728 ], [ -96.746572772529419, 32.738795772260517 ], [ -96.746896166031704, 32.738621981051296 ], [ -96.747066845935677, 32.738553975703255 ], [ -96.747426172049316, 32.73847085798517 ], [ -96.747794481315808, 32.738433077178591 ], [ -96.749393482521555, 32.738387740189566 ] ], [ [ -96.749366533063025, 32.739513601924905 ], [ -96.749384499368702, 32.73944559725728 ], [ -96.749366533063025, 32.738894001924507 ], [ -96.749393482521555, 32.738705098628429 ], [ -96.749393482521555, 32.738387740189566 ] ], [ [ -96.75068705653068, 32.739128241455518 ], [ -96.75068705653068, 32.738342403177469 ] ], [ [ -96.749393482521555, 32.738387740189566 ], [ -96.749501280355645, 32.738372627854758 ] ], [ [ -96.749501280355645, 32.738372627854758 ], [ -96.749698909718148, 32.738380184022482 ], [ -96.750157050513039, 32.738349959347758 ], [ -96.75068705653068, 32.738342403177469 ] ], [ [ -96.749501280355645, 32.738372627854758 ], [ -96.749483314049954, 32.738357515517393 ], [ -96.749483314049954, 32.738191279637228 ] ], [ [ -96.75068705653068, 32.738342403177469 ], [ -96.750830786976138, 32.738334847006541 ] ], [ [ -96.750830786976138, 32.738334847006541 ], [ -96.751621304426166, 32.73831217848992 ], [ -96.75168418649605, 32.738266841439376 ], [ -96.751711135954579, 32.738213948184601 ], [ -96.751702152801741, 32.737707682586311 ], [ -96.751675203343211, 32.73763967654056 ], [ -96.751639270731843, 32.737609451614681 ] ], [ [ -96.750830786976138, 32.738334847006541 ], [ -96.750830786976138, 32.737722795033875 ], [ -96.750848753281829, 32.737624564078907 ], [ -96.750893669046036, 32.737579226678548 ] ], [ [ -96.751639270731843, 32.737609451614681 ], [ -96.751504523439237, 32.737594339147897 ], [ -96.751091298408539, 32.737601895381609 ], [ -96.750893669046036, 32.737579226678548 ] ], [ [ -96.750893669046036, 32.737579226678548 ], [ -96.75092960165739, 32.737480995565328 ], [ -96.750920618504551, 32.737276976753435 ], [ -96.750947567963081, 32.736959613228827 ] ], [ [ -96.749501280355645, 32.737050288636894 ], [ -96.749501280355645, 32.736808487343694 ] ], [ [ -96.75168418649605, 32.736959613228827 ], [ -96.750947567963081, 32.736959613228827 ] ], [ [ -96.750947567963081, 32.736959613228827 ], [ -96.750965534268758, 32.736347551811278 ] ], [ [ -96.750965534268758, 32.736347551811278 ], [ -96.751675203343211, 32.736309770104548 ] ], [ [ -96.750965534268758, 32.736347551811278 ], [ -96.750947567963081, 32.736309770104548 ], [ -96.750947567963081, 32.735750598972295 ], [ -96.750965534268758, 32.735727929798337 ] ], [ [ -96.750965534268758, 32.735727929798337 ], [ -96.751423675063663, 32.735720373405734 ], [ -96.751702152801741, 32.735690147828933 ] ], [ [ -96.750965534268758, 32.735727929798337 ], [ -96.75095655111592, 32.735622140243649 ], [ -96.750974517421596, 32.735539019791162 ], [ -96.751046382644333, 32.735440786429187 ], [ -96.751181129936938, 32.73534255295894 ], [ -96.751495540286385, 32.735214093642185 ], [ -96.751675203343211, 32.735100747032448 ], [ -96.751720119107418, 32.735047851898585 ] ] ] } }
]
}
