{
"type": "FeatureCollection",
"name": "gee_batch_3_40.75852_-74.04469",
"crs": { "type": "name", "properties": { "name": "urn:ogc:def:crs:OGC:1.3:CRS84" } },
"features": [
{ "type": "Feature", "properties": { "name": "road_network" }, "geometry": { "type": "MultiLineString", "coordinates": [ [ [ -74.048680362349131, 40.762003368485615 ], [ -74.048788160183221, 40.761969348009771 ], [ -74.048913924322989, 40.761806049483319 ], [ -74.049237317825288, 40.761350172306969 ], [ -74.049282233589494, 40.761166459725146 ] ], [ [ -74.04629084369337, 40.762003368485615 ], [ -74.046443557291667, 40.761935327516504 ], [ -74.04656033827861, 40.761778833023236 ], [ -74.046569321431448, 40.761731204191285 ], [ -74.046614237195655, 40.761697183576125 ] ], [ [ -74.045626090383109, 40.762003368485615 ], [ -74.045105067518321, 40.761935327516504 ], [ -74.044997269684231, 40.761799245369339 ] ], [ [ -74.043694712522267, 40.762003368485615 ], [ -74.043443184242719, 40.761976152106328 ], [ -74.042886228766562, 40.761765224789016 ], [ -74.042832329849503, 40.761724400069646 ] ], [ [ -74.042410121665981, 40.762003368485615 ], [ -74.042598767875631, 40.7619489357159 ], [ -74.042643683639838, 40.761914915212202 ], [ -74.04274249832109, 40.761765224789016 ], [ -74.042832329849503, 40.761724400069646 ] ], [ [ -74.041323160172183, 40.761935327516504 ], [ -74.04115248026821, 40.761901307005843 ], [ -74.040712305778982, 40.761724400069646 ], [ -74.040568575333523, 40.761683575325193 ], [ -74.04015535030284, 40.761527080239183 ], [ -74.040101451385794, 40.761472647079422 ] ], [ [ -74.041323160172183, 40.761935327516504 ], [ -74.04136807593639, 40.761826461821059 ], [ -74.0416106210631, 40.761499863664874 ], [ -74.041817233578456, 40.761180068081956 ], [ -74.041871132495501, 40.761139243003178 ] ], [ [ -74.044997269684231, 40.761799245369339 ], [ -74.044826589780257, 40.761778833023236 ], [ -74.044754724557521, 40.761751616552012 ], [ -74.044727775099005, 40.761724400069646 ], [ -74.044485229972281, 40.761635946424974 ], [ -74.043425217937028, 40.761186872259309 ], [ -74.04336233586713, 40.761173263903892 ], [ -74.043299453797246, 40.761132438820937 ] ], [ [ -74.044997269684231, 40.761799245369339 ], [ -74.044988286531392, 40.761642750555673 ], [ -74.044853539238773, 40.761166459725146 ], [ -74.044853539238773, 40.761030376003845 ] ], [ [ -74.042832329849503, 40.761724400069646 ], [ -74.042868262460871, 40.761547492662601 ] ], [ [ -74.046614237195655, 40.761697183576125 ], [ -74.046659152959847, 40.761731204191285 ], [ -74.046847799169527, 40.761785637139305 ], [ -74.04726102420021, 40.76196254391251 ], [ -74.04755746824398, 40.762003368485615 ], [ -74.047701198689438, 40.761955739814553 ], [ -74.047835945982044, 40.761778833023236 ], [ -74.048114423720136, 40.761329759822949 ], [ -74.048491716139452, 40.760826249899502 ], [ -74.048842059100267, 40.760247889199618 ], [ -74.048886974864473, 40.760213867825264 ] ], [ [ -74.046614237195655, 40.761697183576125 ], [ -74.046704068724054, 40.76154068852216 ], [ -74.046955597003617, 40.76120048061194 ], [ -74.047000512767823, 40.761071201149484 ] ], [ [ -74.046614237195655, 40.761697183576125 ], [ -74.04656033827861, 40.761656358814967 ], [ -74.046443557291667, 40.761635946424974 ], [ -74.045257781116632, 40.76114604718471 ], [ -74.044997269684231, 40.761050788579801 ], [ -74.044853539238773, 40.761030376003845 ] ], [ [ -74.042868262460871, 40.761547492662601 ], [ -74.042958093989284, 40.761499863664874 ], [ -74.043200639115994, 40.761180068081956 ], [ -74.043245554880201, 40.76114604718471 ], [ -74.043299453797246, 40.761132438820937 ] ], [ [ -74.042868262460871, 40.761547492662601 ], [ -74.042814363543826, 40.761506667809492 ], [ -74.042652666792677, 40.761459038782519 ], [ -74.04198791348243, 40.761186872259309 ], [ -74.041916048259708, 40.761173263903892 ], [ -74.041871132495501, 40.761139243003178 ] ], [ [ -74.040092468232942, 40.761152851365551 ], [ -74.04015535030284, 40.760839858325951 ], [ -74.040299080748284, 40.760628927402763 ], [ -74.040308063901136, 40.76057449350747 ], [ -74.040352979665343, 40.760540472300278 ] ], [ [ -74.041871132495501, 40.761139243003178 ], [ -74.041898081954031, 40.761125634638006 ], [ -74.04198791348243, 40.760948725637327 ], [ -74.042293340679038, 40.760526863812522 ] ], [ [ -74.041871132495501, 40.761139243003178 ], [ -74.041808250425618, 40.761098417899319 ], [ -74.041574688451732, 40.761023571810469 ], [ -74.041044682434105, 40.760799033038225 ], [ -74.040469760652272, 40.760588101985469 ], [ -74.040397895429535, 40.76057449350747 ], [ -74.040352979665343, 40.760540472300278 ] ], [ [ -74.043299453797246, 40.761132438820937 ], [ -74.043353352714291, 40.760962334038709 ] ], [ [ -74.047000512767823, 40.761071201149484 ], [ -74.04704542853203, 40.761057592770392 ], [ -74.047117293754752, 40.760982746635563 ], [ -74.047413737798522, 40.760567689267418 ], [ -74.047440687257051, 40.760458821331973 ] ], [ [ -74.047000512767823, 40.761071201149484 ], [ -74.046955597003617, 40.761037180196524 ], [ -74.046883731780895, 40.761023571810469 ], [ -74.046236944776311, 40.7607718161658 ], [ -74.045069134906953, 40.760295519094463 ], [ -74.044799640321727, 40.76019345499229 ], [ -74.044646926723431, 40.760173042153049 ] ], [ [ -74.044853539238773, 40.761030376003845 ], [ -74.044772690863212, 40.760907900416463 ] ], [ [ -74.043353352714291, 40.760962334038709 ], [ -74.043443184242719, 40.760901096210539 ], [ -74.043685729369415, 40.760581297746825 ], [ -74.043784544050666, 40.760540472300278 ] ], [ [ -74.043353352714291, 40.760962334038709 ], [ -74.043281487491569, 40.760907900416463 ], [ -74.042365205901774, 40.760560885026678 ], [ -74.042329273290406, 40.760526863812522 ] ], [ [ -74.044772690863212, 40.760907900416463 ], [ -74.044557095195017, 40.760873879379915 ], [ -74.043856409273403, 40.760594906223425 ], [ -74.043784544050666, 40.760540472300278 ] ], [ [ -74.044772690863212, 40.760907900416463 ], [ -74.044754724557521, 40.76068336125347 ], [ -74.044700825640476, 40.760492842580959 ], [ -74.044682859334799, 40.760486038332552 ] ], [ [ -74.044458280513766, 40.760547276543107 ], [ -74.044682859334799, 40.760486038332552 ] ], [ [ -74.040352979665343, 40.760540472300278 ], [ -74.040388912276697, 40.76050645107567 ], [ -74.04047874380511, 40.76032954042703 ], [ -74.04047874380511, 40.760295519094463 ] ], [ [ -74.040352979665343, 40.760540472300278 ], [ -74.040290097595445, 40.760499646828656 ], [ -74.040137383997148, 40.760465625583159 ], [ -74.040092468232942, 40.760404387297378 ] ], [ [ -74.043784544050666, 40.760540472300278 ], [ -74.043811493509196, 40.760363561742182 ] ], [ [ -74.042329273290406, 40.760526863812522 ], [ -74.042365205901774, 40.760445212827506 ], [ -74.042526902652909, 40.760234280651964 ], [ -74.042697582556883, 40.759962109113836 ], [ -74.04274249832109, 40.759934891898723 ] ], [ [ -74.042329273290406, 40.760526863812522 ], [ -74.042293340679038, 40.760526863812522 ] ], [ [ -74.042293340679038, 40.760526863812522 ], [ -74.04225740806767, 40.760499646828656 ], [ -74.042185542844933, 40.760486038332552 ], [ -74.040891968835808, 40.75998252201785 ], [ -74.04077518784888, 40.759955304811108 ], [ -74.040730272084673, 40.759921283286985 ] ], [ [ -74.044682859334799, 40.760486038332552 ], [ -74.044646926723431, 40.760309127629576 ], [ -74.044646926723431, 40.760173042153049 ] ], [ [ -74.047440687257051, 40.760458821331973 ], [ -74.047494586174096, 40.760424800065572 ], [ -74.047782047064999, 40.760016543510616 ], [ -74.047826962829205, 40.759948500507676 ], [ -74.047853912287735, 40.759846435872667 ] ], [ [ -74.047440687257051, 40.760458821331973 ], [ -74.047386788340006, 40.760424800065572 ], [ -74.047216108436004, 40.760383974522917 ], [ -74.044736758251844, 40.759383740895068 ], [ -74.044602010959224, 40.759349719078429 ], [ -74.04449421312512, 40.759274871020516 ] ], [ [ -74.049282233589494, 40.760383974522917 ], [ -74.049255284130965, 40.760336344691453 ], [ -74.049219351519596, 40.760315931896095 ], [ -74.04903968846277, 40.760247889199618 ], [ -74.048922907475841, 40.760234280651964 ], [ -74.048886974864473, 40.760213867825264 ] ], [ [ -74.043811493509196, 40.760363561742182 ], [ -74.043919291343286, 40.76032954042703 ], [ -74.044278617456939, 40.759751175405263 ], [ -74.044323533221146, 40.759710349448874 ], [ -74.044422347902398, 40.759669523467409 ] ], [ [ -74.043811493509196, 40.760363561742182 ], [ -74.043748611439312, 40.760315931896095 ], [ -74.042895211919401, 40.759989326317793 ], [ -74.042796397238135, 40.759968913415868 ], [ -74.04274249832109, 40.759934891898723 ] ], [ [ -74.04047874380511, 40.760295519094463 ], [ -74.040514676416478, 40.760288714825862 ], [ -74.040541625874994, 40.760254693472397 ], [ -74.040577558486376, 40.760125412170439 ] ], [ [ -74.048886974864473, 40.760213867825264 ], [ -74.048922907475841, 40.760104999310308 ], [ -74.049228334672435, 40.759669523467409 ], [ -74.049237317825288, 40.759601480109247 ], [ -74.04890494117015, 40.759458588830391 ], [ -74.048806126488898, 40.759444980121138 ] ], [ [ -74.044646926723431, 40.760173042153049 ], [ -74.044602010959224, 40.760098195022202 ], [ -74.044521162583649, 40.759757979728896 ], [ -74.044422347902398, 40.759669523467409 ] ], [ [ -74.040577558486376, 40.760125412170439 ], [ -74.04064044055626, 40.76006417357123 ], [ -74.040685356320466, 40.759962109113836 ], [ -74.040730272084673, 40.759921283286985 ] ], [ [ -74.04274249832109, 40.759934891898723 ], [ -74.042796397238135, 40.759826022926859 ], [ -74.043398268478498, 40.758975477946102 ], [ -74.043416234784189, 40.758914238287495 ], [ -74.043461150548396, 40.758880216230551 ] ], [ [ -74.04274249832109, 40.759934891898723 ], [ -74.042706565709722, 40.759907674672476 ], [ -74.042616734181323, 40.759887261745476 ], [ -74.042140627080727, 40.759696740791171 ], [ -74.042095711316534, 40.759635501797028 ] ], [ [ -74.040730272084673, 40.759921283286985 ], [ -74.040730272084673, 40.759894066055168 ] ], [ [ -74.040730272084673, 40.759894066055168 ], [ -74.040667390014789, 40.759860044499725 ], [ -74.040541625874994, 40.759839631558087 ], [ -74.040146367149987, 40.759689936461278 ], [ -74.040092468232942, 40.759615088786454 ] ], [ [ -74.040730272084673, 40.759894066055168 ], [ -74.040811120460233, 40.759737566755923 ], [ -74.041044682434105, 40.759397349616847 ], [ -74.041053665586944, 40.75934291471301 ], [ -74.041089598198312, 40.759295284135582 ] ], [ [ -74.047853912287735, 40.759846435872667 ], [ -74.047925777510457, 40.759805609974784 ], [ -74.047997642733193, 40.759676327799397 ], [ -74.048249171012742, 40.759336110346894 ], [ -74.048267137318433, 40.759254457899182 ] ], [ [ -74.047853912287735, 40.759846435872667 ], [ -74.047808996523528, 40.759812414292838 ], [ -74.047737131300792, 40.759798805656033 ], [ -74.047009495920662, 40.759526632334818 ], [ -74.044997269684231, 40.758723714544345 ], [ -74.044934387614347, 40.758676083523248 ] ], [ [ -74.048536631903673, 40.759805609974784 ], [ -74.048743244419015, 40.759553849717086 ], [ -74.048806126488898, 40.759444980121138 ] ], [ [ -74.044422347902398, 40.759669523467409 ], [ -74.044458280513766, 40.759492610591309 ], [ -74.044458280513766, 40.759315697244368 ], [ -74.04449421312512, 40.759274871020516 ] ], [ [ -74.042095711316534, 40.759635501797028 ], [ -74.042329273290406, 40.759281675392899 ], [ -74.042715548862574, 40.758880216230551 ], [ -74.042868262460871, 40.75866927908887 ] ], [ [ -74.042095711316534, 40.759635501797028 ], [ -74.041942997718223, 40.759615088786454 ], [ -74.041359092783551, 40.759383740895068 ], [ -74.041179429726739, 40.759329305980081 ], [ -74.041134513962518, 40.759295284135582 ] ], [ [ -74.048806126488898, 40.759444980121138 ], [ -74.048779177030383, 40.759410958335842 ], [ -74.048356968846846, 40.759247653524021 ] ], [ [ -74.041134513962518, 40.759295284135582 ], [ -74.041089598198312, 40.759295284135582 ] ], [ [ -74.041089598198312, 40.759295284135582 ], [ -74.041044682434105, 40.759254457899182 ], [ -74.040146367149987, 40.758914238287495 ], [ -74.040101451385794, 40.758839389739236 ] ], [ [ -74.041134513962518, 40.759295284135582 ], [ -74.041664519980145, 40.75841751452743 ], [ -74.041745368355734, 40.75831544754169 ], [ -74.041754351508573, 40.75825420727503 ], [ -74.041808250425618, 40.758213380399233 ] ], [ [ -74.04449421312512, 40.759274871020516 ], [ -74.04449421312512, 40.759234044771588 ] ], [ [ -74.048267137318433, 40.759254457899182 ], [ -74.048356968846846, 40.759247653524021 ] ], [ [ -74.048267137318433, 40.759254457899182 ], [ -74.048231204707065, 40.759227240394331 ], [ -74.048114423720136, 40.759193218497586 ], [ -74.046748984488261, 40.758648865781574 ], [ -74.046380675221783, 40.758485559097522 ], [ -74.045446427326297, 40.758138531061839 ], [ -74.045374562103561, 40.75808409512716 ] ], [ [ -74.048356968846846, 40.759247653524021 ], [ -74.0483929014582, 40.759131979039573 ], [ -74.048644429737763, 40.758757736681389 ], [ -74.048761210724692, 40.7585944302648 ], [ -74.04882409279459, 40.758567212489694 ] ], [ [ -74.04449421312512, 40.759234044771588 ], [ -74.044593027806386, 40.75916600096766 ], [ -74.044727775099005, 40.758955064732831 ], [ -74.04478167401605, 40.758832585321585 ], [ -74.044835572933096, 40.758778149955255 ], [ -74.044871505544464, 40.758676083523248 ] ], [ [ -74.04449421312512, 40.759234044771588 ], [ -74.044449297360913, 40.759200022878332 ], [ -74.044332516373984, 40.75916600096766 ] ], [ [ -74.044332516373984, 40.75916600096766 ], [ -74.044152853317172, 40.759145587812895 ], [ -74.043640813605222, 40.758948260327017 ], [ -74.043515049465441, 40.758914238287495 ], [ -74.043461150548396, 40.758880216230551 ] ], [ [ -74.044332516373984, 40.75916600096766 ], [ -74.044314550068307, 40.758975477946102 ], [ -74.044188785928526, 40.758628452468002 ], [ -74.044170819622849, 40.758451536821177 ] ], [ [ -74.043461150548396, 40.758880216230551 ], [ -74.043506066312602, 40.758852998572465 ], [ -74.043766577744989, 40.758444732363827 ], [ -74.043901325037609, 40.758288229652365 ] ], [ [ -74.043461150548396, 40.758880216230551 ], [ -74.043425217937028, 40.758852998572465 ], [ -74.043299453797246, 40.758818976484179 ], [ -74.042994026600653, 40.7586896923899 ], [ -74.042868262460871, 40.75866927908887 ] ], [ [ -74.04917443575539, 40.758832585321585 ], [ -74.049120536838345, 40.758716910114856 ], [ -74.048994772698563, 40.75864206134441 ], [ -74.048877991711635, 40.758608039148172 ], [ -74.04882409279459, 40.758567212489694 ] ], [ [ -74.044934387614347, 40.758676083523248 ], [ -74.044871505544464, 40.758676083523248 ] ], [ [ -74.044871505544464, 40.758676083523248 ], [ -74.044808623474566, 40.758628452468002 ], [ -74.044413364749559, 40.758485559097522 ], [ -74.044170819622849, 40.758451536821177 ] ], [ [ -74.044934387614347, 40.758676083523248 ], [ -74.044970320225715, 40.758567212489694 ], [ -74.045212865352426, 40.758247402797473 ], [ -74.045302696880839, 40.758090899621429 ] ], [ [ -74.042868262460871, 40.75866927908887 ], [ -74.042832329849503, 40.758621648028758 ], [ -74.042095711316534, 40.758329056482175 ], [ -74.04188011564834, 40.758261011751884 ], [ -74.041808250425618, 40.758213380399233 ] ], [ [ -74.04882409279459, 40.758567212489694 ], [ -74.048833075947428, 40.758444732363827 ] ], [ [ -74.040865019377279, 40.758519581356452 ], [ -74.040811120460233, 40.758512776906052 ], [ -74.040146367149987, 40.758247402797473 ] ], [ [ -74.044170819622849, 40.758451536821177 ], [ -74.044089971247274, 40.758329056482175 ], [ -74.044027089177391, 40.758281425178289 ] ], [ [ -74.048833075947428, 40.758444732363827 ], [ -74.04890494117015, 40.75840390560505 ], [ -74.049210368366758, 40.757961614111146 ], [ -74.049210368366758, 40.75783232834943 ] ], [ [ -74.048833075947428, 40.758444732363827 ], [ -74.048788160183221, 40.75841751452743 ], [ -74.04868934550197, 40.75840390560505 ], [ -74.048374935152523, 40.758281425178289 ], [ -74.047036445379192, 40.757825523828686 ], [ -74.046129146942221, 40.757492101459199 ], [ -74.045931517579717, 40.757444469555622 ], [ -74.045850669204157, 40.757390033052594 ] ], [ [ -74.040092468232942, 40.75833586095137 ], [ -74.040110434538633, 40.758281425178289 ], [ -74.040146367149987, 40.758247402797473 ] ], [ [ -74.043901325037609, 40.758288229652365 ], [ -74.044027089177391, 40.758281425178289 ] ], [ [ -74.043901325037609, 40.758288229652365 ], [ -74.043838442967711, 40.758240598319219 ], [ -74.043056908670536, 40.757954809603639 ], [ -74.042464020583026, 40.75770304233626 ], [ -74.042275374373361, 40.757648606044974 ], [ -74.042221475456302, 40.757607778797251 ] ], [ [ -74.044027089177391, 40.758281425178289 ], [ -74.04405403863592, 40.758199771435073 ], [ -74.044063021788759, 40.75797522312407 ] ], [ [ -74.040146367149987, 40.758247402797473 ], [ -74.040146367149987, 40.758206575917505 ], [ -74.040415861735227, 40.75779830573876 ], [ -74.040424844888065, 40.757750674054577 ], [ -74.040469760652272, 40.757709846869545 ] ], [ [ -74.041808250425618, 40.758213380399233 ], [ -74.042167576539256, 40.757641801505429 ], [ -74.042221475456302, 40.757607778797251 ] ], [ [ -74.041808250425618, 40.758213380399233 ], [ -74.041727402050043, 40.758158944525853 ], [ -74.041628587368777, 40.758145335550537 ], [ -74.040972817211383, 40.757879959975099 ], [ -74.040469760652272, 40.757709846869545 ] ], [ [ -74.045302696880839, 40.758090899621429 ], [ -74.045374562103561, 40.75808409512716 ] ], [ [ -74.045302696880839, 40.758090899621429 ], [ -74.045221848505264, 40.758029659147908 ], [ -74.044826589780257, 40.757893569004743 ], [ -74.044368448985352, 40.757696237802293 ] ], [ [ -74.045374562103561, 40.75808409512716 ], [ -74.045392528409252, 40.75798883213421 ], [ -74.045653039841639, 40.757662215121975 ], [ -74.045751854522905, 40.757512515121718 ], [ -74.045796770287112, 40.757390033052594 ] ], [ [ -74.044063021788759, 40.75797522312407 ], [ -74.044197769081364, 40.757907178031594 ], [ -74.044332516373984, 40.757696237802293 ] ], [ [ -74.044063021788759, 40.75797522312407 ], [ -74.044009122871714, 40.757927591566649 ], [ -74.043937257648963, 40.757600974253528 ] ], [ [ -74.049210368366758, 40.75783232834943 ], [ -74.048213238401388, 40.757458078674411 ], [ -74.046578304584287, 40.75681164245497 ], [ -74.046353725763254, 40.75675040080295 ], [ -74.046299826846209, 40.75670957300359 ] ], [ [ -74.040469760652272, 40.757709846869545 ], [ -74.04050569326364, 40.757682628732255 ], [ -74.040523659569317, 40.757614583340285 ], [ -74.040811120460233, 40.757185895769226 ], [ -74.040838069918763, 40.757077022295114 ] ], [ [ -74.040469760652272, 40.757709846869545 ], [ -74.040415861735227, 40.757675824196191 ], [ -74.040137383997148, 40.757587365163992 ], [ -74.040092468232942, 40.75753292877797 ] ], [ [ -74.044368448985352, 40.757696237802293 ], [ -74.044332516373984, 40.757696237802293 ] ], [ [ -74.044332516373984, 40.757696237802293 ], [ -74.044296583762616, 40.757662215121975 ], [ -74.044089971247274, 40.757580560618173 ], [ -74.043973190260331, 40.757580560618173 ], [ -74.043937257648963, 40.757600974253528 ] ], [ [ -74.044368448985352, 40.757696237802293 ], [ -74.044386415291029, 40.757634996965187 ], [ -74.044772690863212, 40.757104240680356 ], [ -74.04478167401605, 40.757056608498864 ], [ -74.044844556085934, 40.757008976283245 ] ], [ [ -74.043937257648963, 40.757600974253528 ], [ -74.043865392426241, 40.757451274115368 ] ], [ [ -74.042221475456302, 40.757607778797251 ], [ -74.042239441761978, 40.757505710568246 ], [ -74.042293340679038, 40.757417251309683 ], [ -74.042428087971658, 40.757219918693316 ], [ -74.042508936347232, 40.75713826364624 ], [ -74.042562835264278, 40.757022585491193 ], [ -74.04260775102847, 40.756988562466105 ] ], [ [ -74.043865392426241, 40.757451274115368 ], [ -74.043712678827944, 40.75743766499518 ], [ -74.043038942364859, 40.757158677417408 ], [ -74.042661649945529, 40.757029390094118 ], [ -74.04260775102847, 40.756988562466105 ] ], [ [ -74.043865392426241, 40.757451274115368 ], [ -74.043856409273403, 40.757287964489265 ], [ -74.043712678827944, 40.756777619321923 ], [ -74.043712678827944, 40.756648331257551 ] ], [ [ -74.045850669204157, 40.757390033052594 ], [ -74.045796770287112, 40.757390033052594 ] ], [ [ -74.045796770287112, 40.757390033052594 ], [ -74.045742871370066, 40.757342401075874 ], [ -74.045662022994478, 40.757328791933396 ], [ -74.044844556085934, 40.757008976283245 ] ], [ [ -74.045850669204157, 40.757390033052594 ], [ -74.045922534426879, 40.757233527858077 ], [ -74.046218978470634, 40.756818447079489 ], [ -74.046254911082002, 40.75670957300359 ] ], [ [ -74.049282233589494, 40.757111045274925 ], [ -74.049246300978126, 40.757049803898724 ], [ -74.049183418908243, 40.757015780887563 ], [ -74.047737131300792, 40.756444191696609 ], [ -74.04755746824398, 40.756389754374496 ], [ -74.046928647545101, 40.756144785873332 ], [ -74.046820849711011, 40.756124371790825 ], [ -74.046757967641099, 40.756076738907261 ] ], [ [ -74.040838069918763, 40.757077022295114 ], [ -74.040900951988647, 40.757036194696354 ], [ -74.040972817211383, 40.756940930201736 ], [ -74.041215362338093, 40.756553066207125 ], [ -74.041251294949461, 40.756450996358737 ] ], [ [ -74.040838069918763, 40.757077022295114 ], [ -74.040137383997148, 40.756832056326438 ], [ -74.040092468232942, 40.756777619321923 ] ], [ [ -74.042374189054613, 40.757042999297887 ], [ -74.042410121665981, 40.756968148642692 ], [ -74.042544868958586, 40.756886493286373 ] ], [ [ -74.044844556085934, 40.757008976283245 ], [ -74.044898455002979, 40.756981757859002 ], [ -74.044988286531392, 40.756838860948861 ], [ -74.044997269684231, 40.756791228577228 ], [ -74.045302696880839, 40.756348926353652 ] ], [ [ -74.044844556085934, 40.757008976283245 ], [ -74.044539128889326, 40.756913711749625 ], [ -74.043910308190448, 40.756675549818311 ], [ -74.043712678827944, 40.756648331257551 ] ], [ [ -74.04260775102847, 40.756988562466105 ], [ -74.042598767875631, 40.756886493286373 ] ], [ [ -74.042598767875631, 40.756886493286373 ], [ -74.042697582556883, 40.756825251703312 ], [ -74.042958093989284, 40.756416973041127 ], [ -74.043020976059168, 40.756369340367208 ] ], [ [ -74.042598767875631, 40.756886493286373 ], [ -74.042544868958586, 40.756886493286373 ] ], [ [ -74.042544868958586, 40.756886493286373 ], [ -74.042481986888703, 40.75681164245497 ], [ -74.042428087971658, 40.756777619321923 ], [ -74.041907065106869, 40.756675549818311 ], [ -74.041341126477874, 40.756491824316896 ], [ -74.041287227560829, 40.756450996358737 ] ], [ [ -74.046299826846209, 40.75670957300359 ], [ -74.046254911082002, 40.75670957300359 ] ], [ [ -74.046299826846209, 40.75670957300359 ], [ -74.04639864152746, 40.756525847596208 ], [ -74.046650169807009, 40.756172004640256 ], [ -74.046686102418377, 40.756076738907261 ] ], [ [ -74.046254911082002, 40.75670957300359 ], [ -74.046183045859266, 40.756655135898789 ], [ -74.046003382802454, 40.756600698749402 ], [ -74.045500326243342, 40.756389754374496 ], [ -74.045302696880839, 40.756348926353652 ] ], [ [ -74.043712678827944, 40.756648331257551 ], [ -74.04363183045237, 40.756539456903063 ] ], [ [ -74.04363183045237, 40.756539456903063 ], [ -74.043443184242719, 40.756525847596208 ], [ -74.043173689657479, 40.756423777706047 ], [ -74.043092841281904, 40.756416973041127 ], [ -74.043020976059168, 40.756369340367208 ] ], [ [ -74.04363183045237, 40.756539456903063 ], [ -74.043622847299531, 40.75641016837551 ], [ -74.043515049465441, 40.756008691871529 ], [ -74.043488100006925, 40.755947449479834 ], [ -74.043371319019968, 40.755886207031715 ] ], [ [ -74.041287227560829, 40.756450996358737 ], [ -74.041601637910262, 40.755927035336725 ], [ -74.041619604215938, 40.755838573977499 ] ], [ [ -74.041287227560829, 40.756450996358737 ], [ -74.041251294949461, 40.756450996358737 ] ], [ [ -74.041251294949461, 40.756450996358737 ], [ -74.04109858135115, 40.75641016837551 ], [ -74.040281114442607, 40.756110762398997 ], [ -74.040137383997148, 40.756056324803851 ], [ -74.040101451385794, 40.756015496578236 ] ], [ [ -74.043020976059168, 40.756369340367208 ], [ -74.043038942364859, 40.756287684275378 ], [ -74.043209622268833, 40.756063129505684 ], [ -74.043272504338717, 40.755947449479834 ], [ -74.043371319019968, 40.755886207031715 ] ], [ [ -74.045302696880839, 40.756348926353652 ], [ -74.045302696880839, 40.756301293630976 ] ], [ [ -74.045302696880839, 40.756301293630976 ], [ -74.045338629492207, 40.756280879596524 ], [ -74.045428461020606, 40.756117567095259 ], [ -74.045581174618903, 40.755927035336725 ], [ -74.045679989300169, 40.755777331429087 ], [ -74.045688972453007, 40.755729698296875 ], [ -74.045751854522905, 40.755682065130529 ] ], [ [ -74.045302696880839, 40.756301293630976 ], [ -74.044646926723431, 40.756049520101321 ], [ -74.044539128889326, 40.756022301284247 ], [ -74.044063021788759, 40.755811355074066 ], [ -74.043595897841016, 40.755634431930055 ], [ -74.043389285325659, 40.755614017690831 ] ], [ [ -74.049282233589494, 40.756301293630976 ], [ -74.049210368366758, 40.756206028083241 ], [ -74.048626463432086, 40.756001887164132 ], [ -74.047395771492845, 40.755518751158249 ], [ -74.047243057894534, 40.755491532123862 ], [ -74.04718017582465, 40.755450703551396 ] ], [ [ -74.046757967641099, 40.756076738907261 ], [ -74.046686102418377, 40.756076738907261 ] ], [ [ -74.046757967641099, 40.756076738907261 ], [ -74.046802883405306, 40.756022301284247 ], [ -74.046847799169527, 40.755893011750956 ], [ -74.046901698086572, 40.755845378701622 ], [ -74.046964580156455, 40.755750112500571 ], [ -74.046973563309308, 40.755702479348848 ], [ -74.04704542853203, 40.755627627184339 ], [ -74.047090344296237, 40.755545970181494 ], [ -74.047108310601914, 40.755457508315217 ] ], [ [ -74.046686102418377, 40.756076738907261 ], [ -74.046605254042802, 40.756015496578236 ], [ -74.046066264872337, 40.755818159800967 ], [ -74.045751854522905, 40.755682065130529 ] ], [ [ -74.042401138513128, 40.756056324803851 ], [ -74.042428087971658, 40.756042715398102 ], [ -74.042751481473928, 40.755532360671261 ] ], [ [ -74.043371319019968, 40.755886207031715 ], [ -74.043371319019968, 40.755736503032132 ] ], [ [ -74.041619604215938, 40.755838573977499 ], [ -74.041691469438675, 40.755790940889163 ], [ -74.041996896635283, 40.755273779447613 ], [ -74.042041812399475, 40.755232950741416 ] ], [ [ -74.041619604215938, 40.755838573977499 ], [ -74.041350109630713, 40.755750112500571 ], [ -74.04050569326364, 40.75542348448915 ], [ -74.04034399651249, 40.755396265415762 ] ], [ [ -74.040092468232942, 40.755818159800967 ], [ -74.040119417691471, 40.755709284086905 ], [ -74.040146367149987, 40.755695674610109 ], [ -74.040290097595445, 40.755484727363523 ], [ -74.040308063901136, 40.75542348448915 ], [ -74.04034399651249, 40.755396265415762 ] ], [ [ -74.043371319019968, 40.755736503032132 ], [ -74.043299453797246, 40.755688869870667 ], [ -74.043155723351788, 40.755661650905928 ], [ -74.042850296155194, 40.755539165426718 ], [ -74.042751481473928, 40.755532360671261 ] ], [ [ -74.043371319019968, 40.755736503032132 ], [ -74.043389285325659, 40.755709284086905 ], [ -74.043389285325659, 40.755614017690831 ] ], [ [ -74.045751854522905, 40.755682065130529 ], [ -74.045796770287112, 40.755654846163011 ], [ -74.045823719745627, 40.755579993944863 ], [ -74.046075248025176, 40.755232950741416 ], [ -74.046147113247898, 40.755096854872995 ] ], [ [ -74.045751854522905, 40.755682065130529 ], [ -74.044233701692733, 40.755076440468699 ], [ -74.044018106024552, 40.755042416447623 ] ], [ [ -74.043389285325659, 40.755614017690831 ], [ -74.043245554880201, 40.755096854872995 ], [ -74.043155723351788, 40.75504922125323 ] ], [ [ -74.042751481473928, 40.755532360671261 ], [ -74.042697582556883, 40.755477922602495 ], [ -74.042041812399475, 40.755232950741416 ] ], [ [ -74.049282233589494, 40.755505141642452 ], [ -74.049228334672435, 40.75542348448915 ], [ -74.048374935152523, 40.755083245270832 ], [ -74.048105440567298, 40.755042416447623 ] ], [ [ -74.047108310601914, 40.755457508315217 ], [ -74.04718017582465, 40.755450703551396 ] ], [ [ -74.047108310601914, 40.755457508315217 ], [ -74.047027462226353, 40.755389460645674 ], [ -74.046479489903035, 40.755185317219158 ], [ -74.046389658374622, 40.755137683662774 ], [ -74.046245927929164, 40.755096854872995 ], [ -74.046147113247898, 40.755096854872995 ] ], [ [ -74.04718017582465, 40.755450703551396 ], [ -74.047243057894534, 40.755403070185146 ], [ -74.047314923117256, 40.755253365097651 ], [ -74.047386788340006, 40.755185317219158 ], [ -74.04744967040989, 40.755083245270832 ], [ -74.04753051878545, 40.75504922125323 ] ], [ [ -74.04034399651249, 40.755396265415762 ], [ -74.040299080748284, 40.755348632010516 ], [ -74.040137383997148, 40.755307803350291 ], [ -74.040101451385794, 40.755260169881666 ] ], [ [ -74.042041812399475, 40.755232950741416 ], [ -74.042032829246637, 40.755130878866218 ] ], [ [ -74.042032829246637, 40.755130878866218 ], [ -74.042077745010843, 40.755096854872995 ], [ -74.042203509150625, 40.75504922125323 ] ], [ [ -74.042032829246637, 40.755130878866218 ], [ -74.041359092783551, 40.755042416447623 ] ], [ [ -74.046147113247898, 40.755096854872995 ], [ -74.046093214330853, 40.755056026058142 ], [ -74.045994399649601, 40.755042416447623 ] ] ] } }
]
}
