{
"type": "FeatureCollection",
"name": "gee_batch_0_32.74428_-96.83652",
"crs": { "type": "name", "properties": { "name": "urn:ogc:def:crs:OGC:1.3:CRS84" } },
"features": [
{ "type": "Feature", "properties": { "name": "road_network" }, "geometry": { "type": "MultiLineString", "coordinates": [ [ [ -96.841093295264557, 32.748129691269575 ], [ -96.84102143004182, 32.748129691269575 ], [ -96.840967531124775, 32.748107025244799 ] ], [ [ -96.840967531124775, 32.748107025244799 ], [ -96.840859733290685, 32.748129691269575 ], [ -96.840446508259987, 32.748129691269575 ], [ -96.839503277211662, 32.748114580587036 ], [ -96.839422428836102, 32.748099469901931 ] ], [ [ -96.840967531124775, 32.748107025244799 ], [ -96.840994480583291, 32.747993695034452 ], [ -96.84102143004182, 32.747427041820018 ], [ -96.841003463736129, 32.746739497746681 ] ], [ [ -96.839422428836102, 32.748099469901931 ], [ -96.839368529919042, 32.748114580587036 ], [ -96.838308517883789, 32.748114580587036 ], [ -96.837634781420689, 32.748107025244799 ], [ -96.837580882503644, 32.748091914558422 ] ], [ [ -96.839422428836102, 32.748099469901931 ], [ -96.839422428836102, 32.747283489100141 ] ], [ [ -96.835766285629717, 32.748099469901931 ], [ -96.837535966739438, 32.748107025244799 ], [ -96.837580882503644, 32.748091914558422 ] ], [ [ -96.835766285629717, 32.748099469901931 ], [ -96.835712386712672, 32.748114580587036 ], [ -96.834203217035352, 32.748107025244799 ], [ -96.833951688755803, 32.748099469901931 ], [ -96.833924739297274, 32.748084359214268 ] ], [ [ -96.835766285629717, 32.748099469901931 ], [ -96.835757302476878, 32.747245712030143 ] ], [ [ -96.837580882503644, 32.748091914558422 ], [ -96.837589865656483, 32.747268378274065 ] ], [ [ -96.833924739297274, 32.748084359214268 ], [ -96.83334981751544, 32.748076803869473 ], [ -96.832738963122239, 32.748084359214268 ], [ -96.832703030510885, 32.748099469901931 ], [ -96.832119125576199, 32.748084359214268 ] ], [ [ -96.833924739297274, 32.748084359214268 ], [ -96.83396965506148, 32.74725326744543 ] ], [ [ -96.832119125576199, 32.748084359214268 ], [ -96.832119125576199, 32.747661258919003 ] ], [ [ -96.837104775403049, 32.74767636967843 ], [ -96.8368532471235, 32.74766881429904 ] ], [ [ -96.832119125576199, 32.747661258919003 ], [ -96.831939462519372, 32.747661258919003 ] ], [ [ -96.832119125576199, 32.747661258919003 ], [ -96.83211014242336, 32.74723815661423 ] ], [ [ -96.839422428836102, 32.747283489100141 ], [ -96.838901405971299, 32.747275933687426 ], [ -96.838595978774691, 32.74725326744543 ], [ -96.837706646643426, 32.74725326744543 ], [ -96.837589865656483, 32.747268378274065 ] ], [ [ -96.839422428836102, 32.747283489100141 ], [ -96.839440395141779, 32.746731942287823 ] ], [ [ -96.837589865656483, 32.747268378274065 ], [ -96.836817314512146, 32.747245712030143 ], [ -96.835757302476878, 32.747245712030143 ] ], [ [ -96.837589865656483, 32.747268378274065 ], [ -96.837589865656483, 32.746837718653452 ] ], [ [ -96.83396965506148, 32.74725326744543 ], [ -96.83211014242336, 32.74723815661423 ] ], [ [ -96.835757302476878, 32.747245712030143 ], [ -96.83396965506148, 32.74725326744543 ] ], [ [ -96.83396965506148, 32.74725326744543 ], [ -96.833978638214319, 32.746830163202929 ] ], [ [ -96.835757302476878, 32.747245712030143 ], [ -96.83574831932404, 32.746830163202929 ] ], [ [ -96.83211014242336, 32.74723815661423 ], [ -96.831975395130726, 32.74723815661423 ], [ -96.831930479366534, 32.747200379525012 ] ], [ [ -96.83211014242336, 32.74723815661423 ], [ -96.832128108729037, 32.746603499389288 ] ], [ [ -96.837589865656483, 32.746837718653452 ], [ -96.836413072634286, 32.746852829552587 ], [ -96.836305274800196, 32.746837718653452 ], [ -96.83574831932404, 32.746830163202929 ] ], [ [ -96.837589865656483, 32.746837718653452 ], [ -96.837589865656483, 32.746709275907428 ], [ -96.837571899350806, 32.74669416498395 ] ], [ [ -96.83574831932404, 32.746830163202929 ], [ -96.833978638214319, 32.746830163202929 ] ], [ [ -96.83574831932404, 32.746830163202929 ], [ -96.835766285629717, 32.746656387664054 ] ], [ [ -96.833978638214319, 32.746830163202929 ], [ -96.833134221847246, 32.746830163202929 ], [ -96.832415569619954, 32.746792385940708 ] ], [ [ -96.833978638214319, 32.746830163202929 ], [ -96.833978638214319, 32.746626165796599 ], [ -96.833960671908642, 32.746618610328134 ] ] ] } }
]
}
