{
"type": "FeatureCollection",
"name": "gee_batch_2_29.40250_-98.50036",
"crs": { "type": "name", "properties": { "name": "urn:ogc:def:crs:OGC:1.3:CRS84" } },
"features": [
{ "type": "Feature", "properties": { "weight": 109.2842712474619, "nodes": "0-3" }, "geometry": { "type": "LineString", "coordinates": [ [ -98.497667587669952, 29.406499124774388 ], [ -98.496895036525615, 29.406373912752375 ], [ -98.496895036525615, 29.406256526341668 ] ] } },
{ "type": "Feature", "properties": { "weight": 56.941125496954271, "nodes": "1-2" }, "geometry": { "type": "LineString", "coordinates": [ [ -98.502707136413861, 29.406444344533739 ], [ -98.502401709217267, 29.406303480922215 ], [ -98.502320860841692, 29.406287829397776 ], [ -98.502284928230324, 29.406256526341668 ] ] } },
{ "type": "Feature", "properties": { "weight": 318.67756625124673, "nodes": "2-6" }, "geometry": { "type": "LineString", "coordinates": [ [ -98.502284928230324, 29.406256526341668 ], [ -98.502257978771794, 29.406280003634656 ], [ -98.502213063007588, 29.406452170284215 ], [ -98.502123231479189, 29.406499124774388 ], [ -98.501790854824065, 29.406467821783348 ], [ -98.501350680334838, 29.406311306683531 ], [ -98.500416432439351, 29.406037404679015 ], [ -98.500084055784242, 29.405920017879733 ], [ -98.499976257950138, 29.405904366296248 ], [ -98.49994032533877, 29.405865237327006 ] ] } },
{ "type": "Feature", "properties": { "weight": 283.65742421480934, "nodes": "2-13" }, "geometry": { "type": "LineString", "coordinates": [ [ -98.502284928230324, 29.406256526341668 ], [ -98.502231029313279, 29.406217397507977 ], [ -98.502159164090543, 29.406201745970286 ], [ -98.501494410780296, 29.405912192088284 ], [ -98.500111005242758, 29.405466120980488 ] ] } },
{ "type": "Feature", "properties": { "weight": 57.79241716360383, "nodes": "2-7" }, "geometry": { "type": "LineString", "coordinates": [ [ -98.502284928230324, 29.406256526341668 ], [ -98.502374759758737, 29.405982624189548 ], [ -98.502392726064429, 29.405841759938237 ] ] } },
{ "type": "Feature", "properties": { "weight": 119.53910524340094, "nodes": "4-9" }, "geometry": { "type": "LineString", "coordinates": [ [ -98.504952924624163, 29.406248700576132 ], [ -98.504916992012795, 29.406193920200529 ], [ -98.504162407174135, 29.405865237327006 ], [ -98.504099525104252, 29.40581828254404 ] ] } },
{ "type": "Feature", "properties": { "weight": 84.254833995939038, "nodes": "5-8" }, "geometry": { "type": "LineString", "coordinates": [ [ -98.503066462527514, 29.406084359360769 ], [ -98.502787984789435, 29.405990449975562 ], [ -98.502428658675782, 29.405833934140777 ] ] } },
{ "type": "Feature", "properties": { "weight": 456.83846789341692, "nodes": "6-10" }, "geometry": { "type": "LineString", "coordinates": [ [ -98.49994032533877, 29.405865237327006 ], [ -98.499904392727402, 29.405920017879733 ], [ -98.499706763364898, 29.406459996034084 ], [ -98.499652864447853, 29.406483473280076 ], [ -98.499554049766601, 29.406483473280076 ], [ -98.499446251932497, 29.406467821783348 ], [ -98.499392353015452, 29.406436518782659 ], [ -98.498538953495554, 29.40615479134274 ], [ -98.4975687729887, 29.405857411531354 ], [ -98.496823171302879, 29.405693069683437 ], [ -98.49678723869151, 29.40566176644418 ] ] } },
{ "type": "Feature", "properties": { "weight": 297.92950215345149, "nodes": "6-19" }, "geometry": { "type": "LineString", "coordinates": [ [ -98.49994032533877, 29.405865237327006 ], [ -98.499769645434796, 29.405826108342708 ], [ -98.497604705600054, 29.405145261604947 ] ] } },
{ "type": "Feature", "properties": { "weight": 57.627416997969519, "nodes": "6-14" }, "geometry": { "type": "LineString", "coordinates": [ [ -98.49994032533877, 29.405865237327006 ], [ -98.500084055784242, 29.405466120980488 ] ] } },
{ "type": "Feature", "properties": { "weight": 4.4142135623730949, "nodes": "7-8" }, "geometry": { "type": "LineString", "coordinates": [ [ -98.502392726064429, 29.405841759938237 ], [ -98.502428658675782, 29.405833934140777 ] ] } },
{ "type": "Feature", "properties": { "weight": 272.62236636408625, "nodes": "7-18" }, "geometry": { "type": "LineString", "coordinates": [ [ -98.502392726064429, 29.405841759938237 ], [ -98.500263718841055, 29.405168739154565 ] ] } },
{ "type": "Feature", "properties": { "weight": 91.177193474454072, "nodes": "8-16" }, "geometry": { "type": "LineString", "coordinates": [ [ -98.502428658675782, 29.405833934140777 ], [ -98.502608321732609, 29.405286126821348 ], [ -98.502635271191139, 29.405223520082604 ], [ -98.502662220649654, 29.405207868391891 ] ] } },
{ "type": "Feature", "properties": { "weight": 192.13051228022812, "nodes": "9-16" }, "geometry": { "type": "LineString", "coordinates": [ [ -98.504099525104252, 29.40581828254404 ], [ -98.504045626187207, 29.405810456744771 ], [ -98.502985614151939, 29.40533308185011 ], [ -98.502662220649654, 29.405207868391891 ] ] } },
{ "type": "Feature", "properties": { "weight": 25.142135623730951, "nodes": "9-11" }, "geometry": { "type": "LineString", "coordinates": [ [ -98.504099525104252, 29.40581828254404 ], [ -98.504189356632665, 29.40565394063286 ] ] } },
{ "type": "Feature", "properties": { "weight": 22.727922061357855, "nodes": "12-15" }, "geometry": { "type": "LineString", "coordinates": [ [ -98.504952924624163, 29.405536553390796 ], [ -98.504872076248589, 29.405387862689587 ] ] } },
{ "type": "Feature", "properties": { "weight": 3.0, "nodes": "13-14" }, "geometry": { "type": "LineString", "coordinates": [ [ -98.500111005242758, 29.405466120980488 ], [ -98.500084055784242, 29.405466120980488 ] ] } },
{ "type": "Feature", "properties": { "weight": 42.79241716360383, "nodes": "13-17" }, "geometry": { "type": "LineString", "coordinates": [ [ -98.500111005242758, 29.405466120980488 ], [ -98.500128971548449, 29.405372211024179 ], [ -98.500218803076848, 29.405168739154565 ] ] } },
{ "type": "Feature", "properties": { "weight": 430.96046148071048, "nodes": "14-29" }, "geometry": { "type": "LineString", "coordinates": [ [ -98.500084055784242, 29.405466120980488 ], [ -98.499302521487053, 29.405176565003242 ], [ -98.497640638211422, 29.404675709473924 ], [ -98.496778255538672, 29.404276588457414 ] ] } },
{ "type": "Feature", "properties": { "weight": 263.73506473629431, "nodes": "15-27" }, "geometry": { "type": "LineString", "coordinates": [ [ -98.504872076248589, 29.405387862689587 ], [ -98.504683430038924, 29.405356559356356 ], [ -98.503587485392302, 29.40485570471381 ], [ -98.503066462527514, 29.404597450574578 ], [ -98.502904765776378, 29.40454266930919 ] ] } },
{ "type": "Feature", "properties": { "weight": 47.727922061357852, "nodes": "15-20" }, "geometry": { "type": "LineString", "coordinates": [ [ -98.504872076248589, 29.405387862689587 ], [ -98.504952924624163, 29.40504352549393 ] ] } },
{ "type": "Feature", "properties": { "weight": 47.13556291411146, "nodes": "16-22" }, "geometry": { "type": "LineString", "coordinates": [ [ -98.502662220649654, 29.405207868391891 ], [ -98.502734085872376, 29.404863530586578 ] ] } },
{ "type": "Feature", "properties": { "weight": 5.0, "nodes": "17-18" }, "geometry": { "type": "LineString", "coordinates": [ [ -98.500263718841055, 29.405168739154565 ], [ -98.500218803076848, 29.405168739154565 ] ] } },
{ "type": "Feature", "properties": { "weight": 269.26607519433958, "nodes": "17-28" }, "geometry": { "type": "LineString", "coordinates": [ [ -98.500218803076848, 29.405168739154565 ], [ -98.500182870465494, 29.405137435753865 ], [ -98.49983252750468, 29.40504352549393 ], [ -98.498170644229063, 29.40451919161498 ], [ -98.498134711617695, 29.404480062112601 ] ] } },
{ "type": "Feature", "properties": { "weight": 42.142135623730951, "nodes": "18-23" }, "geometry": { "type": "LineString", "coordinates": [ [ -98.500263718841055, 29.405168739154565 ], [ -98.500326600910952, 29.405051351352238 ], [ -98.500353550369468, 29.404871356458742 ] ] } },
{ "type": "Feature", "properties": { "weight": 39.213203435596427, "nodes": "21-24" }, "geometry": { "type": "LineString", "coordinates": [ [ -98.500658977566076, 29.404879182330305 ], [ -98.500533213426294, 29.404824401216725 ], [ -98.500443381897881, 29.404808749464571 ], [ -98.500362533522306, 29.404761794193639 ] ] } },
{ "type": "Feature", "properties": { "weight": 50.449271413096213, "nodes": "22-27" }, "geometry": { "type": "LineString", "coordinates": [ [ -98.502734085872376, 29.404863530586578 ], [ -98.502770018483744, 29.404847878840446 ], [ -98.502859850012172, 29.404573972893022 ], [ -98.502904765776378, 29.40454266930919 ] ] } },
{ "type": "Feature", "properties": { "weight": 266.03657992645935, "nodes": "22-30" }, "geometry": { "type": "LineString", "coordinates": [ [ -98.502734085872376, 29.404863530586578 ], [ -98.502518490204196, 29.404808749464571 ], [ -98.500730842788798, 29.40422180701913 ], [ -98.500676943871753, 29.404174851477102 ] ] } },
{ "type": "Feature", "properties": { "weight": 257.62236636408625, "nodes": "26-31" }, "geometry": { "type": "LineString", "coordinates": [ [ -98.500299651452423, 29.404738316550034 ], [ -98.498925229067723, 29.404237458861655 ], [ -98.498395223050096, 29.404073114394993 ], [ -98.498305391521669, 29.404065288461389 ] ] } },
{ "type": "Feature", "properties": { "weight": 99.284271247461902, "nodes": "27-33" }, "geometry": { "type": "LineString", "coordinates": [ [ -98.502904765776378, 29.40454266930919 ], [ -98.502931715234894, 29.404354847603752 ], [ -98.503039513068984, 29.404057462527174 ], [ -98.503084428833191, 29.403830510172956 ] ] } },
{ "type": "Feature", "properties": { "weight": 60.870057685088796, "nodes": "28-31" }, "geometry": { "type": "LineString", "coordinates": [ [ -98.498134711617695, 29.404480062112601 ], [ -98.498305391521669, 29.404065288461389 ] ] } },
{ "type": "Feature", "properties": { "weight": 285.03657992645935, "nodes": "30-36" }, "geometry": { "type": "LineString", "coordinates": [ [ -98.500676943871753, 29.404174851477102 ], [ -98.500443381897881, 29.404127895913394 ], [ -98.49878149862225, 29.403572253429491 ], [ -98.49856590295407, 29.403509645635303 ], [ -98.498440138814303, 29.403493993680737 ] ] } },
{ "type": "Feature", "properties": { "weight": 139.5685424949238, "nodes": "30-37" }, "geometry": { "type": "LineString", "coordinates": [ [ -98.500676943871753, 29.404174851477102 ], [ -98.501036269985391, 29.403212258086448 ] ] } },
{ "type": "Feature", "properties": { "weight": 7.0644951022459797, "nodes": "31-32" }, "geometry": { "type": "LineString", "coordinates": [ [ -98.498305391521669, 29.404065288461389 ], [ -98.498278442063153, 29.404018332847077 ] ] } },
{ "type": "Feature", "properties": { "weight": 181.32590180780451, "nodes": "32-34" }, "geometry": { "type": "LineString", "coordinates": [ [ -98.498278442063153, 29.404018332847077 ], [ -98.498170644229063, 29.404010506909248 ], [ -98.497640638211422, 29.403877465874022 ], [ -98.496823171302879, 29.403752250623 ], [ -98.49678723869151, 29.403728772746273 ] ] } },
{ "type": "Feature", "properties": { "weight": 74.277698537842411, "nodes": "32-36" }, "geometry": { "type": "LineString", "coordinates": [ [ -98.498278442063153, 29.404018332847077 ], [ -98.498305391521669, 29.403979203151916 ], [ -98.498440138814303, 29.403493993680737 ] ] } },
{ "type": "Feature", "properties": { "weight": 123.14118351331172, "nodes": "33-40" }, "geometry": { "type": "LineString", "coordinates": [ [ -98.503084428833191, 29.403830510172956 ], [ -98.50311137829172, 29.403814858267783 ], [ -98.503138327750236, 29.403752250623 ], [ -98.503371889724107, 29.403040085950039 ], [ -98.503425788641152, 29.40300095587838 ] ] } },
{ "type": "Feature", "properties": { "weight": 260.7228714274745, "nodes": "33-37" }, "geometry": { "type": "LineString", "coordinates": [ [ -98.503084428833191, 29.403830510172956 ], [ -98.502949681540585, 29.403799206360208 ], [ -98.502509507051357, 29.403634861185111 ], [ -98.501656107531431, 29.403360951969603 ], [ -98.501162034125187, 29.40322008408571 ], [ -98.501036269985391, 29.403212258086448 ] ] } },
{ "type": "Feature", "properties": { "weight": 205.48023074035524, "nodes": "35-40" }, "geometry": { "type": "LineString", "coordinates": [ [ -98.504952924624163, 29.403627035217767 ], [ -98.504908008859957, 29.403556601484556 ], [ -98.503425788641152, 29.40300095587838 ] ] } },
{ "type": "Feature", "properties": { "weight": 202.46146472191597, "nodes": "36-39" }, "geometry": { "type": "LineString", "coordinates": [ [ -98.498440138814303, 29.403493993680737 ], [ -98.498404206202935, 29.403462689764371 ], [ -98.49808081270065, 29.403376603944658 ], [ -98.497209446875061, 29.403204432086572 ], [ -98.49684113760857, 29.403157476074661 ], [ -98.496796221844363, 29.403133998060586 ] ] } },
{ "type": "Feature", "properties": { "weight": 15.549776476484553, "nodes": "37-38" }, "geometry": { "type": "LineString", "coordinates": [ [ -98.501036269985391, 29.403212258086448 ], [ -98.50093745530414, 29.403133998060586 ] ] } },
{ "type": "Feature", "properties": { "weight": 515.333044482741, "nodes": "38-45" }, "geometry": { "type": "LineString", "coordinates": [ [ -98.50093745530414, 29.403133998060586 ], [ -98.500811691164373, 29.403118346048181 ], [ -98.498907262762046, 29.402554871996998 ], [ -98.497793351809733, 29.402194873051613 ], [ -98.497200463722223, 29.402085307902194 ], [ -98.496859103914247, 29.402085307902194 ], [ -98.49681418815004, 29.402100960073621 ] ] } },
{ "type": "Feature", "properties": { "weight": 152.21882403479668, "nodes": "38-46" }, "geometry": { "type": "LineString", "coordinates": [ [ -98.50093745530414, 29.403133998060586 ], [ -98.501314747723484, 29.402077481815571 ] ] } },
{ "type": "Feature", "properties": { "weight": 37.656854249492383, "nodes": "40-42" }, "geometry": { "type": "LineString", "coordinates": [ [ -98.503425788641152, 29.40300095587838 ], [ -98.503461721252535, 29.402719218917845 ] ] } },
{ "type": "Feature", "properties": { "weight": 173.68124086713189, "nodes": "41-43" }, "geometry": { "type": "LineString", "coordinates": [ [ -98.504952924624163, 29.402797479262965 ], [ -98.504899025707118, 29.402727044955064 ], [ -98.503659350615024, 29.402280959871906 ] ] } },
{ "type": "Feature", "properties": { "weight": 65.520339224961702, "nodes": "42-43" }, "geometry": { "type": "LineString", "coordinates": [ [ -98.503461721252535, 29.402719218917845 ], [ -98.503506637016727, 29.402664436640404 ], [ -98.50362341800367, 29.402312264152126 ], [ -98.503659350615024, 29.402280959871906 ] ] } },
{ "type": "Feature", "properties": { "weight": 272.96551211459382, "nodes": "42-46" }, "geometry": { "type": "LineString", "coordinates": [ [ -98.503461721252535, 29.402719218917845 ], [ -98.503012563610469, 29.402601828287196 ], [ -98.501494410780296, 29.402108786158436 ], [ -98.501314747723484, 29.402077481815571 ] ] } },
{ "type": "Feature", "properties": { "weight": 63.970562748477136, "nodes": "43-48" }, "geometry": { "type": "LineString", "coordinates": [ [ -98.503659350615024, 29.402280959871906 ], [ -98.503668333767877, 29.402179220894638 ], [ -98.503749182143437, 29.401952264347731 ], [ -98.503767148449128, 29.401819220619188 ] ] } },
{ "type": "Feature", "properties": { "weight": 143.05382386916239, "nodes": "44-49" }, "geometry": { "type": "LineString", "coordinates": [ [ -98.504943941471325, 29.402116612242647 ], [ -98.504908008859957, 29.402069655728354 ], [ -98.504512750134936, 29.401928786055343 ], [ -98.503847996824689, 29.401740959521078 ] ] } },
{ "type": "Feature", "properties": { "weight": 33.620844288350028, "nodes": "46-47" }, "geometry": { "type": "LineString", "coordinates": [ [ -98.501314747723484, 29.402077481815571 ], [ -98.501269831959277, 29.402038351373442 ], [ -98.501117118360966, 29.401991394823003 ], [ -98.501081185749598, 29.401952264347731 ] ] } },
{ "type": "Feature", "properties": { "weight": 494.94169546227124, "nodes": "47-52" }, "geometry": { "type": "LineString", "coordinates": [ [ -98.501081185749598, 29.401952264347731 ], [ -98.500892539539947, 29.40192095995668 ], [ -98.498646751329645, 29.401200956302308 ], [ -98.497748436045512, 29.401083563918728 ], [ -98.497155547958002, 29.401028780760015 ], [ -98.497083682735266, 29.401005302254386 ] ] } },
{ "type": "Feature", "properties": { "weight": 128.24826128631958, "nodes": "47-51" }, "geometry": { "type": "LineString", "coordinates": [ [ -98.501081185749598, 29.401952264347731 ], [ -98.501135084666643, 29.401725307294232 ], [ -98.501323730876322, 29.401185303992328 ], [ -98.501350680334838, 29.401044433094086 ] ] } },
{ "type": "Feature", "properties": { "weight": 14.313708498984763, "nodes": "48-49" }, "geometry": { "type": "LineString", "coordinates": [ [ -98.503767148449128, 29.401819220619188 ], [ -98.503847996824689, 29.401740959521078 ] ] } },
{ "type": "Feature", "properties": { "weight": 310.0071426749364, "nodes": "48-51" }, "geometry": { "type": "LineString", "coordinates": [ [ -98.503767148449128, 29.401819220619188 ], [ -98.502248995618956, 29.401263565518136 ], [ -98.501611191767239, 29.401083563918728 ], [ -98.501350680334838, 29.401044433094086 ] ] } },
{ "type": "Feature", "properties": { "weight": 107.94112549695429, "nodes": "49-53" }, "geometry": { "type": "LineString", "coordinates": [ [ -98.503847996824689, 29.401740959521078 ], [ -98.503874946283219, 29.40158443714413 ], [ -98.504045626187207, 29.401107042406288 ], [ -98.504063592492884, 29.400973997571779 ] ] } },
{ "type": "Feature", "properties": { "weight": 102.18376618407358, "nodes": "50-56" }, "geometry": { "type": "LineString", "coordinates": [ [ -98.504952924624163, 29.401060085425751 ], [ -98.504908008859957, 29.400997476084637 ], [ -98.504162407174135, 29.400825300197781 ] ] } },
{ "type": "Feature", "properties": { "weight": 28.378203601230741, "nodes": "51-55" }, "geometry": { "type": "LineString", "coordinates": [ [ -98.501350680334838, 29.401044433094086 ], [ -98.501314747723484, 29.401013128423529 ], [ -98.501206949889394, 29.400989649914283 ], [ -98.501144067819482, 29.400950519053495 ] ] } },
{ "type": "Feature", "properties": { "weight": 33.89949493661166, "nodes": "52-54" }, "geometry": { "type": "LineString", "coordinates": [ [ -98.497083682735266, 29.401005302254386 ], [ -98.496850120761408, 29.400997476084637 ], [ -98.496805204997202, 29.400966171399613 ] ] } },
{ "type": "Feature", "properties": { "weight": 121.44927141309621, "nodes": "52-58" }, "geometry": { "type": "LineString", "coordinates": [ [ -98.497083682735266, 29.401005302254386 ], [ -98.497200463722223, 29.400144419970911 ], [ -98.497227413180738, 29.400105288784847 ] ] } },
{ "type": "Feature", "properties": { "weight": 24.549776476484549, "nodes": "53-56" }, "geometry": { "type": "LineString", "coordinates": [ [ -98.504063592492884, 29.400973997571779 ], [ -98.504090541951413, 29.400958345226858 ], [ -98.504126474562781, 29.400856604926169 ], [ -98.504162407174135, 29.400825300197781 ] ] } },
{ "type": "Feature", "properties": { "weight": 338.12083986654238, "nodes": "53-57" }, "geometry": { "type": "LineString", "coordinates": [ [ -98.504063592492884, 29.400973997571779 ], [ -98.503847996824689, 29.400934866704961 ], [ -98.502455608134312, 29.400535731003313 ], [ -98.502266961924633, 29.400496599967845 ], [ -98.501512377085987, 29.400277465890891 ], [ -98.501422545557574, 29.400269639665122 ], [ -98.501377629793367, 29.400238334756029 ] ] } },
{ "type": "Feature", "properties": { "weight": 480.73506473629431, "nodes": "55-58" }, "geometry": { "type": "LineString", "coordinates": [ [ -98.501144067819482, 29.400950519053495 ], [ -98.501027286832553, 29.400942692879525 ], [ -98.500802708011534, 29.400887909644911 ], [ -98.498260475757462, 29.400230508527251 ], [ -98.497227413180738, 29.400105288784847 ] ] } },
{ "type": "Feature", "properties": { "weight": 101.51761671949576, "nodes": "55-57" }, "geometry": { "type": "LineString", "coordinates": [ [ -98.501144067819482, 29.400950519053495 ], [ -98.501377629793367, 29.400238334756029 ] ] } },
{ "type": "Feature", "properties": { "weight": 141.14118351331174, "nodes": "56-60" }, "geometry": { "type": "LineString", "coordinates": [ [ -98.504162407174135, 29.400825300197781 ], [ -98.504180373479826, 29.400692254994613 ], [ -98.504404952300845, 29.40005050509906 ], [ -98.504449868065052, 29.399870501352211 ], [ -98.50448580067642, 29.399839196320244 ] ] } },
{ "type": "Feature", "properties": { "weight": 566.56911246024083, "nodes": "57-64" }, "geometry": { "type": "LineString", "coordinates": [ [ -98.501377629793367, 29.400238334756029 ], [ -98.498601835565438, 29.399463535184758 ], [ -98.498179627381901, 29.399385272273523 ], [ -98.496886053372762, 29.399205267349082 ], [ -98.49684113760857, 29.399197441040791 ], [ -98.496805204997202, 29.3991583094903 ] ] } },
{ "type": "Feature", "properties": { "weight": 207.20915162111089, "nodes": "57-63" }, "geometry": { "type": "LineString", "coordinates": [ [ -98.501377629793367, 29.400238334756029 ], [ -98.501566276003032, 29.399635713377467 ], [ -98.501566276003032, 29.399518319186797 ], [ -98.501521360238826, 29.39948701404639 ], [ -98.500784741705843, 29.399283530398865 ], [ -98.500748809094489, 29.399244398881507 ] ] } },
{ "type": "Feature", "properties": { "weight": 40.242640687119284, "nodes": "58-61" }, "geometry": { "type": "LineString", "coordinates": [ [ -98.497227413180738, 29.400105288784847 ], [ -98.497254362639268, 29.399800065016716 ] ] } },
{ "type": "Feature", "properties": { "weight": 56.620844288350028, "nodes": "59-60" }, "geometry": { "type": "LineString", "coordinates": [ [ -98.504934958318472, 29.399956590140459 ], [ -98.504908008859957, 29.399925285134984 ], [ -98.50448580067642, 29.399839196320244 ] ] } },
{ "type": "Feature", "properties": { "weight": 33.128990204491963, "nodes": "60-62" }, "geometry": { "type": "LineString", "coordinates": [ [ -98.50448580067642, 29.399839196320244 ], [ -98.504539699593465, 29.399596581995635 ] ] } },
{ "type": "Feature", "properties": { "weight": 414.84119039888287, "nodes": "62-72" }, "geometry": { "type": "LineString", "coordinates": [ [ -98.504539699593465, 29.399596581995635 ], [ -98.50448580067642, 29.399557450598742 ], [ -98.50402765988153, 29.399447882607333 ], [ -98.503587485392302, 29.399440056317715 ], [ -98.502985614151939, 29.399377445979091 ], [ -98.502608321732609, 29.399283530398865 ], [ -98.502069332562129, 29.399103525294318 ], [ -98.501925602116685, 29.39903308842754 ], [ -98.501656107531431, 29.398806124858247 ], [ -98.501440511863251, 29.398524376274391 ], [ -98.501395596099044, 29.398500897190495 ] ] } },
{ "type": "Feature", "properties": { "weight": 106.72792206135786, "nodes": "62-65" }, "geometry": { "type": "LineString", "coordinates": [ [ -98.504539699593465, 29.399596581995635 ], [ -98.504611564816202, 29.39931483560191 ], [ -98.504602581663363, 29.398790472179623 ] ] } },
{ "type": "Feature", "properties": { "weight": 285.37315296734738, "nodes": "63-68" }, "geometry": { "type": "LineString", "coordinates": [ [ -98.500748809094489, 29.399244398881507 ], [ -98.500614061801869, 29.399236572576218 ], [ -98.498601835565438, 29.398673077013147 ], [ -98.498520987189863, 29.39857916078239 ] ] } },
{ "type": "Feature", "properties": { "weight": 96.970562748477136, "nodes": "63-70" }, "geometry": { "type": "LineString", "coordinates": [ [ -98.500748809094489, 29.399244398881507 ], [ -98.500847623775741, 29.398853082879668 ], [ -98.500838640622888, 29.398524376274391 ] ] } },
{ "type": "Feature", "properties": { "weight": 42.071067811865476, "nodes": "65-66" }, "geometry": { "type": "LineString", "coordinates": [ [ -98.504602581663363, 29.398790472179623 ], [ -98.504908008859957, 29.398774819498591 ], [ -98.504943941471325, 29.398735687785468 ] ] } },
{ "type": "Feature", "properties": { "weight": 37.071067811865476, "nodes": "65-69" }, "geometry": { "type": "LineString", "coordinates": [ [ -98.504602581663363, 29.398790472179623 ], [ -98.504575632204833, 29.398540028993974 ], [ -98.504548682746304, 29.398524376274391 ] ] } },
{ "type": "Feature", "properties": { "weight": 32.45584412271571, "nodes": "67-73" }, "geometry": { "type": "LineString", "coordinates": [ [ -98.501988484186569, 29.398665250663896 ], [ -98.501862720046788, 29.398524376274391 ], [ -98.501799837976904, 29.398493070827993 ] ] } },
{ "type": "Feature", "properties": { "weight": 15.727922061357859, "nodes": "68-71" }, "geometry": { "type": "LineString", "coordinates": [ [ -98.498520987189863, 29.39857916078239 ], [ -98.498628785023953, 29.3985087235524 ] ] } },
{ "type": "Feature", "properties": { "weight": 162.55634918610406, "nodes": "68-74" }, "geometry": { "type": "LineString", "coordinates": [ [ -98.498520987189863, 29.39857916078239 ], [ -98.49816166107621, 29.398540028993974 ], [ -98.497101649040957, 29.398493070827993 ] ] } }
]
}
