{
"type": "FeatureCollection",
"name": "gee_batch_0_32.78038_-96.76322",
"crs": { "type": "name", "properties": { "name": "urn:ogc:def:crs:OGC:1.3:CRS84" } },
"features": [
{ "type": "Feature", "properties": { "weight": 263.18938678327385, "nodes": "0-14" }, "geometry": { "type": "LineString", "coordinates": [ [ -96.767612985174395, 32.784243448479764 ], [ -96.76691229925278, 32.784190582530492 ], [ -96.766310428012417, 32.784167925685473 ], [ -96.765951101898764, 32.784069745957048 ], [ -96.765726523077745, 32.783948909219461 ], [ -96.765627708396494, 32.783926252312895 ], [ -96.765591775785111, 32.783896043095154 ], [ -96.76549296110386, 32.783865833867168 ], [ -96.765457028492506, 32.783828072317746 ] ] } },
{ "type": "Feature", "properties": { "weight": 51.69191210021549, "nodes": "1-8" }, "geometry": { "type": "LineString", "coordinates": [ [ -96.765654657855023, 32.784243448479764 ], [ -96.765349230658416, 32.784160373402521 ], [ -96.765259399130002, 32.784099955115792 ] ] } },
{ "type": "Feature", "properties": { "weight": 57.691912100215504, "nodes": "2-8" }, "geometry": { "type": "LineString", "coordinates": [ [ -96.764810241487936, 32.784243448479764 ], [ -96.765142618143074, 32.784152821118923 ], [ -96.765259399130002, 32.784099955115792 ] ] } },
{ "type": "Feature", "properties": { "weight": 73.455844122715718, "nodes": "3-7" }, "geometry": { "type": "LineString", "coordinates": [ [ -96.763543616937326, 32.784243448479764 ], [ -96.763067509836745, 32.784198134810879 ], [ -96.762950728849816, 32.784107507403874 ] ] } },
{ "type": "Feature", "properties": { "weight": 48.384776310850235, "nodes": "4-9" }, "geometry": { "type": "LineString", "coordinates": [ [ -96.761001384683269, 32.784243448479764 ], [ -96.761073249906005, 32.784198134810879 ], [ -96.761118165670212, 32.784077298247695 ], [ -96.761136131975888, 32.783933804615735 ] ] } },
{ "type": "Feature", "properties": { "weight": 82.041630560342611, "nodes": "5-6" }, "geometry": { "type": "LineString", "coordinates": [ [ -96.759941372648015, 32.784243448479764 ], [ -96.759384417171859, 32.784190582530492 ], [ -96.759267636184916, 32.784115059691317 ] ] } },
{ "type": "Feature", "properties": { "weight": 144.35533905932738, "nodes": "6-19" }, "geometry": { "type": "LineString", "coordinates": [ [ -96.759267636184916, 32.784115059691317 ], [ -96.758782545931496, 32.784115059691317 ], [ -96.758746613320127, 32.784084850537702 ], [ -96.758935259529807, 32.783510874669822 ] ] } },
{ "type": "Feature", "properties": { "weight": 217.9411254969543, "nodes": "6-9" }, "geometry": { "type": "LineString", "coordinates": [ [ -96.759267636184916, 32.784115059691317 ], [ -96.759366450866182, 32.784031984494185 ], [ -96.759447299241756, 32.784016879904556 ], [ -96.760076119940635, 32.783986670717589 ], [ -96.760354597678699, 32.783956461520376 ], [ -96.761136131975888, 32.783933804615735 ] ] } },
{ "type": "Feature", "properties": { "weight": 78.762979912080965, "nodes": "7-11" }, "geometry": { "type": "LineString", "coordinates": [ [ -96.762950728849816, 32.784107507403874 ], [ -96.762833947862887, 32.784099955115792 ], [ -96.762483604902073, 32.784001775312348 ], [ -96.762411739679337, 32.783956461520376 ], [ -96.762375807067983, 32.783888490789117 ] ] } },
{ "type": "Feature", "properties": { "weight": 36.656854249492383, "nodes": "7-13" }, "geometry": { "type": "LineString", "coordinates": [ [ -96.762950728849816, 32.784107507403874 ], [ -96.762914796238448, 32.783843176939435 ] ] } },
{ "type": "Feature", "properties": { "weight": 31.0, "nodes": "8-12" }, "geometry": { "type": "LineString", "coordinates": [ [ -96.765259399130002, 32.784099955115792 ], [ -96.765259399130002, 32.783865833867168 ] ] } },
{ "type": "Feature", "properties": { "weight": 9.2426406871192857, "nodes": "9-10" }, "geometry": { "type": "LineString", "coordinates": [ [ -96.761136131975888, 32.783933804615735 ], [ -96.761207997198625, 32.783911147705304 ] ] } },
{ "type": "Feature", "properties": { "weight": 132.72134935173835, "nodes": "10-11" }, "geometry": { "type": "LineString", "coordinates": [ [ -96.761207997198625, 32.783911147705304 ], [ -96.761558340159425, 32.783911147705304 ], [ -96.762070379871375, 32.78388093848244 ], [ -96.762375807067983, 32.783888490789117 ] ] } },
{ "type": "Feature", "properties": { "weight": 33.242640687119284, "nodes": "10-18" }, "geometry": { "type": "LineString", "coordinates": [ [ -96.761207997198625, 32.783911147705304 ], [ -96.76123494665714, 32.783669473635157 ] ] } },
{ "type": "Feature", "properties": { "weight": 63.721349351738354, "nodes": "11-13" }, "geometry": { "type": "LineString", "coordinates": [ [ -96.762375807067983, 32.783888490789117 ], [ -96.762402756526498, 32.783858281558565 ], [ -96.762438689137866, 32.783850729249316 ], [ -96.762914796238448, 32.783843176939435 ] ] } },
{ "type": "Feature", "properties": { "weight": 23.714776642118867, "nodes": "12-14" }, "geometry": { "type": "LineString", "coordinates": [ [ -96.765259399130002, 32.783865833867168 ], [ -96.765457028492506, 32.783828072317746 ] ] } },
{ "type": "Feature", "properties": { "weight": 273.41983416157336, "nodes": "12-13" }, "geometry": { "type": "LineString", "coordinates": [ [ -96.765259399130002, 32.783865833867168 ], [ -96.765160584448751, 32.783812967693493 ], [ -96.764711426806684, 32.783744996852604 ], [ -96.76312140875379, 32.783812967693493 ], [ -96.762923779391286, 32.783828072317746 ], [ -96.762914796238448, 32.783843176939435 ] ] } },
{ "type": "Feature", "properties": { "weight": 50.478708664619077, "nodes": "14-21" }, "geometry": { "type": "LineString", "coordinates": [ [ -96.765457028492506, 32.783828072317746 ], [ -96.765474994798183, 32.783790310752309 ], [ -96.76549296110386, 32.783458008285209 ] ] } },
{ "type": "Feature", "properties": { "weight": 25.727922061357855, "nodes": "15-16" }, "geometry": { "type": "LineString", "coordinates": [ [ -96.759977305259383, 32.783820520005939 ], [ -96.759779675896866, 32.783752549170828 ] ] } },
{ "type": "Feature", "properties": { "weight": 98.248261286319533, "nodes": "17-19" }, "geometry": { "type": "LineString", "coordinates": [ [ -96.759707810674144, 32.783737444533749 ], [ -96.759528147617317, 32.783707235251903 ], [ -96.759204754115032, 32.78357884568959 ], [ -96.759007124752529, 32.783541084018353 ], [ -96.758935259529807, 32.783510874669822 ] ] } },
{ "type": "Feature", "properties": { "weight": 131.56196978530431, "nodes": "18-27" }, "geometry": { "type": "LineString", "coordinates": [ [ -96.76123494665714, 32.783669473635157 ], [ -96.761279862421347, 32.783624159673906 ], [ -96.76158528961794, 32.782800952026243 ] ] } },
{ "type": "Feature", "properties": { "weight": 269.47365803073575, "nodes": "18-26" }, "geometry": { "type": "LineString", "coordinates": [ [ -96.76123494665714, 32.783669473635157 ], [ -96.760938502613385, 32.783601502684633 ], [ -96.760327648220184, 32.783420246562684 ], [ -96.759087973128103, 32.783110599833343 ] ] } },
{ "type": "Feature", "properties": { "weight": 6.0, "nodes": "19-20" }, "geometry": { "type": "LineString", "coordinates": [ [ -96.758935259529807, 32.783510874669822 ], [ -96.758935259529807, 32.783465560627796 ] ] } },
{ "type": "Feature", "properties": { "weight": 38.727922061357845, "nodes": "20-24" }, "geometry": { "type": "LineString", "coordinates": [ [ -96.758935259529807, 32.783465560627796 ], [ -96.758665764944553, 32.783427798908463 ], [ -96.758629832333199, 32.783390037173113 ] ] } },
{ "type": "Feature", "properties": { "weight": 53.863484975469298, "nodes": "20-26" }, "geometry": { "type": "LineString", "coordinates": [ [ -96.758935259529807, 32.783465560627796 ], [ -96.759034074211058, 32.78317101879199 ], [ -96.759087973128103, 32.783110599833343 ] ] } },
{ "type": "Feature", "properties": { "weight": 39.549776476484553, "nodes": "21-23" }, "geometry": { "type": "LineString", "coordinates": [ [ -96.76549296110386, 32.783458008285209 ], [ -96.765313298047047, 32.783405141869181 ], [ -96.765169567601589, 32.783390037173113 ] ] } },
{ "type": "Feature", "properties": { "weight": 110.39039691005048, "nodes": "21-28" }, "geometry": { "type": "LineString", "coordinates": [ [ -96.76549296110386, 32.783458008285209 ], [ -96.765555843173757, 32.783390037173113 ], [ -96.765627708396494, 32.783163466424405 ], [ -96.765726523077745, 32.783019971318438 ], [ -96.765726523077745, 32.782982209409973 ], [ -96.765816354606159, 32.782785847227601 ], [ -96.765861270370365, 32.782755637622607 ] ] } },
{ "type": "Feature", "properties": { "weight": 253.79393923934003, "nodes": "22-28" }, "geometry": { "type": "LineString", "coordinates": [ [ -96.767810614536899, 32.783405141869181 ], [ -96.767756715619853, 32.783352275421734 ], [ -96.767469254728937, 32.783284304228857 ], [ -96.767172810685167, 32.78318612352524 ], [ -96.765996017662971, 32.782861371195189 ], [ -96.765861270370365, 32.782755637622607 ] ] } },
{ "type": "Feature", "properties": { "weight": 608.33866508194126, "nodes": "23-34" }, "geometry": { "type": "LineString", "coordinates": [ [ -96.765169567601589, 32.783390037173113 ], [ -96.765151601295912, 32.783405141869181 ], [ -96.765016854003278, 32.783397589521471 ], [ -96.764504814291342, 32.7832465424326 ], [ -96.764397016457238, 32.783238990071425 ], [ -96.764064639802129, 32.783163466424405 ], [ -96.763902943050979, 32.783095495087274 ], [ -96.763705313688476, 32.783050180833662 ], [ -96.763372937033353, 32.782936895098658 ], [ -96.762905813085609, 32.782823609219406 ], [ -96.762564453277633, 32.782717875601939 ], [ -96.761675121146368, 32.782506407990041 ], [ -96.760902570002017, 32.782408226427933 ], [ -96.760489344971319, 32.782287387433527 ], [ -96.760363580831537, 32.782226967874763 ], [ -96.760318665067345, 32.782181653178768 ] ] } },
{ "type": "Feature", "properties": { "weight": 121.42640687119287, "nodes": "26-33" }, "geometry": { "type": "LineString", "coordinates": [ [ -96.759087973128103, 32.783110599833343 ], [ -96.759114922586619, 32.782967104642104 ], [ -96.759357467713343, 32.782287387433527 ] ] } },
{ "type": "Feature", "properties": { "weight": 105.21882403479668, "nodes": "28-35" }, "geometry": { "type": "LineString", "coordinates": [ [ -96.765861270370365, 32.782755637622607 ], [ -96.765879236676042, 32.782649903924366 ], [ -96.765960085051617, 32.782513960413411 ], [ -96.766085849191384, 32.782393121562606 ], [ -96.766175680719812, 32.782189205629706 ], [ -96.766265512248211, 32.782113681091502 ] ] } },
{ "type": "Feature", "properties": { "weight": 198.6746681575124, "nodes": "29-35" }, "geometry": { "type": "LineString", "coordinates": [ [ -96.767801631384046, 32.782589484611805 ], [ -96.767756715619853, 32.782529065258217 ], [ -96.767639934632911, 32.782491303141384 ], [ -96.766786535113013, 32.78226473010379 ], [ -96.766678737278909, 32.782249625214114 ], [ -96.766526023680612, 32.782196758079998 ], [ -96.766373310082315, 32.78217410072719 ], [ -96.766265512248211, 32.782113681091502 ] ] } },
{ "type": "Feature", "properties": { "weight": 66.526911934581193, "nodes": "30-32" }, "geometry": { "type": "LineString", "coordinates": [ [ -96.763202257129365, 32.782581932194852 ], [ -96.763175307670835, 32.782559274940141 ], [ -96.762699200570253, 32.782400673995596 ] ] } },
{ "type": "Feature", "properties": { "weight": 250.30865786510145, "nodes": "31-37" }, "geometry": { "type": "LineString", "coordinates": [ [ -96.760552227041217, 32.782491303141384 ], [ -96.760336631373022, 32.782430883721112 ], [ -96.760076119940635, 32.782325149636904 ], [ -96.759204754115032, 32.782121233548203 ], [ -96.759052040516735, 32.782060813876612 ], [ -96.758710680708759, 32.781970184292277 ], [ -96.758629832333199, 32.781872002138407 ] ] } },
{ "type": "Feature", "properties": { "weight": 75.348766349707887, "nodes": "34-39" }, "geometry": { "type": "LineString", "coordinates": [ [ -96.760318665067345, 32.782181653178768 ], [ -96.760408496595744, 32.782030604025429 ], [ -96.76053426073554, 32.781690742492742 ] ] } },
{ "type": "Feature", "properties": { "weight": 216.58073580374355, "nodes": "34-40" }, "geometry": { "type": "LineString", "coordinates": [ [ -96.760318665067345, 32.782181653178768 ], [ -96.760255782997447, 32.78217410072719 ], [ -96.760156968316196, 32.782128786004272 ], [ -96.759680861215614, 32.781879554615628 ], [ -96.759339501407652, 32.781781372361735 ], [ -96.758728647014451, 32.781698294985354 ], [ -96.758629832333199, 32.781660532515893 ] ] } },
{ "type": "Feature", "properties": { "weight": 84.112698372208087, "nodes": "35-45" }, "geometry": { "type": "LineString", "coordinates": [ [ -96.766265512248211, 32.782113681091502 ], [ -96.76629246170674, 32.781939974410314 ], [ -96.766328394318109, 32.781841792223105 ], [ -96.766445175305037, 32.781645427523628 ], [ -96.766463141610714, 32.78154724501136 ] ] } },
{ "type": "Feature", "properties": { "weight": 25.963990038857645, "nodes": "36-38" }, "geometry": { "type": "LineString", "coordinates": [ [ -96.761818851591826, 32.781894659568152 ], [ -96.761666137993529, 32.781849344702891 ], [ -96.761630205382161, 32.78181158229755 ] ] } },
{ "type": "Feature", "properties": { "weight": 128.84062043356596, "nodes": "38-44" }, "geometry": { "type": "LineString", "coordinates": [ [ -96.761630205382161, 32.78181158229755 ], [ -96.761459525478173, 32.781796477330928 ], [ -96.760767822709397, 32.781600112531429 ], [ -96.760588159652585, 32.781577455026671 ] ] } },
{ "type": "Feature", "properties": { "weight": 272.23101734361649, "nodes": "38-61" }, "geometry": { "type": "LineString", "coordinates": [ [ -96.761630205382161, 32.78181158229755 ], [ -96.761827834744665, 32.781260249354247 ], [ -96.761926649425916, 32.781041225729908 ], [ -96.762034447260007, 32.780693807840549 ], [ -96.762214110316833, 32.780270862492017 ], [ -96.762268009233892, 32.779976310079483 ] ] } },
{ "type": "Feature", "properties": { "weight": 53.69191210021549, "nodes": "42-47" }, "geometry": { "type": "LineString", "coordinates": [ [ -96.767810614536899, 32.781577455026671 ], [ -96.767747732467001, 32.781486824949951 ], [ -96.767442305270407, 32.78139619478091 ] ] } },
{ "type": "Feature", "properties": { "weight": 17.892922226992169, "nodes": "43-46" }, "geometry": { "type": "LineString", "coordinates": [ [ -96.766202630178327, 32.781577455026671 ], [ -96.766247545942534, 32.78145661490386 ] ] } },
{ "type": "Feature", "properties": { "weight": 286.42697683650982, "nodes": "44-54" }, "geometry": { "type": "LineString", "coordinates": [ [ -96.760588159652585, 32.781577455026671 ], [ -96.76048036181848, 32.781532139999854 ], [ -96.759546113922994, 32.78127535441191 ], [ -96.759357467713343, 32.781199829097943 ], [ -96.759141872045149, 32.781048778277651 ], [ -96.758674748097405, 32.78064849236366 ], [ -96.758620849180346, 32.780504993201241 ] ] } },
{ "type": "Feature", "properties": { "weight": 43.614271578730524, "nodes": "45-48" }, "geometry": { "type": "LineString", "coordinates": [ [ -96.766463141610714, 32.78154724501136 ], [ -96.766517040527759, 32.781479272439391 ], [ -96.766579922597657, 32.781260249354247 ] ] } },
{ "type": "Feature", "properties": { "weight": 28.792417163603837, "nodes": "45-46" }, "geometry": { "type": "LineString", "coordinates": [ [ -96.766463141610714, 32.78154724501136 ], [ -96.766373310082315, 32.781471719928192 ], [ -96.766247545942534, 32.78145661490386 ] ] } },
{ "type": "Feature", "properties": { "weight": 92.183766184073576, "nodes": "47-49" }, "geometry": { "type": "LineString", "coordinates": [ [ -96.767442305270407, 32.78139619478091 ], [ -96.767415355811892, 32.781418852331832 ], [ -96.767280608519258, 32.781411299815503 ], [ -96.76680450141869, 32.781298011993606 ], [ -96.766714669890263, 32.781237591762938 ] ] } },
{ "type": "Feature", "properties": { "weight": 93.869105574669575, "nodes": "47-52" }, "geometry": { "type": "LineString", "coordinates": [ [ -96.767442305270407, 32.78139619478091 ], [ -96.767406372659053, 32.781313117044853 ], [ -96.767226709602213, 32.781139408800598 ], [ -96.767091962309607, 32.780882622079154 ], [ -96.767029080239709, 32.78083730669843 ] ] } },
{ "type": "Feature", "properties": { "weight": 16.064495102245978, "nodes": "48-49" }, "geometry": { "type": "LineString", "coordinates": [ [ -96.766579922597657, 32.781260249354247 ], [ -96.766633821514702, 32.781237591762938 ], [ -96.766714669890263, 32.781237591762938 ] ] } },
{ "type": "Feature", "properties": { "weight": 11.06449510224598, "nodes": "48-50" }, "geometry": { "type": "LineString", "coordinates": [ [ -96.766579922597657, 32.781260249354247 ], [ -96.766552973139127, 32.781237591762938 ], [ -96.766543989986289, 32.781192276563019 ] ] } },
{ "type": "Feature", "properties": { "weight": 69.076688411065732, "nodes": "49-52" }, "geometry": { "type": "LineString", "coordinates": [ [ -96.766714669890263, 32.781237591762938 ], [ -96.766795518265852, 32.781162066416911 ], [ -96.76693924871131, 32.780890174640362 ], [ -96.767029080239709, 32.78083730669843 ] ] } },
{ "type": "Feature", "properties": { "weight": 120.96961063805792, "nodes": "50-57" }, "geometry": { "type": "LineString", "coordinates": [ [ -96.766543989986289, 32.781192276563019 ], [ -96.766597888903334, 32.781139408800598 ], [ -96.766660770973218, 32.780859964391674 ], [ -96.766795518265852, 32.780527650979117 ], [ -96.766840434030058, 32.780489888012788 ], [ -96.766948231864149, 32.780452125030436 ] ] } },
{ "type": "Feature", "properties": { "weight": 34.556349186104043, "nodes": "50-51" }, "geometry": { "type": "LineString", "coordinates": [ [ -96.766543989986289, 32.781192276563019 ], [ -96.766481107916405, 32.781146961340013 ], [ -96.766328394318109, 32.781139408800598 ], [ -96.766274495401063, 32.78110919863655 ] ] } },
{ "type": "Feature", "properties": { "weight": 294.333044482741, "nodes": "51-59" }, "geometry": { "type": "LineString", "coordinates": [ [ -96.766274495401063, 32.78110919863655 ], [ -96.765771438841952, 32.78110164609393 ], [ -96.765564826326596, 32.781071435917056 ], [ -96.765457028492506, 32.781033673181526 ], [ -96.764819224640775, 32.780618282032918 ], [ -96.764486847985665, 32.780353941201305 ], [ -96.764172437636219, 32.780066941694898 ] ] } },
{ "type": "Feature", "properties": { "weight": 237.47365803073575, "nodes": "51-66" }, "geometry": { "type": "LineString", "coordinates": [ [ -96.766274495401063, 32.78110919863655 ], [ -96.766543989986289, 32.780444572432046 ], [ -96.766651787820379, 32.780346388594573 ], [ -96.766948231864149, 32.779553361320225 ] ] } },
{ "type": "Feature", "properties": { "weight": 47.478708664619077, "nodes": "52-55" }, "geometry": { "type": "LineString", "coordinates": [ [ -96.767029080239709, 32.78083730669843 ], [ -96.767065012851077, 32.780489888012788 ] ] } },
{ "type": "Feature", "properties": { "weight": 78.112698372208087, "nodes": "53-56" }, "geometry": { "type": "LineString", "coordinates": [ [ -96.767801631384046, 32.780640939781932 ], [ -96.767765698772692, 32.780595624278121 ], [ -96.767199760143697, 32.780459677628194 ] ] } },
{ "type": "Feature", "properties": { "weight": 16.65685424949238, "nodes": "55-56" }, "geometry": { "type": "LineString", "coordinates": [ [ -96.767065012851077, 32.780489888012788 ], [ -96.767127894920961, 32.780459677628194 ], [ -96.767199760143697, 32.780459677628194 ] ] } },
{ "type": "Feature", "properties": { "weight": 14.892922226992171, "nodes": "55-57" }, "geometry": { "type": "LineString", "coordinates": [ [ -96.767065012851077, 32.780489888012788 ], [ -96.766948231864149, 32.780452125030436 ] ] } },
{ "type": "Feature", "properties": { "weight": 163.63961030678928, "nodes": "56-68" }, "geometry": { "type": "LineString", "coordinates": [ [ -96.767199760143697, 32.780459677628194 ], [ -96.767442305270407, 32.779983862717636 ], [ -96.767523153645982, 32.779659098698531 ], [ -96.76753213679882, 32.77943251844831 ], [ -96.767604002021557, 32.779364544260723 ] ] } },
{ "type": "Feature", "properties": { "weight": 505.66456688974586, "nodes": "57-82" }, "geometry": { "type": "LineString", "coordinates": [ [ -96.766948231864149, 32.780452125030436 ], [ -96.766984164475502, 32.780233099416705 ], [ -96.767163827532329, 32.779681756691822 ], [ -96.767199760143697, 32.779492939904785 ], [ -96.767190776990859, 32.77934188618665 ], [ -96.76715484437949, 32.779266359231436 ], [ -96.767145861226652, 32.779153068678376 ], [ -96.767020097086871, 32.778903828953908 ], [ -96.766840434030058, 32.778692352276558 ], [ -96.766400259540831, 32.7783298196603 ], [ -96.766139748108429, 32.778208975126645 ], [ -96.765906186134558, 32.778065472029759 ], [ -96.765250415977164, 32.777770912316335 ], [ -96.765133634990221, 32.777695384027624 ] ] } },
{ "type": "Feature", "properties": { "weight": 85.941125496954271, "nodes": "58-62" }, "geometry": { "type": "LineString", "coordinates": [ [ -96.763184290823673, 32.780127362720549 ], [ -96.762896829932771, 32.780051836432065 ], [ -96.762600385889002, 32.780006520628213 ], [ -96.76250157120775, 32.779946099520501 ] ] } },
{ "type": "Feature", "properties": { "weight": 95.69191210021549, "nodes": "60-68" }, "geometry": { "type": "LineString", "coordinates": [ [ -96.767810614536899, 32.779998967992 ], [ -96.767747732467001, 32.779515597940382 ], [ -96.767684850397117, 32.779402307704679 ], [ -96.767604002021557, 32.779364544260723 ] ] } },
{ "type": "Feature", "properties": { "weight": 27.65685424949238, "nodes": "61-62" }, "geometry": { "type": "LineString", "coordinates": [ [ -96.762268009233892, 32.779976310079483 ], [ -96.76250157120775, 32.779946099520501 ] ] } },
{ "type": "Feature", "properties": { "weight": 26.313708498984763, "nodes": "61-63" }, "geometry": { "type": "LineString", "coordinates": [ [ -96.762268009233892, 32.779976310079483 ], [ -96.762187160858304, 32.779976310079483 ], [ -96.762142245094097, 32.779946099520501 ], [ -96.762106312482729, 32.779878125725283 ] ] } },
{ "type": "Feature", "properties": { "weight": 318.11479041326129, "nodes": "62-79" }, "geometry": { "type": "LineString", "coordinates": [ [ -96.76250157120775, 32.779946099520501 ], [ -96.762591402736163, 32.779742177979045 ], [ -96.762753099487298, 32.779583572012562 ], [ -96.763067509836745, 32.779364544260723 ], [ -96.763292088657778, 32.779145515969716 ], [ -96.764064639802129, 32.778548849959243 ], [ -96.764379050151561, 32.778276950197025 ] ] } },
{ "type": "Feature", "properties": { "weight": 268.83051916579939, "nodes": "64-78" }, "geometry": { "type": "LineString", "coordinates": [ [ -96.765735506230584, 32.779734625320387 ], [ -96.765780421994791, 32.779719520001144 ], [ -96.765861270370365, 32.779636440699477 ], [ -96.765888219828881, 32.779568466667683 ], [ -96.765870253523204, 32.779508045262496 ], [ -96.764657527889639, 32.778480875096584 ], [ -96.764459898527122, 32.778276950197025 ] ] } },
{ "type": "Feature", "properties": { "weight": 28.284271247461906, "nodes": "65-67" }, "geometry": { "type": "LineString", "coordinates": [ [ -96.763597515854372, 32.779613782694646 ], [ -96.763417852797559, 32.779462729181674 ] ] } },
{ "type": "Feature", "properties": { "weight": 48.313708498984759, "nodes": "68-71" }, "geometry": { "type": "LineString", "coordinates": [ [ -96.767604002021557, 32.779364544260723 ], [ -96.76753213679882, 32.779024672543876 ] ] } },
{ "type": "Feature", "properties": { "weight": 60.549776476484553, "nodes": "69-72" }, "geometry": { "type": "LineString", "coordinates": [ [ -96.767810614536899, 32.779289017324736 ], [ -96.76777468192553, 32.778926487139536 ], [ -96.767720783008485, 32.778866065298388 ] ] } },
{ "type": "Feature", "properties": { "weight": 499.58282784479667, "nodes": "70-96" }, "geometry": { "type": "LineString", "coordinates": [ [ -96.763022594072538, 32.779100199704253 ], [ -96.762815981557196, 32.778918934411635 ], [ -96.761827834744665, 32.778428005723057 ], [ -96.761513424395218, 32.77822408070233 ], [ -96.761351727644083, 32.778080577629801 ], [ -96.761109182517373, 32.777816229258796 ], [ -96.761055283600314, 32.777733148179998 ], [ -96.760956468919062, 32.777476351627826 ], [ -96.760893586849178, 32.777242212949062 ], [ -96.76072290694519, 32.776879674424507 ], [ -96.760444429207112, 32.776547346146124 ], [ -96.760354597678699, 32.776517134422903 ] ] } },
{ "type": "Feature", "properties": { "weight": 32.271125828222907, "nodes": "71-72" }, "geometry": { "type": "LineString", "coordinates": [ [ -96.76753213679882, 32.779024672543876 ], [ -96.767612985174395, 32.778979356216865 ], [ -96.767648917785749, 32.778911381683095 ], [ -96.767720783008485, 32.778866065298388 ] ] } },
{ "type": "Feature", "properties": { "weight": 45.449271413096213, "nodes": "71-73" }, "geometry": { "type": "LineString", "coordinates": [ [ -96.76753213679882, 32.779024672543876 ], [ -96.767487221034614, 32.779002014383259 ], [ -96.767397389506201, 32.778850959831694 ], [ -96.767370440047685, 32.778745221493018 ] ] } },
{ "type": "Feature", "properties": { "weight": 22.0, "nodes": "72-74" }, "geometry": { "type": "LineString", "coordinates": [ [ -96.767720783008485, 32.778866065298388 ], [ -96.767720783008485, 32.7786999050237 ] ] } },
{ "type": "Feature", "properties": { "weight": 38.863484975469298, "nodes": "73-76" }, "geometry": { "type": "LineString", "coordinates": [ [ -96.767370440047685, 32.778745221493018 ], [ -96.76745128842326, 32.778677246780376 ], [ -96.767487221034614, 32.778548849959243 ], [ -96.76753213679882, 32.778511086153074 ] ] } },
{ "type": "Feature", "properties": { "weight": 46.698484809834994, "nodes": "73-77" }, "geometry": { "type": "LineString", "coordinates": [ [ -96.767370440047685, 32.778745221493018 ], [ -96.767289591672096, 32.778707457770189 ], [ -96.767163827532329, 32.77854129719929 ], [ -96.767145861226652, 32.778488427861667 ] ] } },
{ "type": "Feature", "properties": { "weight": 27.549776476484549, "nodes": "74-75" }, "geometry": { "type": "LineString", "coordinates": [ [ -96.767720783008485, 32.7786999050237 ], [ -96.767783665078369, 32.77864703578031 ], [ -96.767810614536899, 32.778526191677464 ] ] } },
{ "type": "Feature", "properties": { "weight": 36.627416997969519, "nodes": "74-76" }, "geometry": { "type": "LineString", "coordinates": [ [ -96.767720783008485, 32.7786999050237 ], [ -96.767648917785749, 32.778631930276418 ], [ -96.767612985174395, 32.77854129719929 ], [ -96.767577052563027, 32.778511086153074 ], [ -96.76753213679882, 32.778511086153074 ] ] } },
{ "type": "Feature", "properties": { "weight": 283.1543289325507, "nodes": "76-90" }, "geometry": { "type": "LineString", "coordinates": [ [ -96.76753213679882, 32.778511086153074 ], [ -96.767514170493143, 32.778450664029847 ], [ -96.767595018868704, 32.778035260821973 ], [ -96.767604002021557, 32.777884204629196 ], [ -96.767711799855647, 32.777408375945832 ], [ -96.767765698772692, 32.777272424426094 ], [ -96.767783665078369, 32.7771289198188 ], [ -96.767765698772692, 32.77656245200388 ], [ -96.767684850397117, 32.77652468735468 ] ] } },
{ "type": "Feature", "properties": { "weight": 151.85843434158602, "nodes": "77-84" }, "geometry": { "type": "LineString", "coordinates": [ [ -96.767145861226652, 32.778488427861667 ], [ -96.767190776990859, 32.778458216797489 ], [ -96.767244675907904, 32.778360030768077 ], [ -96.767253659060742, 32.778299608542277 ], [ -96.767235692755051, 32.778254291845997 ], [ -96.766642804667541, 32.777733148179998 ], [ -96.766588905750496, 32.777680278362183 ], [ -96.766570939444804, 32.7776198556748 ] ] } },
{ "type": "Feature", "properties": { "weight": 256.9188309203679, "nodes": "77-86" }, "geometry": { "type": "LineString", "coordinates": [ [ -96.767145861226652, 32.778488427861667 ], [ -96.767100945462445, 32.778480875096584 ], [ -96.766669754126056, 32.778125894414543 ], [ -96.766337377470947, 32.777906863074463 ], [ -96.765582792632273, 32.777574538632336 ], [ -96.765483977951021, 32.77755188010245 ], [ -96.765340247505563, 32.77746879877683 ] ] } },
{ "type": "Feature", "properties": { "weight": 9.0, "nodes": "78-79" }, "geometry": { "type": "LineString", "coordinates": [ [ -96.764459898527122, 32.778276950197025 ], [ -96.764379050151561, 32.778276950197025 ] ] } },
{ "type": "Feature", "properties": { "weight": 109.23759005323593, "nodes": "78-82" }, "geometry": { "type": "LineString", "coordinates": [ [ -96.764459898527122, 32.778276950197025 ], [ -96.764953971933394, 32.777876651812832 ], [ -96.765133634990221, 32.777695384027624 ] ] } },
{ "type": "Feature", "properties": { "weight": 325.74220741123077, "nodes": "79-93" }, "geometry": { "type": "LineString", "coordinates": [ [ -96.764379050151561, 32.778276950197025 ], [ -96.76436108384587, 32.778186316758308 ], [ -96.763462768561766, 32.777347953073821 ], [ -96.76252852066628, 32.776547346146124 ], [ -96.762447672290705, 32.77652468735468 ] ] } },
{ "type": "Feature", "properties": { "weight": 51.254833995939038, "nodes": "80-81" }, "geometry": { "type": "LineString", "coordinates": [ [ -96.764549730055549, 32.778005049603934 ], [ -96.764864140404981, 32.77774070100854 ] ] } },
{ "type": "Feature", "properties": { "weight": 8.0, "nodes": "82-83" }, "geometry": { "type": "LineString", "coordinates": [ [ -96.765133634990221, 32.777695384027624 ], [ -96.765133634990221, 32.777634961350493 ] ] } },
{ "type": "Feature", "properties": { "weight": 233.71124808397173, "nodes": "83-95" }, "geometry": { "type": "LineString", "coordinates": [ [ -96.765133634990221, 32.777634961350493 ], [ -96.764936005627717, 32.777574538632336 ], [ -96.764298201775986, 32.777045838098275 ], [ -96.764190403941896, 32.776977862087413 ], [ -96.76374124629983, 32.776592663711718 ], [ -96.763669381077108, 32.77653979321628 ], [ -96.763588532701533, 32.776517134422903 ] ] } },
{ "type": "Feature", "properties": { "weight": 27.856912265849818, "nodes": "83-85" }, "geometry": { "type": "LineString", "coordinates": [ [ -96.765133634990221, 32.777634961350493 ], [ -96.765268382282841, 32.77746879877683 ] ] } },
{ "type": "Feature", "properties": { "weight": 138.85843434158608, "nodes": "84-89" }, "geometry": { "type": "LineString", "coordinates": [ [ -96.766570939444804, 32.7776198556748 ], [ -96.766750602501645, 32.777476351627826 ], [ -96.767379423200524, 32.776864568620596 ] ] } },
{ "type": "Feature", "properties": { "weight": 117.06601717798215, "nodes": "84-87" }, "geometry": { "type": "LineString", "coordinates": [ [ -96.766570939444804, 32.7776198556748 ], [ -96.766517040527759, 32.77761230283599 ], [ -96.766373310082315, 32.777491457327876 ], [ -96.765978051357294, 32.77714402557784 ], [ -96.765852287217513, 32.777008073654216 ] ] } },
{ "type": "Feature", "properties": { "weight": 8.0, "nodes": "85-86" }, "geometry": { "type": "LineString", "coordinates": [ [ -96.765340247505563, 32.77746879877683 ], [ -96.765268382282841, 32.77746879877683 ] ] } },
{ "type": "Feature", "properties": { "weight": 184.04220052565955, "nodes": "85-92" }, "geometry": { "type": "LineString", "coordinates": [ [ -96.765268382282841, 32.77746879877683 ], [ -96.765115668684544, 32.77730263589288 ], [ -96.764621595278271, 32.776887227325503 ], [ -96.764450915374283, 32.776713510440452 ], [ -96.764352100693031, 32.776653087096598 ], [ -96.764235319706103, 32.776547346146124 ], [ -96.764136505024851, 32.77652468735468 ] ] } },
{ "type": "Feature", "properties": { "weight": 89.296464556281663, "nodes": "86-87" }, "geometry": { "type": "LineString", "coordinates": [ [ -96.765340247505563, 32.77746879877683 ], [ -96.765510927409551, 32.777249765819285 ], [ -96.765762455689114, 32.777030732322579 ], [ -96.765852287217513, 32.777008073654216 ] ] } },
{ "type": "Feature", "properties": { "weight": 19.242640687119284, "nodes": "87-88" }, "geometry": { "type": "LineString", "coordinates": [ [ -96.765852287217513, 32.777008073654216 ], [ -96.765879236676042, 32.776872121522871 ] ] } },
{ "type": "Feature", "properties": { "weight": 81.63961030678928, "nodes": "88-94" }, "geometry": { "type": "LineString", "coordinates": [ [ -96.765879236676042, 32.776872121522871 ], [ -96.765960085051617, 32.77684946281412 ], [ -96.766310428012417, 32.776554899075322 ], [ -96.76642720899936, 32.776517134422903 ] ] } },
{ "type": "Feature", "properties": { "weight": 76.053823869162386, "nodes": "88-91" }, "geometry": { "type": "LineString", "coordinates": [ [ -96.765879236676042, 32.776872121522871 ], [ -96.765448045339667, 32.77653979321628 ], [ -96.765367196964092, 32.77652468735468 ] ] } }
]
}
