{
"type": "FeatureCollection",
"name": "gee_batch_2_39.95823_-75.13734",
"crs": { "type": "name", "properties": { "name": "urn:ogc:def:crs:OGC:1.3:CRS84" } },
"features": [
{ "type": "Feature", "properties": { "name": "road_network" }, "geometry": { "type": "MultiLineString", "coordinates": [ [ [ -75.139973410185348, 39.961755111649261 ], [ -75.140189005853529, 39.961665602078433 ], [ -75.140260871076265, 39.961610519207369 ], [ -75.1404225678274, 39.961307562623318 ], [ -75.140665112954125, 39.960736072685478 ], [ -75.140710028718331, 39.960694759974729 ] ], [ [ -75.13956018515465, 39.961755111649261 ], [ -75.139721881905785, 39.961672487434186 ], [ -75.139739848211477, 39.961576092390409 ] ], [ [ -75.138383392132454, 39.961755111649261 ], [ -75.138464240508029, 39.961706914202608 ], [ -75.13856305518928, 39.961341989575466 ], [ -75.138598987800648, 39.96130067723081 ] ], [ [ -75.135939974559648, 39.961755111649261 ], [ -75.136299300673301, 39.961693143497321 ], [ -75.13652387949432, 39.961679372789263 ], [ -75.136586761564217, 39.961658716721971 ] ], [ [ -75.141141220054706, 39.961748226301822 ], [ -75.141231051583119, 39.961693143497321 ], [ -75.141365798875725, 39.961052802638662 ], [ -75.141365798875725, 39.960977063000726 ], [ -75.14141969779277, 39.960825583473152 ], [ -75.14141969779277, 39.960729187235422 ], [ -75.14147359670983, 39.960653447239025 ] ], [ [ -75.136586761564217, 39.961658716721971 ], [ -75.136649643634101, 39.961658716721971 ], [ -75.136766424621044, 39.961589863119272 ], [ -75.136847272996604, 39.961431499569947 ] ], [ [ -75.136586761564217, 39.961658716721971 ], [ -75.136559812105702, 39.96163806064844 ], [ -75.136586761564217, 39.961521009447246 ], [ -75.137026936053431, 39.960343600925569 ], [ -75.137080834970476, 39.960247204008361 ], [ -75.137296430638671, 39.96013703593659 ] ], [ [ -75.139739848211477, 39.961576092390409 ], [ -75.139784763975683, 39.961548550924377 ], [ -75.13982967973989, 39.961459041083131 ], [ -75.140090191172291, 39.960818698032107 ], [ -75.140144090089336, 39.960488196046569 ] ], [ [ -75.139739848211477, 39.961576092390409 ], [ -75.13966798298874, 39.961534780187193 ], [ -75.139569168307489, 39.961527894817571 ], [ -75.138760684551784, 39.961341989575466 ], [ -75.138643903564841, 39.961328218796687 ], [ -75.138598987800648, 39.96130067723081 ] ], [ [ -75.137278464332994, 39.961534780187193 ], [ -75.136847272996604, 39.961431499569947 ] ], [ [ -75.137592874682426, 39.961527894817571 ], [ -75.137682706210853, 39.961328218796687 ], [ -75.137727621975046, 39.961162969234991 ], [ -75.137754571433575, 39.961135427602549 ] ], [ [ -75.136847272996604, 39.961431499569947 ], [ -75.136865239302296, 39.961328218796687 ], [ -75.136964053983547, 39.961094115133086 ], [ -75.137026936053431, 39.960977063000726 ], [ -75.137071851817637, 39.960942635864825 ] ], [ [ -75.138598987800648, 39.96130067723081 ], [ -75.138248644839848, 39.961238708667011 ], [ -75.137880335573342, 39.961149198420159 ], [ -75.137754571433575, 39.961135427602549 ] ], [ [ -75.138598987800648, 39.96130067723081 ], [ -75.13883254977452, 39.96057082169272 ], [ -75.138841532927358, 39.960364257390147 ] ], [ [ -75.137754571433575, 39.961135427602549 ], [ -75.137745588280737, 39.9611010005464 ] ], [ [ -75.137745588280737, 39.9611010005464 ], [ -75.137592874682426, 39.961080344304385 ], [ -75.13721558226311, 39.960977063000726 ], [ -75.137107784428991, 39.960963292148442 ], [ -75.137071851817637, 39.960942635864825 ] ], [ [ -75.137745588280737, 39.9611010005464 ], [ -75.137772537739252, 39.96107345888899 ], [ -75.137880335573342, 39.960756729031495 ], [ -75.137961183948917, 39.960598363552577 ], [ -75.138024066018801, 39.960364257390147 ], [ -75.138095931241537, 39.960302287977697 ] ], [ [ -75.137071851817637, 39.960942635864825 ], [ -75.137089818123314, 39.960811812590364 ], [ -75.137161683346051, 39.960598363552577 ], [ -75.137269481180155, 39.960384913848486 ], [ -75.137287447485832, 39.960281631494389 ], [ -75.137386262167084, 39.960199005498801 ] ], [ [ -75.1410963042905, 39.96088755241135 ], [ -75.140907658080835, 39.960839354353155 ], [ -75.140710028718331, 39.960694759974729 ] ], [ [ -75.141895804893366, 39.960742958134851 ], [ -75.14182393967063, 39.960667218153695 ], [ -75.14147359670983, 39.960653447239025 ] ], [ [ -75.140710028718331, 39.960694759974729 ], [ -75.140754944482538, 39.960543279821763 ], [ -75.140817826552421, 39.960495081520889 ] ], [ [ -75.14147359670983, 39.960653447239025 ], [ -75.1414466472513, 39.960625905401351 ] ], [ [ -75.1414466472513, 39.960625905401351 ], [ -75.14096155699788, 39.960584592624038 ], [ -75.140916641233673, 39.96057082169272 ], [ -75.140817826552421, 39.960495081520889 ] ], [ [ -75.1414466472513, 39.960625905401351 ], [ -75.141563428238229, 39.960013096643678 ], [ -75.141752074447908, 39.959296998552716 ], [ -75.141859872281998, 39.958766805711505 ], [ -75.141886821740528, 39.958732377462795 ], [ -75.14193173750472, 39.958415636761409 ] ], [ [ -75.140817826552421, 39.960495081520889 ], [ -75.14082680970526, 39.96040557030058 ] ], [ [ -75.140144090089336, 39.960488196046569 ], [ -75.140189005853529, 39.960460654142338 ], [ -75.140242904770588, 39.960226547508427 ] ], [ [ -75.140144090089336, 39.960488196046569 ], [ -75.139685949294432, 39.960460654142338 ], [ -75.139254757958042, 39.960398684817243 ], [ -75.138922381302933, 39.960378028363067 ], [ -75.138895431844404, 39.960364257390147 ] ], [ [ -75.14082680970526, 39.96040557030058 ], [ -75.14106935483197, 39.960254089506961 ], [ -75.141159186360383, 39.96000621112082 ], [ -75.141293933653003, 39.959737675188478 ], [ -75.141608344002435, 39.958980260466596 ], [ -75.141796990212114, 39.95831235143288 ], [ -75.141814956517791, 39.958277922955375 ], [ -75.141877838587675, 39.958250380160891 ] ], [ [ -75.14082680970526, 39.96040557030058 ], [ -75.140772910788215, 39.960371142876951 ], [ -75.140808843399583, 39.960109493890911 ], [ -75.140952573845027, 39.959730789637888 ], [ -75.141132236901868, 39.959097316017157 ] ], [ [ -75.138895431844404, 39.960364257390147 ], [ -75.138841532927358, 39.960364257390147 ] ], [ [ -75.138841532927358, 39.960364257390147 ], [ -75.138257627992687, 39.960302287977697 ], [ -75.138095931241537, 39.960302287977697 ] ], [ [ -75.138895431844404, 39.960364257390147 ], [ -75.138949330761449, 39.960322944454752 ], [ -75.138976280219978, 39.96013015042621 ], [ -75.139128993818275, 39.959758331836099 ], [ -75.139245774805204, 39.959283227362086 ] ], [ [ -75.138095931241537, 39.960302287977697 ], [ -75.138059998630169, 39.960281631494389 ], [ -75.137979150254594, 39.960281631494389 ], [ -75.137592874682426, 39.960212776505003 ], [ -75.137386262167084, 39.960199005498801 ] ], [ [ -75.140242904770588, 39.960226547508427 ], [ -75.140341719451825, 39.960178348984307 ], [ -75.140368668910355, 39.96010260837776 ], [ -75.140431550980239, 39.959827187283096 ], [ -75.140548331967182, 39.959462252623929 ], [ -75.140638163495595, 39.959056002316309 ], [ -75.140701045565478, 39.958601549959631 ], [ -75.140736978176847, 39.957692636185726 ], [ -75.140763927635376, 39.957561806693377 ], [ -75.140763927635376, 39.957417205384317 ], [ -75.140701045565478, 39.957362119090917 ] ], [ [ -75.140242904770588, 39.960226547508427 ], [ -75.140162056395013, 39.960164577971177 ], [ -75.140162056395013, 39.960075066318211 ], [ -75.140233921617735, 39.959537993939769 ], [ -75.140269854229103, 39.95891828979989 ], [ -75.14031476999331, 39.958808119587069 ], [ -75.140350702604678, 39.958477607883644 ], [ -75.140377652063194, 39.957885437086659 ], [ -75.14058426457855, 39.957430976950732 ], [ -75.140701045565478, 39.957362119090917 ] ], [ [ -75.137386262167084, 39.960199005498801 ], [ -75.137296430638671, 39.96013703593659 ] ], [ [ -75.137296430638671, 39.96013703593659 ], [ -75.137341346402877, 39.95987538605474 ], [ -75.137673723058001, 39.958980260466596 ] ], [ [ -75.139245774805204, 39.959283227362086 ], [ -75.139173909582482, 39.959255684972504 ], [ -75.138841532927358, 39.959200600160074 ], [ -75.137952200796079, 39.959000917343019 ] ], [ [ -75.139245774805204, 39.959283227362086 ], [ -75.13929069056941, 39.959207485764054 ], [ -75.139416454709192, 39.958691063541465 ], [ -75.139542218848973, 39.958264151559526 ], [ -75.13956018515465, 39.958257265860553 ] ], [ [ -75.141132236901868, 39.959097316017157 ], [ -75.141266984194473, 39.95902157421321 ], [ -75.141500546168345, 39.958250380160891 ], [ -75.14158139454392, 39.958085123161013 ], [ -75.141734108142231, 39.957871665611762 ], [ -75.141904788046205, 39.957706407696683 ], [ -75.14193173750472, 39.957630664352131 ] ], [ [ -75.141132236901868, 39.959097316017157 ], [ -75.14106935483197, 39.959056002316309 ], [ -75.141078337984808, 39.958911404166784 ], [ -75.141231051583119, 39.958277922955375 ], [ -75.141284950500165, 39.957926751494711 ], [ -75.141329866264371, 39.95781657968444 ], [ -75.14133884941721, 39.957671978914099 ] ], [ [ -75.137673723058001, 39.958980260466596 ], [ -75.13780847035062, 39.958925175432299 ], [ -75.13805101547733, 39.958147094582763 ], [ -75.13856305518928, 39.957245060570102 ], [ -75.138724751940416, 39.95700405710221 ], [ -75.138814583468843, 39.956783710331159 ] ], [ [ -75.137673723058001, 39.958980260466596 ], [ -75.137619824140941, 39.958938946695035 ], [ -75.137628807293794, 39.958787462652403 ], [ -75.137898301879034, 39.957981837333286 ], [ -75.138185762769936, 39.957444748514376 ], [ -75.138500173119397, 39.956948970476006 ], [ -75.138590004647796, 39.956818139560937 ], [ -75.138679836176209, 39.956776824483121 ] ], [ [ -75.140880708622305, 39.958815005230569 ], [ -75.14093460753935, 39.958718606158456 ], [ -75.14096155699788, 39.958615321287539 ], [ -75.140979523303557, 39.958388094022389 ] ], [ [ -75.14133884941721, 39.957671978914099 ], [ -75.141365798875725, 39.95731391854779 ], [ -75.141392748334255, 39.957258832171192 ], [ -75.141401731487093, 39.957107344406737 ], [ -75.1414466472513, 39.956942084644616 ], [ -75.141428680945623, 39.956880112130861 ] ], [ [ -75.140701045565478, 39.957362119090917 ], [ -75.140727995024008, 39.957176202523094 ] ], [ [ -75.140727995024008, 39.957176202523094 ], [ -75.14093460753935, 39.957121116035552 ], [ -75.141024439067763, 39.957052257863729 ], [ -75.141051388526279, 39.95699028544982 ] ], [ [ -75.140727995024008, 39.957176202523094 ], [ -75.14071901187117, 39.957017828751823 ] ], [ [ -75.14071901187117, 39.957017828751823 ], [ -75.14028782053478, 39.95699028544982 ], [ -75.140018325949555, 39.956955856306713 ], [ -75.139946460726819, 39.956928312979741 ] ], [ [ -75.14071901187117, 39.957017828751823 ], [ -75.14071901187117, 39.956260383904514 ], [ -75.140683079259802, 39.955874772396008 ] ], [ [ -75.141051388526279, 39.95699028544982 ], [ -75.141168169513236, 39.956969627966032 ], [ -75.141293933653003, 39.956900769641678 ], [ -75.141428680945623, 39.956880112130861 ] ], [ [ -75.141051388526279, 39.95699028544982 ], [ -75.141033422220602, 39.956976513794658 ], [ -75.141024439067763, 39.956893883805435 ], [ -75.14106935483197, 39.95664599323873 ], [ -75.14106935483197, 39.956515161744043 ], [ -75.141087321137661, 39.956494504116733 ] ], [ [ -75.139946460726819, 39.956928312979741 ], [ -75.139991376491039, 39.956880112130861 ], [ -75.140027309102393, 39.956680422537843 ], [ -75.14018002270069, 39.956287927500483 ], [ -75.140323753146149, 39.955750825377955 ], [ -75.140350702604678, 39.955585562337767 ], [ -75.140332736298987, 39.955544246515323 ], [ -75.140278837381942, 39.955509816644216 ] ], [ [ -75.139946460726819, 39.956928312979741 ], [ -75.139524252543296, 39.956893883805435 ], [ -75.138913398150095, 39.956811253716374 ], [ -75.138868482385888, 39.956783710331159 ] ], [ [ -75.141428680945623, 39.956880112130861 ], [ -75.141491563015506, 39.956783710331159 ] ], [ [ -75.141491563015506, 39.956783710331159 ], [ -75.141653259766656, 39.956763052784979 ], [ -75.141841905976321, 39.95670796596464 ], [ -75.141886821740528, 39.95668730839558 ], [ -75.141922754351882, 39.956632221514241 ] ], [ [ -75.141491563015506, 39.956783710331159 ], [ -75.141482579862668, 39.956659764960449 ], [ -75.141509529321183, 39.956549591109017 ], [ -75.141545461932552, 39.956115779843621 ], [ -75.141662242919494, 39.956019376966495 ] ], [ [ -75.138868482385888, 39.956783710331159 ], [ -75.138904414997242, 39.956749281084058 ], [ -75.138994246525655, 39.956411873545115 ], [ -75.139146960123952, 39.956053806581068 ], [ -75.139191875888159, 39.955840342691303 ], [ -75.13929069056941, 39.955592448305751 ], [ -75.139353572639294, 39.955337667028708 ] ], [ [ -75.138868482385888, 39.956783710331159 ], [ -75.138814583468843, 39.956783710331159 ] ], [ [ -75.138814583468843, 39.956783710331159 ], [ -75.138679836176209, 39.956776824483121 ] ], [ [ -75.138679836176209, 39.956776824483121 ], [ -75.138706785634739, 39.956618449786973 ], [ -75.138850516080197, 39.956177753050007 ], [ -75.13894034760861, 39.955971175476968 ], [ -75.139057128595539, 39.95553047456896 ], [ -75.139128993818275, 39.955337667028708 ], [ -75.139173909582482, 39.955310123050005 ] ], [ [ -75.14193173750472, 39.956418759429901 ], [ -75.141805973364953, 39.9560606925019 ], [ -75.141662242919494, 39.956019376966495 ] ], [ [ -75.141662242919494, 39.956019376966495 ], [ -75.14155444508539, 39.955792141075598 ], [ -75.141527495626875, 39.955675079867433 ] ], [ [ -75.140683079259802, 39.955874772396008 ], [ -75.140745961329685, 39.95583345674828 ], [ -75.140754944482538, 39.955805912969261 ], [ -75.140763927635376, 39.954979594440395 ], [ -75.140781893941053, 39.9547730132482 ], [ -75.140808843399583, 39.954759241146533 ] ], [ [ -75.140683079259802, 39.955874772396008 ], [ -75.140575281425711, 39.955812798915062 ], [ -75.140548331967182, 39.955778369179157 ], [ -75.140548331967182, 39.955619992170739 ], [ -75.140494433050122, 39.955213719037218 ], [ -75.140494433050122, 39.954917620148258 ], [ -75.140521382508666, 39.954738582988838 ] ], [ [ -75.14106935483197, 39.955730167519768 ], [ -75.14104240537344, 39.955551132487464 ], [ -75.141015455914925, 39.955516702619825 ] ], [ [ -75.141527495626875, 39.955675079867433 ], [ -75.141617327155274, 39.95560622023963 ], [ -75.141635293460965, 39.954779899297996 ], [ -75.141563428238229, 39.954731696934886 ] ], [ [ -75.141527495626875, 39.955675079867433 ], [ -75.141401731487093, 39.955633764099076 ], [ -75.141347832570048, 39.955564904429664 ], [ -75.141168169513236, 39.955227491047367 ], [ -75.141078337984808, 39.954945164285029 ], [ -75.141060371679131, 39.954800557443214 ], [ -75.14093460753935, 39.954717924824898 ] ], [ [ -75.139632050377386, 39.955427184882851 ], [ -75.139596117766018, 39.955392754952811 ], [ -75.139434421014883, 39.95537209698648 ], [ -75.139380522097824, 39.955337667028708 ] ], [ [ -75.139380522097824, 39.955337667028708 ], [ -75.139353572639294, 39.955337667028708 ] ], [ [ -75.139353572639294, 39.955337667028708 ], [ -75.139173909582482, 39.955310123050005 ] ], [ [ -75.139380522097824, 39.955337667028708 ], [ -75.13956018515465, 39.9547730132482 ], [ -75.139614084071695, 39.954731696934886 ] ], [ [ -75.139173909582482, 39.955310123050005 ], [ -75.139200859040997, 39.955110428872715 ], [ -75.139299673722249, 39.954779899297996 ], [ -75.139407471556353, 39.954717924824898 ] ] ] } }
]
}
