{
"type": "FeatureCollection",
"name": "gee_batch_9_29.37569_-98.51642",
"crs": { "type": "name", "properties": { "name": "urn:ogc:def:crs:OGC:1.3:CRS84" } },
"features": [
{ "type": "Feature", "properties": { "name": "road_network" }, "geometry": { "type": "MultiLineString", "coordinates": [ [ [ -98.516945235420451, 29.379683631917374 ], [ -98.516909302809097, 29.379652320672502 ], [ -98.516918285961935, 29.379534903418442 ] ], [ [ -98.518382539875049, 29.379675804107055 ], [ -98.518391523027887, 29.379527075596688 ] ], [ [ -98.519954591622252, 29.379644492859775 ], [ -98.519954591622252, 29.379511419951367 ] ], [ [ -98.51183382145382, 29.379628837232531 ], [ -98.511896703523703, 29.379574042518176 ], [ -98.512040433969162, 29.37956621469943 ], [ -98.512606372598157, 29.37956621469943 ], [ -98.512732136737924, 29.379589698153858 ] ], [ [ -98.512732136737924, 29.379589698153858 ], [ -98.513001631323178, 29.379597525970791 ], [ -98.513118412310106, 29.379550559060142 ] ], [ [ -98.512732136737924, 29.379589698153858 ], [ -98.512741119890777, 29.379401830366739 ], [ -98.512812985113499, 29.37908088876144 ], [ -98.513253159602726, 29.377624897060848 ] ], [ [ -98.52101460365752, 29.37956621469943 ], [ -98.520951721587636, 29.379503592127808 ], [ -98.519954591622252, 29.379511419951367 ] ], [ [ -98.513118412310106, 29.379550559060142 ], [ -98.513172311227152, 29.379574042518176 ], [ -98.513334007978287, 29.379574042518176 ], [ -98.513504687882275, 29.379534903418442 ] ], [ [ -98.513118412310106, 29.379550559060142 ], [ -98.513136378615783, 29.37931572418173 ], [ -98.513235193297035, 29.378885192163921 ], [ -98.513594519410688, 29.377624897060848 ], [ -98.51382808138456, 29.376896893399504 ], [ -98.51407062651127, 29.376270649524521 ], [ -98.514187407498213, 29.37620019684746 ] ], [ [ -98.514043677052754, 29.379542731239589 ], [ -98.516918285961935, 29.379534903418442 ] ], [ [ -98.516918285961935, 29.379534903418442 ], [ -98.518391523027887, 29.379527075596688 ] ], [ [ -98.516918285961935, 29.379534903418442 ], [ -98.516909302809097, 29.378689495190091 ] ], [ [ -98.514043677052754, 29.379542731239589 ], [ -98.51355858679932, 29.379550559060142 ], [ -98.513504687882275, 29.379534903418442 ] ], [ [ -98.514043677052754, 29.379542731239589 ], [ -98.514043677052754, 29.378720806731195 ] ], [ [ -98.518391523027887, 29.379527075596688 ], [ -98.519819844329632, 29.379519247774329 ], [ -98.519828827482485, 29.379511419951367 ], [ -98.519891709552368, 29.379511419951367 ] ], [ [ -98.513504687882275, 29.379534903418442 ], [ -98.513567569952173, 29.379104372327848 ], [ -98.51369333409194, 29.378705150961846 ] ], [ [ -98.519954591622252, 29.379511419951367 ], [ -98.519891709552368, 29.379511419951367 ] ], [ [ -98.519891709552368, 29.379511419951367 ], [ -98.51988272639953, 29.378658183639359 ] ], [ [ -98.514043677052754, 29.378720806731195 ], [ -98.51369333409194, 29.378705150961846 ] ], [ [ -98.514043677052754, 29.378720806731195 ], [ -98.516909302809097, 29.378689495190091 ] ], [ [ -98.514043677052754, 29.378720806731195 ], [ -98.514052660205593, 29.377953671201038 ], [ -98.51401672759421, 29.377891047637178 ] ], [ [ -98.51369333409194, 29.378705150961846 ], [ -98.513881980301605, 29.377953671201038 ], [ -98.513980794982857, 29.377883219688982 ] ], [ [ -98.516909302809097, 29.378689495190091 ], [ -98.51988272639953, 29.378658183639359 ] ], [ [ -98.516909302809097, 29.378689495190091 ], [ -98.516900319656258, 29.377867563790783 ] ], [ [ -98.52098765419899, 29.378658183639359 ], [ -98.51988272639953, 29.378658183639359 ] ], [ [ -98.51988272639953, 29.378658183639359 ], [ -98.519873743246691, 29.377844079938978 ] ], [ [ -98.51401672759421, 29.377891047637178 ], [ -98.516900319656258, 29.377867563790783 ] ], [ [ -98.51401672759421, 29.377891047637178 ], [ -98.513980794982857, 29.377883219688982 ] ], [ [ -98.513980794982857, 29.377883219688982 ], [ -98.514034693899916, 29.37742136967994 ], [ -98.514106559122638, 29.377116077845425 ], [ -98.514151474886845, 29.377045625753567 ] ], [ [ -98.516900319656258, 29.377867563790783 ], [ -98.519873743246691, 29.377844079938978 ] ], [ [ -98.516900319656258, 29.377867563790783 ], [ -98.516882353350567, 29.377037797740357 ] ], [ [ -98.519873743246691, 29.377844079938978 ], [ -98.520978671046151, 29.377828424034767 ] ], [ [ -98.519873743246691, 29.377844079938978 ], [ -98.519855776941, 29.377006485681466 ] ], [ [ -98.513253159602726, 29.377624897060848 ], [ -98.513307058519771, 29.377546617347122 ], [ -98.5134238395067, 29.377194357890296 ], [ -98.513432822659539, 29.377092593820226 ] ], [ [ -98.513253159602726, 29.377624897060848 ], [ -98.51310044600443, 29.377593585182588 ], [ -98.512040433969162, 29.377585757211513 ] ], [ [ -98.511860770912335, 29.377609241122922 ], [ -98.512040433969162, 29.377585757211513 ] ], [ [ -98.512040433969162, 29.377585757211513 ], [ -98.512022467663485, 29.377225669891384 ], [ -98.511905686676542, 29.376435038914682 ], [ -98.511878737218026, 29.376395898607775 ], [ -98.511878737218026, 29.376192368769221 ], [ -98.511923652982233, 29.376168884530895 ], [ -98.51256145683395, 29.376168884530895 ] ], [ [ -98.51304654708737, 29.377100421829226 ], [ -98.513127395462945, 29.377076937800418 ], [ -98.513432822659539, 29.377092593820226 ] ], [ [ -98.513432822659539, 29.377092593820226 ], [ -98.513495704729436, 29.376983001630979 ], [ -98.51369333409194, 29.376395898607775 ], [ -98.513711300397617, 29.376270649524521 ] ], [ [ -98.516882353350567, 29.377037797740357 ], [ -98.519855776941, 29.377006485681466 ] ], [ [ -98.514151474886845, 29.377045625753567 ], [ -98.514816228197091, 29.3770612817782 ], [ -98.51482521134993, 29.377053453766187 ], [ -98.516828454433508, 29.377045625753567 ], [ -98.516837437586346, 29.377037797740357 ], [ -98.516882353350567, 29.377037797740357 ] ], [ [ -98.516882353350567, 29.377037797740357 ], [ -98.516873370197729, 29.376215853002133 ] ], [ [ -98.514151474886845, 29.377045625753567 ], [ -98.514169441192522, 29.376896893399504 ], [ -98.514304188485141, 29.37651331948334 ], [ -98.514331137943671, 29.376364586351404 ], [ -98.514322154790818, 29.3763176179488 ], [ -98.514187407498213, 29.37620019684746 ] ], [ [ -98.519855776941, 29.377006485681466 ], [ -98.52098765419899, 29.37699865766524 ] ], [ [ -98.519855776941, 29.377006485681466 ], [ -98.519846793788162, 29.376184540690382 ] ], [ [ -98.513711300397617, 29.376270649524521 ], [ -98.513765199314662, 29.37620019684746 ], [ -98.513962828677165, 29.375652229916753 ], [ -98.514097575969799, 29.375534808047789 ] ], [ [ -98.513711300397617, 29.376270649524521 ], [ -98.513495704729436, 29.376247165304253 ], [ -98.5130734965459, 29.376247165304253 ], [ -98.512597389445318, 29.376192368769221 ], [ -98.51256145683395, 29.376168884530895 ] ], [ [ -98.516873370197729, 29.376215853002133 ], [ -98.519846793788162, 29.376184540690382 ] ], [ [ -98.516873370197729, 29.376215853002133 ], [ -98.516397263097147, 29.376215853002133 ], [ -98.516388279944309, 29.376223681078567 ], [ -98.515292335297673, 29.376223681078567 ], [ -98.515283352144834, 29.376231509154394 ], [ -98.515103689088008, 29.376223681078567 ], [ -98.514483851541968, 29.376239337229627 ], [ -98.514429952624909, 29.376223681078567 ], [ -98.514259272720935, 29.376074947523385 ] ], [ [ -98.516873370197729, 29.376215853002133 ], [ -98.51686438704489, 29.375386073485984 ] ], [ [ -98.52101460365752, 29.376215853002133 ], [ -98.520978671046151, 29.376176712610938 ], [ -98.519846793788162, 29.376184540690382 ] ], [ [ -98.514187407498213, 29.37620019684746 ], [ -98.514223340109567, 29.376098431783383 ], [ -98.514259272720935, 29.376074947523385 ] ], [ [ -98.519846793788162, 29.376184540690382 ], [ -98.519846793788162, 29.375354760918952 ] ], [ [ -98.51256145683395, 29.376168884530895 ], [ -98.512579423139627, 29.376090603697321 ], [ -98.512570439986789, 29.37540172976588 ] ], [ [ -98.514259272720935, 29.376074947523385 ], [ -98.514304188485141, 29.37587141704304 ] ], [ [ -98.514304188485141, 29.37587141704304 ], [ -98.514582666223205, 29.375730511087468 ], [ -98.514717413515839, 29.375409557904931 ], [ -98.514762329280046, 29.375378245345129 ] ], [ [ -98.514304188485141, 29.37587141704304 ], [ -98.514277239026612, 29.375847932730657 ], [ -98.514277239026612, 29.375558292432419 ] ], [ [ -98.514277239026612, 29.375558292432419 ], [ -98.514358087402186, 29.375480011129252 ], [ -98.514627581987426, 29.374822445805769 ], [ -98.514681480904471, 29.374470176920774 ] ], [ [ -98.514277239026612, 29.375558292432419 ], [ -98.514214356956728, 29.375534808047789 ], [ -98.514097575969799, 29.375534808047789 ] ], [ [ -98.514097575969799, 29.375534808047789 ], [ -98.514043677052754, 29.375456526726559 ] ], [ [ -98.514043677052754, 29.375456526726559 ], [ -98.513980794982857, 29.375417386043374 ], [ -98.512570439986789, 29.37540172976588 ] ], [ [ -98.514043677052754, 29.375456526726559 ], [ -98.514079609664122, 29.375409557904931 ], [ -98.514115542275476, 29.375245166858519 ], [ -98.514322154790818, 29.374759820315319 ], [ -98.514349104249348, 29.374626741020165 ] ], [ [ -98.511860770912335, 29.375409557904931 ], [ -98.512570439986789, 29.37540172976588 ] ], [ [ -98.512570439986789, 29.37540172976588 ], [ -98.51256145683395, 29.37464239741686 ] ], [ [ -98.51686438704489, 29.375386073485984 ], [ -98.514816228197091, 29.37540172976588 ], [ -98.514762329280046, 29.375378245345129 ] ], [ [ -98.51686438704489, 29.375386073485984 ], [ -98.519846793788162, 29.375354760918952 ] ], [ [ -98.51686438704489, 29.375386073485984 ], [ -98.51686438704489, 29.374587600017893 ] ], [ [ -98.514762329280046, 29.375378245345129 ], [ -98.514780295585723, 29.375252995009614 ], [ -98.51504080701811, 29.374634569218816 ], [ -98.515103689088008, 29.37457977181564 ] ], [ [ -98.519846793788162, 29.375354760918952 ], [ -98.52098765419899, 29.375346932775699 ] ], [ [ -98.519846793788162, 29.375354760918952 ], [ -98.519819844329632, 29.374571943612771 ] ], [ [ -98.51256145683395, 29.37464239741686 ], [ -98.514061643358431, 29.374611084621062 ], [ -98.514349104249348, 29.374626741020165 ] ], [ [ -98.51256145683395, 29.37464239741686 ], [ -98.512525524222582, 29.374626741020165 ], [ -98.511869754065188, 29.374634569218816 ] ], [ [ -98.514349104249348, 29.374626741020165 ], [ -98.514456902083438, 29.374540630795298 ] ], [ [ -98.51686438704489, 29.374587600017893 ], [ -98.517816601246039, 29.374571943612771 ], [ -98.518382539875049, 29.37457977181564 ], [ -98.518885596434146, 29.374564115409306 ], [ -98.51977492856544, 29.374564115409306 ] ], [ [ -98.51686438704489, 29.374587600017893 ], [ -98.515184537463583, 29.374587600017893 ], [ -98.515148604852214, 29.374595428219553 ], [ -98.515103689088008, 29.37457977181564 ] ], [ [ -98.51686438704489, 29.374587600017893 ], [ -98.516855403892052, 29.373491645843622 ] ], [ [ -98.520978671046151, 29.374571943612771 ], [ -98.519819844329632, 29.374571943612771 ] ], [ [ -98.519819844329632, 29.374571943612771 ], [ -98.51977492856544, 29.374564115409306 ] ], [ [ -98.515103689088008, 29.37457977181564 ], [ -98.515130638546523, 29.374438864071998 ], [ -98.515561829882913, 29.373515130699644 ], [ -98.515606745647105, 29.373460332693835 ] ], [ [ -98.51977492856544, 29.374564115409306 ], [ -98.51977492856544, 29.374266643231532 ], [ -98.519801878023955, 29.374211845630288 ] ], [ [ -98.514456902083438, 29.374540630795298 ], [ -98.514510801000483, 29.374540630795298 ], [ -98.514681480904471, 29.374470176920774 ] ], [ [ -98.514456902083438, 29.374540630795298 ], [ -98.514385036860716, 29.374478005131458 ], [ -98.514331137943671, 29.374462348709478 ], [ -98.514214356956728, 29.374352753688186 ], [ -98.514097575969799, 29.374149219764153 ], [ -98.51407062651127, 29.374000483177699 ], [ -98.514079609664122, 29.373499474129567 ] ], [ [ -98.514681480904471, 29.374470176920774 ], [ -98.515004874406756, 29.373773463758287 ], [ -98.515022840712433, 29.373656039721993 ] ], [ [ -98.519801878023955, 29.374211845630288 ], [ -98.520188153596123, 29.374227502090797 ], [ -98.520969687893313, 29.374219673860839 ], [ -98.52098765419899, 29.37420401739913 ] ], [ [ -98.519801878023955, 29.374211845630288 ], [ -98.519819844329632, 29.373804776811756 ], [ -98.519792894871117, 29.373656039721993 ] ], [ [ -98.519792894871117, 29.373656039721993 ], [ -98.519801878023955, 29.373499474129567 ], [ -98.519783911718278, 29.373468160982181 ] ], [ [ -98.515022840712433, 29.373656039721993 ], [ -98.515076739629478, 29.373616898346466 ], [ -98.515184537463583, 29.373382049777209 ] ], [ [ -98.515022840712433, 29.373656039721993 ], [ -98.514816228197091, 29.373499474129567 ], [ -98.514079609664122, 29.373499474129567 ] ], [ [ -98.511860770912335, 29.373507302414904 ], [ -98.514079609664122, 29.373499474129567 ] ], [ [ -98.514079609664122, 29.373499474129567 ], [ -98.514097575969799, 29.373319423400567 ], [ -98.514061643358431, 29.372943664331604 ], [ -98.514034693899916, 29.372857552682945 ], [ -98.513917912912959, 29.372685329167098 ], [ -98.513864013995914, 29.372528762081664 ] ], [ [ -98.516855403892052, 29.373491645843622 ], [ -98.519119158408017, 29.373491645843622 ], [ -98.519783911718278, 29.373468160982181 ] ], [ [ -98.516855403892052, 29.373491645843622 ], [ -98.515705560328357, 29.373491645843622 ], [ -98.515606745647105, 29.373460332693835 ] ], [ [ -98.516855403892052, 29.373491645843622 ], [ -98.516846420739199, 29.372411336609563 ] ], [ [ -98.519783911718278, 29.373468160982181 ], [ -98.519828827482485, 29.373436847825168 ] ], [ [ -98.515606745647105, 29.373460332693835 ], [ -98.515588779341428, 29.373358564890481 ], [ -98.515489964660176, 29.373272453592801 ] ], [ [ -98.519828827482485, 29.373436847825168 ], [ -98.520969687893313, 29.373429019534402 ] ], [ [ -98.519828827482485, 29.373436847825168 ], [ -98.519810861176794, 29.373342908296326 ], [ -98.519810861176794, 29.372630530714591 ] ], [ [ -98.515184537463583, 29.373382049777209 ], [ -98.515489964660176, 29.373272453592801 ] ], [ [ -98.515184537463583, 29.373382049777209 ], [ -98.515076739629478, 29.373288110197795 ], [ -98.515076739629478, 29.373225483763363 ], [ -98.515103689088008, 29.373115887410385 ], [ -98.515229453227789, 29.372881037685257 ], [ -98.515256402686319, 29.372779269302775 ] ], [ [ -98.515489964660176, 29.373272453592801 ], [ -98.515606745647105, 29.372967149314054 ], [ -98.515948105455081, 29.372317396134353 ] ], [ [ -98.515256402686319, 29.372779269302775 ], [ -98.515355217367556, 29.372622702361816 ], [ -98.515382166826086, 29.372497448635684 ] ], [ [ -98.515256402686319, 29.372779269302775 ], [ -98.514977924948226, 29.372583560588954 ], [ -98.51495995864255, 29.372497448635684 ] ], [ [ -98.519810861176794, 29.372630530714591 ], [ -98.519325770923373, 29.372638359066752 ] ], [ [ -98.519810861176794, 29.372630530714591 ], [ -98.520978671046151, 29.372614874008455 ] ], [ [ -98.519810861176794, 29.372630530714591 ], [ -98.519819844329632, 29.372270425864247 ], [ -98.519810861176794, 29.372192142032556 ], [ -98.519783911718278, 29.372176485258997 ] ], [ [ -98.513864013995914, 29.372528762081664 ], [ -98.513953845524327, 29.372489620272685 ], [ -98.51495995864255, 29.372497448635684 ] ], [ [ -98.513864013995914, 29.372528762081664 ], [ -98.513657401480572, 29.372497448635684 ], [ -98.513262142755565, 29.372489620272685 ], [ -98.511878737218026, 29.372497448635684 ] ], [ [ -98.515382166826086, 29.372497448635684 ], [ -98.51544504889597, 29.372442650082036 ], [ -98.51557979618859, 29.372176485258997 ], [ -98.515624711952796, 29.372153000094144 ], [ -98.515678610869841, 29.372137343314563 ], [ -98.515759459245416, 29.372153000094144 ], [ -98.515948105455081, 29.372317396134353 ] ], [ [ -98.515382166826086, 29.372497448635684 ], [ -98.515337251061879, 29.372481791909077 ], [ -98.51495995864255, 29.372497448635684 ] ], [ [ -98.516846420739199, 29.372411336609563 ], [ -98.518687967071642, 29.372395679869712 ] ], [ [ -98.516846420739199, 29.372411336609563 ], [ -98.516846420739199, 29.372176485258997 ], [ -98.516828454433508, 29.372168656871317 ] ], [ [ -98.515948105455081, 29.372317396134353 ], [ -98.516343364180102, 29.372137343314563 ] ] ] } }
]
}
