{
"type": "FeatureCollection",
"name": "gee_batch_2_32.71522_-117.11807",
"crs": { "type": "name", "properties": { "name": "urn:ogc:def:crs:OGC:1.3:CRS84" } },
"features": [
{ "type": "Feature", "properties": { "name": "road_network" }, "geometry": { "type": "MultiLineString", "coordinates": [ [ [ -117.118217670373852, 32.719083637555535 ], [ -117.118298518749413, 32.719030732917922 ], [ -117.118478181806239, 32.718388316956826 ], [ -117.118612929098845, 32.718063328296253 ], [ -117.118864457378393, 32.717700548857721 ], [ -117.119124968810809, 32.717413347422344 ], [ -117.11925073295059, 32.717322652040075 ], [ -117.119547176994345, 32.717179050829543 ], [ -117.119942435719338, 32.717050565339918 ], [ -117.120319728138696, 32.716982543535188 ], [ -117.121029397213121, 32.716967427571532 ] ], [ [ -117.117588849674945, 32.719083637555535 ], [ -117.117732580120403, 32.718992943871839 ], [ -117.117822411648817, 32.718501684815628 ], [ -117.117840377954494, 32.718244717462134 ], [ -117.11787631056589, 32.718131349276689 ], [ -117.117885293718729, 32.717889496666096 ] ], [ [ -117.117525967605062, 32.719083637555535 ], [ -117.117481051840855, 32.71904584853187 ], [ -117.11742715292381, 32.718864460995377 ], [ -117.117283422478351, 32.718615052530325 ], [ -117.116933079517565, 32.718169138687848 ], [ -117.116816298530622, 32.717965075677355 ], [ -117.116762399613577, 32.717700548857721 ], [ -117.116762399613577, 32.717572064119373 ], [ -117.116789349072107, 32.717473810959277 ], [ -117.116771382766416, 32.717375557690943 ] ], [ [ -117.115091533185108, 32.719060964143253 ], [ -117.115100516337947, 32.718894692277082 ], [ -117.115154415254992, 32.718834229703432 ], [ -117.115208314172037, 32.718819114053616 ], [ -117.115738320189678, 32.718826671878837 ] ], [ [ -117.12261941526603, 32.719038290725209 ], [ -117.121110245588696, 32.719038290725209 ], [ -117.121047363518812, 32.718947596995399 ], [ -117.121047363518812, 32.718531916220307 ] ], [ [ -117.121047363518812, 32.718531916220307 ], [ -117.122637381571721, 32.718524358370097 ] ], [ [ -117.121047363518812, 32.718531916220307 ], [ -117.121047363518812, 32.718002865158972 ] ], [ [ -117.113519481437905, 32.718388316956826 ], [ -117.114085420066885, 32.718358085503475 ], [ -117.114283049429389, 32.718312738304235 ], [ -117.114381864110641, 32.71826739108193 ], [ -117.11457051032032, 32.718154022925312 ], [ -117.11470525761294, 32.718025538840251 ], [ -117.114822038599868, 32.717874380856152 ], [ -117.114848988058398, 32.717776128029101 ], [ -117.11484000490556, 32.717708106777735 ] ], [ [ -117.122628398418883, 32.718002865158972 ], [ -117.121047363518812, 32.718002865158972 ] ], [ [ -117.121047363518812, 32.718002865158972 ], [ -117.121038380365974, 32.717488926837106 ] ], [ [ -117.113492531979375, 32.718010423053371 ], [ -117.11357338035495, 32.717912170376195 ], [ -117.113905757010073, 32.717866822950228 ], [ -117.113959655927118, 32.717844149228583 ], [ -117.114498645097598, 32.717745896368235 ], [ -117.11484000490556, 32.717708106777735 ] ], [ [ -117.117885293718729, 32.717889496666096 ], [ -117.117678681203358, 32.717934844080538 ], [ -117.117463085535178, 32.718025538840251 ], [ -117.117301388784043, 32.718025538840251 ], [ -117.117157658338584, 32.717980191471923 ], [ -117.117031894198803, 32.717866822950228 ], [ -117.11698697843461, 32.717730780533955 ], [ -117.117004944740287, 32.717609853767506 ], [ -117.117112742574378, 32.71744357919593 ], [ -117.117121725727216, 32.71731509408739 ] ], [ [ -117.117885293718729, 32.717889496666096 ], [ -117.117903260024406, 32.717556948255627 ], [ -117.117894276871567, 32.717216840644205 ] ], [ [ -117.11484000490556, 32.717708106777735 ], [ -117.115064583726578, 32.717647643399637 ] ], [ [ -117.115064583726578, 32.717647643399637 ], [ -117.115253229936243, 32.717632527548716 ], [ -117.115810185412414, 32.717519158585077 ], [ -117.116582736556737, 32.71739067358542 ], [ -117.116771382766416, 32.717375557690943 ] ], [ [ -117.115064583726578, 32.717647643399637 ], [ -117.115037634268063, 32.717617411695223 ], [ -117.115046617420901, 32.717488926837106 ], [ -117.115262213089082, 32.717133703030811 ], [ -117.11529814570045, 32.717043007364175 ], [ -117.115316112006127, 32.716944753621249 ], [ -117.115253229936243, 32.716876731735809 ] ], [ [ -117.118451232347709, 32.717602295839164 ], [ -117.1185590301818, 32.717473810959277 ], [ -117.118756659544303, 32.71731509408739 ], [ -117.119322598173312, 32.717065681289476 ], [ -117.119403446548887, 32.716929637651198 ] ], [ [ -117.113474565673698, 32.717549390322802 ], [ -117.11357338035495, 32.71740578947734 ], [ -117.114965769045327, 32.71693719563654 ], [ -117.115118482643624, 32.716891847714841 ], [ -117.115253229936243, 32.716876731735809 ] ], [ [ -117.121038380365974, 32.717488926837106 ], [ -117.122637381571721, 32.717481368898511 ] ], [ [ -117.121038380365974, 32.717488926837106 ], [ -117.121029397213121, 32.716967427571532 ] ], [ [ -117.116771382766416, 32.717375557690943 ], [ -117.116879180600506, 32.71733020999212 ] ], [ [ -117.116879180600506, 32.71733020999212 ], [ -117.117121725727216, 32.71731509408739 ] ], [ [ -117.116879180600506, 32.71733020999212 ], [ -117.116888163753359, 32.717171492864694 ], [ -117.116960028976081, 32.717050565339918 ], [ -117.117211557255629, 32.716823825789056 ], [ -117.117463085535178, 32.716702897792899 ], [ -117.117651731744843, 32.716649991743026 ], [ -117.11780444534314, 32.71663487572301 ], [ -117.117885293718729, 32.716687781781857 ] ], [ [ -117.117121725727216, 32.71731509408739 ], [ -117.117552917063591, 32.717239514525318 ], [ -117.117894276871567, 32.717216840644205 ] ], [ [ -117.117894276871567, 32.717216840644205 ], [ -117.117894276871567, 32.71716393489919 ] ], [ [ -117.113492531979375, 32.717186608793753 ], [ -117.113519481437905, 32.71714881896628 ], [ -117.114202201053814, 32.716906963691308 ] ], [ [ -117.117894276871567, 32.71716393489919 ], [ -117.118397333430664, 32.717111029122798 ], [ -117.11900818782388, 32.716944753621249 ] ], [ [ -117.117894276871567, 32.71716393489919 ], [ -117.117885293718729, 32.716687781781857 ] ], [ [ -117.113474565673698, 32.717043007364175 ], [ -117.113528464590743, 32.716974985553676 ], [ -117.114022537997002, 32.716778477809711 ], [ -117.114327965193596, 32.71663487572301 ] ], [ [ -117.121029397213121, 32.716967427571532 ], [ -117.122610432113191, 32.716959869588742 ] ], [ [ -117.11900818782388, 32.716944753621249 ], [ -117.119071069893764, 32.716959869588742 ], [ -117.119349547631842, 32.716922079665203 ], [ -117.119403446548887, 32.716929637651198 ] ], [ [ -117.11900818782388, 32.716944753621249 ], [ -117.119107002505132, 32.716808709798507 ], [ -117.119304631867635, 32.716725571804673 ], [ -117.119493278077286, 32.716566853601243 ], [ -117.119592092758538, 32.716415693144917 ], [ -117.119654974828435, 32.716241858303427 ], [ -117.119663957981274, 32.716143603677935 ], [ -117.119654974828435, 32.716105813408539 ], [ -117.119628025369906, 32.716090697296295 ] ], [ [ -117.119403446548887, 32.716929637651198 ], [ -117.120095149317635, 32.716687781781857 ], [ -117.12059820587676, 32.716544179549132 ], [ -117.121640251606337, 32.71619651002819 ], [ -117.122538566890469, 32.715924419892566 ], [ -117.122601448960353, 32.715901745677129 ], [ -117.122655347877398, 32.715833722996237 ] ], [ [ -117.114202201053814, 32.716906963691308 ], [ -117.114345931499273, 32.716891847714841 ], [ -117.114759156529985, 32.71674824581067 ], [ -117.115208314172037, 32.716619759700436 ], [ -117.115396960381702, 32.716604643675296 ], [ -117.11551374136863, 32.716710455797468 ] ], [ [ -117.114202201053814, 32.716906963691308 ], [ -117.114202201053814, 32.716846499770078 ], [ -117.114229150512344, 32.716808709798507 ], [ -117.114624409237379, 32.716649991743026 ], [ -117.115118482643624, 32.716491273405104 ], [ -117.115154415254992, 32.716445925256679 ] ], [ [ -117.115253229936243, 32.716876731735809 ], [ -117.115450859298747, 32.716793593805392 ], [ -117.11551374136863, 32.716710455797468 ] ], [ [ -117.11551374136863, 32.716710455797468 ], [ -117.115666454966956, 32.71668022377537 ] ], [ [ -117.117885293718729, 32.716687781781857 ], [ -117.118002074705657, 32.716566853601243 ], [ -117.118199704068161, 32.716521505491244 ], [ -117.118334451360781, 32.716340112820681 ] ], [ [ -117.115666454966956, 32.71668022377537 ], [ -117.115882050635136, 32.716657549752078 ] ], [ [ -117.115666454966956, 32.71668022377537 ], [ -117.115666454966956, 32.716619759700436 ], [ -117.115720353884001, 32.716566853601243 ], [ -117.115756286495369, 32.716491273405104 ] ], [ [ -117.115882050635136, 32.716657549752078 ], [ -117.11594493270502, 32.716702897792899 ], [ -117.116151545220362, 32.716687781781857 ], [ -117.117454102382339, 32.71643080920208 ], [ -117.1175349507579, 32.71643080920208 ], [ -117.118038007317026, 32.716347670855988 ], [ -117.118334451360781, 32.716340112820681 ] ], [ [ -117.115882050635136, 32.716657549752078 ], [ -117.115989848469226, 32.716551737567137 ], [ -117.116897146906197, 32.716317438710924 ], [ -117.116924096364713, 32.716302322634547 ], [ -117.116969012128919, 32.716219184168686 ] ], [ [ -117.114651358695895, 32.716506389449457 ], [ -117.115046617420901, 32.716393019054365 ], [ -117.115136448949315, 32.716393019054365 ], [ -117.115154415254992, 32.716408135115373 ] ], [ [ -117.115154415254992, 32.716445925256679 ], [ -117.115280179394759, 32.716445925256679 ], [ -117.115917983246504, 32.716294764595396 ], [ -117.116456972416955, 32.716219184168686 ], [ -117.116816298530622, 32.716181393931322 ], [ -117.116924096364713, 32.716181393931322 ], [ -117.116969012128919, 32.716219184168686 ] ], [ [ -117.115154415254992, 32.716445925256679 ], [ -117.115154415254992, 32.716408135115373 ] ], [ [ -117.122089409248389, 32.71643080920208 ], [ -117.122655347877398, 32.716423251173822 ] ], [ [ -117.115154415254992, 32.716408135115373 ], [ -117.115208314172037, 32.716347670855988 ], [ -117.115468825604424, 32.716264532432405 ], [ -117.115558657132837, 32.716219184168686 ], [ -117.115765269648207, 32.715992442504287 ], [ -117.116142562067523, 32.715697677478822 ], [ -117.116609686015252, 32.715251749050282 ], [ -117.116681551237988, 32.715213958403012 ], [ -117.116717483849371, 32.715168609605165 ], [ -117.117094776268701, 32.714881400016679 ], [ -117.117373254006765, 32.71476046938696 ] ], [ [ -117.118334451360781, 32.716340112820681 ], [ -117.119628025369906, 32.716090697296295 ] ], [ [ -117.116969012128919, 32.716219184168686 ], [ -117.117121725727216, 32.716181393931322 ], [ -117.117292405631204, 32.716113371463699 ] ], [ [ -117.117292405631204, 32.716113371463699 ], [ -117.117346304548249, 32.716136045625341 ], [ -117.117705630661888, 32.716105813408539 ], [ -117.117750546426095, 32.716090697296295 ], [ -117.117849361107346, 32.716000000569053 ] ], [ [ -117.117292405631204, 32.716113371463699 ], [ -117.11731935508972, 32.716022674759515 ], [ -117.117400203465294, 32.715924419892566 ], [ -117.117490034993693, 32.715765700263475 ], [ -117.117552917063591, 32.715569189855174 ], [ -117.117750546426095, 32.71543314393427 ] ], [ [ -117.119628025369906, 32.716090697296295 ], [ -117.119637008522744, 32.716045348944206 ] ], [ [ -117.119637008522744, 32.716045348944206 ], [ -117.119843621038086, 32.716030232821716 ], [ -117.119897519955131, 32.716007558633187 ] ], [ [ -117.119637008522744, 32.716045348944206 ], [ -117.119628025369906, 32.71601511669666 ] ], [ [ -117.119628025369906, 32.71601511669666 ], [ -117.119637008522744, 32.715916861821391 ], [ -117.119619042217067, 32.715826164917381 ], [ -117.119529210688654, 32.715682561297413 ], [ -117.119376497090357, 32.715516283132821 ], [ -117.119340564478989, 32.715425585821471 ] ], [ [ -117.119628025369906, 32.71601511669666 ], [ -117.119520227535816, 32.715954652170851 ], [ -117.119340564478989, 32.715954652170851 ], [ -117.117975125247142, 32.716083139239224 ], [ -117.117930209482935, 32.716068023123135 ], [ -117.117849361107346, 32.716000000569053 ] ], [ [ -117.119897519955131, 32.716007558633187 ], [ -117.120337694444373, 32.715962210238821 ], [ -117.120580239571083, 32.715909303749584 ], [ -117.120867700461986, 32.715879071455937 ], [ -117.122062459789873, 32.715690119388434 ], [ -117.122161274471125, 32.715659887020493 ], [ -117.122430769056379, 32.715622096546156 ], [ -117.122475684820586, 32.715569189855174 ] ], [ [ -117.117849361107346, 32.716000000569053 ], [ -117.117813428495978, 32.715508725027057 ], [ -117.117750546426095, 32.71543314393427 ] ], [ [ -117.118343434513619, 32.715765700263475 ], [ -117.118316485055104, 32.715213958403012 ] ], [ [ -117.122475684820586, 32.715569189855174 ], [ -117.122574499501823, 32.715546515549441 ], [ -117.122646364724559, 32.715448260157949 ] ], [ [ -117.122475684820586, 32.715569189855174 ], [ -117.122394836445011, 32.715501166920667 ], [ -117.122269072305215, 32.715470934488678 ], [ -117.122170257623964, 32.715470934488678 ], [ -117.121011430907444, 32.715622096546156 ], [ -117.12049040804267, 32.715644770832675 ], [ -117.120032267247751, 32.715576747955808 ], [ -117.11946632861877, 32.715418027708033 ], [ -117.119376497090357, 32.715410469593948 ], [ -117.119340564478989, 32.715425585821471 ] ], [ [ -117.119340564478989, 32.715425585821471 ], [ -117.119205817186383, 32.715372679013932 ], [ -117.118891406836923, 32.715289539681535 ], [ -117.118864457378393, 32.715266865304706 ], [ -117.118585979640329, 32.715198842139621 ], [ -117.118370383972149, 32.715108144505493 ], [ -117.118181737762484, 32.714941865270056 ], [ -117.118073939928394, 32.714752911217161 ], [ -117.11787631056589, 32.714601747686643 ] ], [ [ -117.117750546426095, 32.71543314393427 ], [ -117.117750546426095, 32.71519128400697 ], [ -117.11777749588461, 32.715055237509659 ], [ -117.117795462190287, 32.714669771307072 ], [ -117.11787631056589, 32.714601747686643 ] ], [ [ -117.122278055458054, 32.715274423430955 ], [ -117.122439752209218, 32.715251749050282 ] ], [ [ -117.119133951963647, 32.71520640027164 ], [ -117.119412429701725, 32.715176167739742 ], [ -117.120418542819934, 32.715176167739742 ], [ -117.120849734156309, 32.715198842139621 ], [ -117.120984481448929, 32.715176167739742 ], [ -117.121002447754606, 32.715153493334086 ], [ -117.121011430907444, 32.714465700290141 ] ], [ [ -117.113501515132228, 32.715040121219374 ], [ -117.113528464590743, 32.715009888631116 ], [ -117.113663211883363, 32.714987214183196 ], [ -117.113914740162912, 32.714896516333866 ], [ -117.114399830416318, 32.714684887660127 ], [ -117.114543560861804, 32.714616864051216 ], [ -117.114579493473173, 32.714563956763982 ] ], [ [ -117.11787631056589, 32.714601747686643 ], [ -117.117912243177258, 32.714208721308374 ], [ -117.118046990469864, 32.713649411553554 ] ], [ [ -117.115765269648207, 32.714579073134971 ], [ -117.115630522355588, 32.714337210891799 ] ], [ [ -117.114579493473173, 32.714563956763982 ], [ -117.11470525761294, 32.714548840390435 ], [ -117.114857971211237, 32.71449593306285 ], [ -117.115702387578324, 32.714133139114018 ], [ -117.115765269648207, 32.714019765702389 ] ], [ [ -117.114579493473173, 32.714563956763982 ], [ -117.114381864110641, 32.71421627952428 ], [ -117.114265083123712, 32.713921508629092 ], [ -117.114193217900976, 32.71319591458321 ] ], [ [ -117.122610432113191, 32.714473258484276 ], [ -117.122035510331344, 32.714480816677771 ], [ -117.121101262435857, 32.714465700290141 ], [ -117.121047363518812, 32.714450583899939 ] ], [ [ -117.121011430907444, 32.714465700290141 ], [ -117.121047363518812, 32.714450583899939 ] ], [ [ -117.121011430907444, 32.714465700290141 ], [ -117.120445492278463, 32.71445814209536 ], [ -117.119394463396048, 32.714473258484276 ], [ -117.118361400819296, 32.71445814209536 ] ], [ [ -117.121047363518812, 32.714450583899939 ], [ -117.12108329613018, 32.714337210891799 ], [ -117.121155161352902, 32.714246512381536 ], [ -117.121424655938156, 32.713974416297397 ], [ -117.121550420077938, 32.713868600929409 ], [ -117.121604318994983, 32.713845926191375 ], [ -117.121748049440427, 32.713815693198349 ], [ -117.122574499501823, 32.713823251447565 ], [ -117.122610432113191, 32.713830809696141 ], [ -117.122664331030236, 32.713883717418234 ] ], [ [ -117.118046990469864, 32.713649411553554 ], [ -117.118199704068161, 32.713566270614933 ], [ -117.118289535596574, 32.713301730749166 ], [ -117.118891406836923, 32.711963902840921 ], [ -117.118918356295438, 32.711797617744224 ], [ -117.11880157530851, 32.711676682933764 ] ], [ [ -117.118046990469864, 32.713649411553554 ], [ -117.11798410839998, 32.713596503692479 ], [ -117.117975125247142, 32.713558712343932 ], [ -117.118002074705657, 32.713399988505181 ], [ -117.118055973622702, 32.713248822681877 ], [ -117.118621912251697, 32.711910993980148 ], [ -117.118675811168742, 32.711797617744224 ], [ -117.11880157530851, 32.711676682933764 ] ], [ [ -117.117525967605062, 32.713294172455768 ], [ -117.117418169770971, 32.71331684733407 ], [ -117.116349174582865, 32.713339522206603 ], [ -117.115711370731162, 32.71331684733407 ], [ -117.115370010923172, 32.713286614161717 ] ], [ [ -117.114193217900976, 32.71319591458321 ], [ -117.113528464590743, 32.713188356280838 ] ], [ [ -117.114193217900976, 32.71319591458321 ], [ -117.114220167359505, 32.712969165233446 ], [ -117.114220167359505, 32.711699358223214 ], [ -117.114238133665182, 32.711533072633401 ] ], [ [ -117.122637381571721, 32.712787765338639 ], [ -117.122017544025667, 32.712772648664085 ] ], [ [ -117.122260089152363, 32.711790059323377 ], [ -117.122556533196146, 32.71178250090189 ] ], [ [ -117.122260089152363, 32.711790059323377 ], [ -117.121397706479641, 32.71178250090189 ], [ -117.120957531990399, 32.711767384056984 ], [ -117.120912616226192, 32.711752267209519 ] ], [ [ -117.122260089152363, 32.711790059323377 ], [ -117.122269072305215, 32.711404579010789 ], [ -117.122161274471125, 32.711351669818264 ] ], [ [ -117.120912616226192, 32.711752267209519 ], [ -117.120831767850632, 32.711835409838876 ], [ -117.120265829221637, 32.711842968255887 ], [ -117.120167014540399, 32.711812734584008 ], [ -117.120059216706281, 32.711714475079646 ] ], [ [ -117.120912616226192, 32.711752267209519 ], [ -117.120957531990399, 32.711714475079646 ], [ -117.120993464601767, 32.711563306400052 ], [ -117.121092279283019, 32.711404579010789 ], [ -117.121200077117109, 32.711359228276258 ] ], [ [ -117.120912616226192, 32.711752267209519 ], [ -117.120822784697779, 32.71166912450267 ], [ -117.120436509125625, 32.71162377390263 ], [ -117.120122098776193, 32.71160865703083 ] ], [ [ -117.120059216706281, 32.711714475079646 ], [ -117.120122098776193, 32.71160865703083 ] ], [ [ -117.120059216706281, 32.711714475079646 ], [ -117.119996334636383, 32.711714475079646 ], [ -117.119987351483545, 32.711722033506902 ], [ -117.119816671579571, 32.711722033506902 ], [ -117.119080053046602, 32.71166156607093 ], [ -117.118963272059645, 32.711570864840112 ] ], [ [ -117.11880157530851, 32.711676682933764 ], [ -117.118963272059645, 32.711570864840112 ] ], [ [ -117.11880157530851, 32.711676682933764 ], [ -117.118693777474419, 32.711593540156464 ], [ -117.11787631056589, 32.711548189518012 ] ], [ [ -117.120122098776193, 32.71160865703083 ], [ -117.120149048234708, 32.71143481282099 ] ], [ [ -117.118963272059645, 32.711570864840112 ], [ -117.119133951963647, 32.711419695917172 ], [ -117.119232766644899, 32.711374345190329 ] ], [ [ -117.11787631056589, 32.711548189518012 ], [ -117.117031894198803, 32.711563306400052 ], [ -117.116519854486853, 32.711540631076019 ] ], [ [ -117.11787631056589, 32.711548189518012 ], [ -117.11787631056589, 32.711427254369397 ] ], [ [ -117.116519854486853, 32.711540631076019 ], [ -117.114238133665182, 32.711533072633401 ] ], [ [ -117.116519854486853, 32.711540631076019 ], [ -117.116501888181162, 32.711397020556625 ] ], [ [ -117.114238133665182, 32.711533072633401 ], [ -117.113591346660627, 32.71151039730168 ], [ -117.113501515132228, 32.71143481282099 ] ] ] } }
]
}
